{
  "2400": {
    "bn": {
      "division": "ময়মনসিংহ",
      "district": "নেত্রকোণা",
      "thana": "নেত্রকোণা সদর",
      "suboffice": "নেত্রকোণা সদর",
      "postcode": "২৪০০"
    },
    "en": {
      "division": "Mymensingh",
      "district": "Netrokona",
      "thana": "Netrakona Sadar",
      "suboffice": "Netrakona Sadar",
      "postcode": 2400
    }
  },
  "2401": {
    "bn": {
      "division": "ময়মনসিংহ",
      "district": "নেত্রকোণা",
      "thana": "নেত্রকোণা সদর",
      "suboffice": "বাইখেরহাটি",
      "postcode": "২৪০১"
    },
    "en": {
      "division": "Mymensingh",
      "district": "Netrokona",
      "thana": "Netrakona Sadar",
      "suboffice": "Baikherhati",
      "postcode": 2401
    }
  },
  "2410": {
    "bn": {
      "division": "ময়মনসিংহ",
      "district": "নেত্রকোণা",
      "thana": "পুর্বধোলা",
      "suboffice": "পুর্বধোলা",
      "postcode": "২৪১০"
    },
    "en": {
      "division": "Mymensingh",
      "district": "Netrokona",
      "thana": "Purbadhola",
      "suboffice": "Purbadhola",
      "postcode": 2410
    }
  },
  "2411": {
    "bn": {
      "division": "ময়মনসিংহ",
      "district": "নেত্রকোণা",
      "thana": "পুর্বধোলা",
      "suboffice": "শামগঞ্জ",
      "postcode": "২৪১১"
    },
    "en": {
      "division": "Mymensingh",
      "district": "Netrokona",
      "thana": "Purbadhola",
      "suboffice": "Shamganj",
      "postcode": 2411
    }
  },
  "2412": {
    "bn": {
      "division": "ময়মনসিংহ",
      "district": "নেত্রকোণা",
      "thana": "পুর্বধোলা",
      "suboffice": "জারিয়া ঝানঝাইল",
      "postcode": "২৪১২"
    },
    "en": {
      "division": "Mymensingh",
      "district": "Netrokona",
      "thana": "Purbadhola",
      "suboffice": "Jaria Jhanjhail",
      "postcode": 2412
    }
  },
  "2416": {
    "bn": {
      "division": "ময়মনসিংহ",
      "district": "নেত্রকোণা",
      "thana": "ধবাউরা",
      "suboffice": "ধবাউরা",
      "postcode": "২৪১৬"
    },
    "en": {
      "division": "Mymensingh",
      "district": "Netrokona",
      "thana": "Dhobaura",
      "suboffice": "Dhobaura",
      "postcode": 2416
    }
  },
  "2417": {
    "bn": {
      "division": "ময়মনসিংহ",
      "district": "নেত্রকোণা",
      "thana": "ধবাউরা",
      "suboffice": "সাকয়াই",
      "postcode": "২৪১৭"
    },
    "en": {
      "division": "Mymensingh",
      "district": "Netrokona",
      "thana": "Dhobaura",
      "suboffice": "Sakoai",
      "postcode": 2417
    }
  },
  "2420": {
    "bn": {
      "division": "ময়মনসিংহ",
      "district": "নেত্রকোণা",
      "thana": "সুসনঞ্জ দুর্গাপুর",
      "suboffice": "সুসনঞ্জ দুর্গাপুর",
      "postcode": "২৪২০"
    },
    "en": {
      "division": "Mymensingh",
      "district": "Netrokona",
      "thana": "Susung Durgapur",
      "suboffice": "Susnng Durgapur",
      "postcode": 2420
    }
  },
  "2430": {
    "bn": {
      "division": "ময়মনসিংহ",
      "district": "নেত্রকোণা",
      "thana": "কলমাকান্দা",
      "suboffice": "কলমাকান্দা",
      "postcode": "২৪৩০"
    },
    "en": {
      "division": "Mymensingh",
      "district": "Netrokona",
      "thana": "Kalmakanda",
      "suboffice": "Kalmakanda",
      "postcode": 2430
    }
  },
  "2440": {
    "bn": {
      "division": "ময়মনসিংহ",
      "district": "নেত্রকোণা",
      "thana": "বারহাট্টা",
      "suboffice": "বারহাট্টা",
      "postcode": "২৪৪০"
    },
    "en": {
      "division": "Mymensingh",
      "district": "Netrokona",
      "thana": "Barhatta",
      "suboffice": "Barhatta",
      "postcode": 2440
    }
  },
  "2446": {
    "bn": {
      "division": "ময়মনসিংহ",
      "district": "নেত্রকোণা",
      "thana": "মোহনগঞ্জ",
      "suboffice": "মোহনগঞ্জ",
      "postcode": "২৪৪৬"
    },
    "en": {
      "division": "Mymensingh",
      "district": "Netrokona",
      "thana": "Mohanganj",
      "suboffice": "Mohanganj",
      "postcode": 2446
    }
  },
  "2450": {
    "bn": {
      "division": "ময়মনসিংহ",
      "district": "নেত্রকোণা",
      "thana": "ধর্মপাশা",
      "suboffice": "ধর্মপাশা",
      "postcode": "২৪৫০"
    },
    "en": {
      "division": "Mymensingh",
      "district": "Netrokona",
      "thana": "Dharmapasha",
      "suboffice": "Dharampasha",
      "postcode": 2450
    }
  },
  "2456": {
    "bn": {
      "division": "ময়মনসিংহ",
      "district": "নেত্রকোণা",
      "thana": "মধ্যনগর",
      "suboffice": "মধ্যনগর",
      "postcode": "২৪৫৬"
    },
    "en": {
      "division": "Mymensingh",
      "district": "Netrokona",
      "thana": "Moddhynagar",
      "suboffice": "Moddoynagar",
      "postcode": 2456
    }
  },
  "2460": {
    "bn": {
      "division": "ময়মনসিংহ",
      "district": "নেত্রকোণা",
      "thana": "খালিয়াজুরী",
      "suboffice": "খালিয়াজুরী",
      "postcode": "২৪৬০"
    },
    "en": {
      "division": "Mymensingh",
      "district": "Netrokona",
      "thana": "Khaliajuri",
      "suboffice": "Khaliajhri",
      "postcode": 2460
    }
  },
  "2462": {
    "bn": {
      "division": "ময়মনসিংহ",
      "district": "নেত্রকোণা",
      "thana": "খালিয়াজুরী",
      "suboffice": "শালদিঘা",
      "postcode": "২৪৬২"
    },
    "en": {
      "division": "Mymensingh",
      "district": "Netrokona",
      "thana": "Khaliajuri",
      "suboffice": "Shaldigha",
      "postcode": 2462
    }
  },
  "2470": {
    "bn": {
      "division": "ময়মনসিংহ",
      "district": "নেত্রকোণা",
      "thana": "আটপাড়া",
      "suboffice": "আটপাড়া",
      "postcode": "২৪৭০"
    },
    "en": {
      "division": "Mymensingh",
      "district": "Netrokona",
      "thana": "Atpara",
      "suboffice": "Atpara",
      "postcode": 2470
    }
  },
  "2480": {
    "bn": {
      "division": "ময়মনসিংহ",
      "district": "নেত্রকোণা",
      "thana": "কেন্দুয়া",
      "suboffice": "কেন্দুয়া",
      "postcode": "২৪৮০"
    },
    "en": {
      "division": "Mymensingh",
      "district": "Netrokona",
      "thana": "Kendua",
      "suboffice": "Kendua",
      "postcode": 2480
    }
  },
  "2490": {
    "bn": {
      "division": "ময়মনসিংহ",
      "district": "নেত্রকোণা",
      "thana": "মদন",
      "suboffice": "মদন",
      "postcode": "২৪৯০"
    },
    "en": {
      "division": "Mymensingh",
      "district": "Netrokona",
      "thana": "Madan",
      "suboffice": "Madan",
      "postcode": 2490
    }
  }
}
