"Postcode","Division","District","Thana","SubOffice","PostCode"
"1206","ঢাকা","ঢাকা","ঢাকা সেনানিবাস","ঢাকা সেনানিবাস TSO","১২০৬"
"1350","ঢাকা","ঢাকা","ধামরাই","ধামরাই","১৩৫০"
"1209","ঢাকা","ঢাকা","ধানমন্ডি","জিগাতলা TSO","১২০৯"
"1213","ঢাকা","ঢাকা","গুলশান","বনানী TSO","১২১৩"
"1212","ঢাকা","ঢাকা","গুলশান","গুলশান মডেল টাউন","১২১২"
"1236","ঢাকা","Dhaka","Jatrabari","Dhania TSO","১২৩৬"
"1331","ঢাকা","ঢাকা","জয়পাড়া","পালামগঞ্জ","১৩৩১"
"1332","ঢাকা","ঢাকা","জয়পাড়া","নারিশা","১৩৩২"
"1312","ঢাকা","ঢাকা","কেরানীগঞ্জ","আটি","১৩১২"
"1311","ঢাকা","ঢাকা","কেরানীগঞ্জ","ঢাকা পাট কল","১৩১১"
"1313","ঢাকা","ঢাকা","কেরানীগঞ্জ","কালাটিয়া","১৩১৩"
"1310","ঢাকা","ঢাকা","কেরানীগঞ্জ","কেরানীগঞ্জ","১৩১০"
"1219","ঢাকা","ঢাকা","খিলগাঁও","খিলগাঁও TSO","১২১৯"
"1229","ঢাকা","ঢাকা","খিলক্ষেত","খিলক্ষেত TSO","১২২৯"
"1211","ঢাকা","ঢাকা","লালবাগ","পোস্তা TSO","১২১১"
"1216","ঢাকা","ঢাকা","মিরপুর","মিরপুর TSO","১২১৬"
"1207","ঢাকা","ঢাকা","মোহাম্মদপুর","মোহাম্মদপুর হাউজিং","১২০৭"
"1225","ঢাকা","ঢাকা","মোহাম্মদপুর","সংসদ ভবন TSO","১২২৫"
"1222","ঢাকা","ঢাকা","মতিঝিল","বঙ্গভবন TSO","১২২২"
"1223","ঢাকা","ঢাকা","মতিঝিল","দিলকুশা TSO","১২২৩"
"1323","ঢাকা","ঢাকা","নবাবগঞ্জ","আগলা","১৩২৩"
"1325","ঢাকা","ঢাকা","নবাবগঞ্জ","চুরাইন","১৩২৫"
"1322","ঢাকা","ঢাকা","নবাবগঞ্জ","দাউদপুর","১৩২২"
"1321","ঢাকা","ঢাকা","নবাবগঞ্জ","হাসনাবাদ","১৩২১"
"1324","ঢাকা","ঢাকা","নবাবগঞ্জ","খালপাড়","১৩২৪"
"1320","ঢাকা","ঢাকা","নবাবগঞ্জ","নবাবগঞ্জ","১৩২০"
"1205","ঢাকা","ঢাকা","নতুন বাজার","নিউমার্কেট TSO","১২০৫"
"1000","ঢাকা","ঢাকা","পল্টন","ঢাকা জিপিও","১০০০"
"1217","ঢাকা","ঢাকা","রমনা","শান্তিনগর TSO","১২১৭"
"1214","ঢাকা","ঢাকা","সবুজবাগ","বাসাবো TSO","১২১৪"
"1348","ঢাকা","ঢাকা","সাভার","আমিন বাজার","১৩৪৮"
"1341","ঢাকা","ঢাকা","সাভার","গব্যশালা","১৩৪১"
"1349","ঢাকা","ঢাকা","সাভার","ইপিজেড","১৩৪৯"
"1342","ঢাকা","ঢাকা","সাভার","জাহাঙ্গীরনগর বিশ্ববিদ্যালয়","১৩৪২"
"1346","ঢাকা","ঢাকা","সাভার","কাশেম কটন মিলস","১৩৪৬"
"1347","ঢাকা","ঢাকা","সাভার","রাজফুললবাড়ীয়া","১৩৪৭"
"1340","ঢাকা","ঢাকা","সাভার","সাভার","১৩৪০"
"1344","ঢাকা","ঢাকা","সাভার","সাভার সেনানিবাস","১৩৪৪"
"1343","ঢাকা","ঢাকা","সাভার","সাভার বিপিএটিসি","১৩৪৩"
"1345","ঢাকা","ঢাকা","সাভার","শিমুলিয়া","১৩৪৫"
"1100","ঢাকা","ঢাকা","সুত্রাপুর","ঢাকা সদর HO","১১০০"
"1204","ঢাকা","ঢাকা","সুত্রাপুর","গেণ্ডারিয়া TSO","১২০৪"
"1203","ঢাকা","ঢাকা","সুত্রাপুর","ওয়ারী TSO","১২০৩"
"1215","ঢাকা","ঢাকা","তেজগাঁও","তেজগাঁও TSO","১২১৫"
"1208","ঢাকা","ঢাকা","উত্তরা","উত্তরা মডেল টাউন TSO","১২০৮"
"1230","ঢাকা","ঢাকা","উত্তরা","উত্তরা মডেল টাউন TSO","১২৩০"
"7870","রাজশাহী","ফরিদপুর","আলফাডাঙ্গা","আলফাডাঙ্গা","৭৮৭০"
"7830","রাজশাহী","ফরিদপুর","ভাঙ্গা","ভাঙ্গা","৭৮৩০"
"7860","রাজশাহী","ফরিদপুর","বোয়ালমারী","বোয়ালমারী","৭৮৬০"
"7861","রাজশাহী","ফরিদপুর","বোয়ালমারী","রুপাতপাত","৭৮৬১"
"7810","রাজশাহী","ফরিদপুর","চরভদ্রাসন","চরভদ্রাসন","৭৮১০"
"7802","রাজশাহী","ফরিদপুর","ফরিদপুর সদর","অম্বিকাপুর","৭৮০২"
"7803","রাজশাহী","ফরিদপুর","ফরিদপুর সদর","বাইতুলমান পলিটেকনিক","৭৮০৩"
"7800","রাজশাহী","ফরিদপুর","ফরিদপুর সদর","ফরিদপুর সদর","৭৮০০"
"7801","রাজশাহী","ফরিদপুর","ফরিদপুর সদর","কানাইপুর","৭৮০১"
"7851","রাজশাহী","ফরিদপুর","মদুখালি","কামারখালি","৭৮৫১"
"7850","রাজশাহী","ফরিদপুর","মদুখালি","মদুখালি","৭৮৫০"
"7840","রাজশাহী","ফরিদপুর","নগরকান্দা","নগরকান্দা","৭৮৪০"
"7841","রাজশাহী","ফরিদপুর","নগরকান্দা","তালমা","৭৮৪১"
"7822","রাজশাহী","ফরিদপুর","সদরপুর","বিশ্বরোড জাকের মঞ্জিল","৭৮২২"
"7821","রাজশাহী","ফরিদপুর","সদরপুর","হাট ক্রিশাপুর","৭৮২১"
"7820","রাজশাহী","ফরিদপুর","শ্রী-অঙ্গন","শ্রী-অঙ্গন","৭৮২০"
"7804","রাজশাহী","ফরিদপুর","শ্রী-অঙ্গন","শ্রী-অঙ্গন","৭৮০৪"
"1703","ঢাকা","গাজীপুর","গাজীপুর সদর","B.O.F","১৭০৩"
"1701","ঢাকা","গাজীপুর","গাজীপুর সদর","B.R.R","১৭০১"
"1702","ঢাকা","গাজীপুর","গাজীপুর সদর","চান্দনা","১৭০২"
"1700","ঢাকা","গাজীপুর","গাজীপুর সদর","গাজীপুর সদর","১৭০০"
"1704","ঢাকা","গাজীপুর","গাজীপুর সদর","জাতীয় বিশ্ববিদ্যালয়","১৭০৪"
"1750","ঢাকা","গাজীপুর","কালিয়াকৈর","কালিয়াকৈর","১৭৫০"
"1751","ঢাকা","গাজীপুর","কালিয়াকৈর","সফিপুর","১৭৫১"
"1720","ঢাকা","গাজীপুর","কালীগঞ্জ","কালীগঞ্জ","১৭২০"
"1721","ঢাকা","গাজীপুর","কালীগঞ্জ","পুবাইল","১৭২১"
"1722","ঢাকা","গাজীপুর","কালীগঞ্জ","সান্তানপাড়া","১৭২২"
"1723","ঢাকা","গাজীপুর","কালীগঞ্জ","ভাওয়াল জামালপুর","১৭২৩"
"1730","ঢাকা","গাজীপুর","কাপাসিয়া","কাপাসিয়া","১৭৩০"
"1712","ঢাকা","গাজীপুর","মন্নুনগর","এরশাদ নগর","১৭১২"
"1710","ঢাকা","গাজীপুর","মন্নুনগর","মন্নুনগর","১৭১০"
"1711","ঢাকা","গাজীপুর","মন্নুনগর","নিশাত নগর","১৭১১"
"1743","ঢাকা","গাজীপুর","শ্রীপুর","বারমি","১৭৪৩"
"1747","ঢাকা","গাজীপুর","শ্রীপুর","বাশামুর","১৭৪৭"
"1748","ঢাকা","গাজীপুর","শ্রীপুর","বউবি","১৭৪৮"
"1745","ঢাকা","গাজীপুর","শ্রীপুর","কাওরাইড","১৭৪৫"
"1744","ঢাকা","গাজীপুর","শ্রীপুর","সাতখামার","১৭৪৪"
"1740","ঢাকা","গাজীপুর","শ্রীপুর","শ্রীপুর","১৭৪০"
"1741","ঢাকা","গাজীপুর","শ্রীপুর","রাজেন্দ্রপুর সেনানিবাস","১৭৪১"
"1742","ঢাকা","গাজীপুর","শ্রীপুর","রাজেন্দ্রপুর সেনানিবাস","১৭৪২"
"8102","বরিশাল","গোপালগঞ্জ","গোপালগঞ্জ সদর","বারফা","৮১০২"
"8013","বরিশাল","গোপালগঞ্জ","গোপালগঞ্জ সদর","চন্দ্রাদিঘীনালা","৮০১৩"
"8100","বরিশাল","গোপালগঞ্জ","গোপালগঞ্জ সদর","গোপালগঞ্জ সদর","৮১০০"
"8101","বরিশাল","গোপালগঞ্জ","গোপালগঞ্জ সদর","উলপুর","৮১০১"
"8133","বরিশাল","গোপালগঞ্জ","কাশিয়ানী","জনাপুর","৮১৩৩"
"8130","বরিশাল","গোপালগঞ্জ","কাশিয়ানী","কাশিয়ানী","৮১৩০"
"8131","বরিশাল","গোপালগঞ্জ","কাশিয়ানী","রামদিয়া কলেজ","৮১৩১"
"8132","বরিশাল","গোপালগঞ্জ","কাশিয়ানী","রাতোইল","৮১৩২"
"8110","বরিশাল","গোপালগঞ্জ","কোটালীপাড়া","কোটালীপাড়া","৮১১০"
"8141","বরিশাল","গোপালগঞ্জ","মাকসুদপুর","বাটিকামারী","৮১৪১"
"8142","বরিশাল","গোপালগঞ্জ","মাকসুদপুর","খানদারপাড়া","৮১৪২"
"8140","বরিশাল","গোপালগঞ্জ","মাকসুদপুর","মাকসুদপুর","৮১৪০"
"8121","বরিশাল","গোপালগঞ্জ","টুঙ্গিপাড়া","টুঙ্গিপাড়া","৮১২১"
"8120","বরিশাল","গোপালগঞ্জ","টুঙ্গিপাড়া","টুঙ্গিপাড়া","৮১২০"
"2336","ময়মনসিংহ","কিশোরগঞ্জ","বাজিতপুর","বাজিতপুর","২৩৩৬"
"2338","ময়মনসিংহ","কিশোরগঞ্জ","বাজিতপুর","লক্ষ্মীপুর","২৩৩৮"
"2337","ময়মনসিংহ","কিশোরগঞ্জ","বাজিতপুর","সরারচর","২৩৩৭"
"2350","ময়মনসিংহ","কিশোরগঞ্জ","ভৈরব","ভৈরব","২৩৫০"
"2320","ময়মনসিংহ","কিশোরগঞ্জ","হোসেনপুর","হোসেনপুর","২৩২০"
"2390","ময়মনসিংহ","কিশোরগঞ্জ","ইটনা","ইটনা","২৩৯০"
"2310","ময়মনসিংহ","কিশোরগঞ্জ","করিমগঞ্জ","করিমগঞ্জ","২৩১০"
"2331","ময়মনসিংহ","কিশোরগঞ্জ","কটিয়াদি","গচিহাটা","২৩৩১"
"2330","ময়মনসিংহ","কিশোরগঞ্জ","কটিয়াদি","কটিয়াদি","২৩৩০"
"2301","ময়মনসিংহ","কিশোরগঞ্জ","কিশোরগঞ্জ সদর","কিশোরগঞ্জ এস.মিলস","২৩০১"
"2300","ময়মনসিংহ","কিশোরগঞ্জ","কিশোরগঞ্জ সদর","কিশোরগঞ্জ সদর","২৩০০"
"2302","ময়মনসিংহ","কিশোরগঞ্জ","কিশোরগঞ্জ সদর","মাইজহাটি","২৩০২"
"2303","ময়মনসিংহ","কিশোরগঞ্জ","কিশোরগঞ্জ সদর","নীলগঞ্জ","২৩০৩"
"2341","ময়মনসিংহ","কিশোরগঞ্জ","কুলিয়ারচর","ছয়সুটি","২৩৪১"
"2340","ময়মনসিংহ","কিশোরগঞ্জ","কুলিয়ারচর","কুলিয়ারচর","২৩৪০"
"2371","ময়মনসিংহ","কিশোরগঞ্জ","মিঠামইন","আব্দুল্লাহপুর","২৩৭১"
"2370","ময়মনসিংহ","কিশোরগঞ্জ","মিঠামইন","মিঠামইন","২৩৭০"
"2360","ময়মনসিংহ","কিশোরগঞ্জ","নিকলী","নিকলী","২৩৬০"
"2380","ময়মনসিংহ","কিশোরগঞ্জ","অস্টগ্রাম","অস্টগ্রাম","২৩৮০"
"2326","ময়মনসিংহ","কিশোরগঞ্জ","তারিয়াল","তারিয়াল","২৩২৬"
"2316","ময়মনসিংহ","কিশোরগঞ্জ","তারিয়াল","তারিয়াল","২৩১৬"
"7932","রাজশাহী","মাদারীপুর","বারহামগঞ্জ","বাহাদুরপুর","৭৯৩২"
"7930","রাজশাহী","মাদারীপুর","বারহামগঞ্জ","বারহামগঞ্জ","৭৯৩০"
"7931","রাজশাহী","মাদারীপুর","বারহামগঞ্জ","নিলাকসমিবান্দার","৭৯৩১"
"7933","রাজশাহী","মাদারীপুর","বারহামগঞ্জ","উমেদপুর","৭৯৩৩"
"7920","রাজশাহী","মাদারীপুর","কালকিনি","কালকিনি","৭৯২০"
"7921","রাজশাহী","মাদারীপুর","কালকিনি","সাহাবরামপুর","৭৯২১"
"7901","রাজশাহী","মাদারীপুর","মাদারীপুর সদর","চরমুগরিয়া","৭৯০১"
"7903","রাজশাহী","মাদারীপুর","মাদারীপুর সদর","হবিগঞ্জ","৭৯০৩"
"7902","রাজশাহী","মাদারীপুর","মাদারীপুর সদর","কুলপাদ্দি","৭৯০২"
"7900","রাজশাহী","মাদারীপুর","মাদারীপুর সদর","মাদারীপুর সদর","৭৯০০"
"7904","রাজশাহী","মাদারীপুর","মাদারীপুর সদর","মুস্তফাপুর","৭৯০৪"
"7911","রাজশাহী","মাদারীপুর","রাজৈর","রাজৈর","৭৯১১"
"7910","রাজশাহী","মাদারীপুর","রাজৈর","রাজৈর","৭৯১০"
"1860","ঢাকা","মানিকগঞ্জ","দৌলতপুর","দৌলতপুর","১৮৬০"
"1840","ঢাকা","মানিকগঞ্জ","ঘিওর","ঘিওর","১৮৪০"
"1831","ঢাকা","মানিকগঞ্জ","লেছড়াগঞ্জ","ঝিটকা","১৮৩১"
"1830","ঢাকা","মানিকগঞ্জ","বারহামগঞ্জ","বারহামগঞ্জ","১৮৩০"
"1804","ঢাকা","মানিকগঞ্জ","মানিকগঞ্জ সদর","বরংগাইল","১৮০৪"
"1802","ঢাকা","মানিকগঞ্জ","মানিকগঞ্জ সদর","গড়পাড়া","১৮০২"
"1803","ঢাকা","মানিকগঞ্জ","মানিকগঞ্জ সদর","মহাদেবপুর","১৮০৩"
"1801","ঢাকা","মানিকগঞ্জ","মানিকগঞ্জ সদর","মানিকগঞ্জ বাজার","১৮০১"
"1800","ঢাকা","মানিকগঞ্জ","মানিকগঞ্জ সদর","মানিকগঞ্জ সদর","১৮০০"
"1811","ঢাকা","মানিকগঞ্জ","সাটুরিয়া","বালিয়াটি","১৮১১"
"1810","ঢাকা","মানিকগঞ্জ","সাটুরিয়া","সাটুরিয়া","১৮১০"
"1851","ঢাকা","মানিকগঞ্জ","শিবালয়","আরিচা","১৮৫১"
"1850","ঢাকা","মানিকগঞ্জ","শিবালয়","শিবালয়","১৮৫০"
"1852","ঢাকা","মানিকগঞ্জ","শিবালয়","তেওতা","১৮৫২"
"1853","ঢাকা","মানিকগঞ্জ","শিবালয়","উঠলি","১৮৫৩"
"1821","ঢাকা","মানিকগঞ্জ","সিংগাইর","বায়রা","১৮২১"
"1822","ঢাকা","মানিকগঞ্জ","সিংগাইর","সিংগাইর","১৮২২"
"1820","ঢাকা","মানিকগঞ্জ","সিংগাইর","সিংগাইর","১৮২০"
"1510","ঢাকা","মুন্সিগঞ্জ","গজারিয়া","গজারিয়া","১৫১০"
"1511","ঢাকা","মুন্সিগঞ্জ","গজারিয়া","হোসেন্দি","১৫১১"
"1512","ঢাকা","মুন্সিগঞ্জ","গজারিয়া","রসুলপুর","১৫১২"
"1334","ঢাকা","Munshiganj","Lohajong","Gouragonj","১৩৩৪"
"1534","ঢাকা","মুন্সিগঞ্জ","লৌহজং","গৌড়গঞ্জ","১৫৩৪"
"1532","ঢাকা","মুন্সিগঞ্জ","লৌহজং","হলদিয়া তাই","১৫৩২"
"1333","ঢাকা","মুন্সিগঞ্জ","লৌহজং","হারিদিয়া","১৩৩৩"
"1533","ঢাকা","মুন্সিগঞ্জ","লৌহজং","হারিদিয়া DESO","১৫৩৩"
"1531","ঢাকা","মুন্সিগঞ্জ","লৌহজং","করহাতি","১৫৩১"
"1530","ঢাকা","মুন্সিগঞ্জ","লৌহজং","লৌহজং","১৫৩০"
"1335","ঢাকা","মুন্সিগঞ্জ","লৌহজং","মেদিনী মণ্ডল","১৩৩৫"
"1535","ঢাকা","মুন্সিগঞ্জ","লৌহজং","মেদিনী মন্ডল EDSO","১৫৩৫"
"1503","ঢাকা","মুন্সিগঞ্জ","মুন্সীগঞ্জ সদর","কাঠাখালি","১৫০৩"
"1502","ঢাকা","মুন্সিগঞ্জ","মুন্সীগঞ্জ সদর","মিরকাদিম","১৫০২"
"1500","ঢাকা","মুন্সিগঞ্জ","মুন্সীগঞ্জ সদর","মুন্সীগঞ্জ সদর","১৫০০"
"1501","ঢাকা","মুন্সিগঞ্জ","মুন্সীগঞ্জ সদর","রিকাবিবাজার","১৫০১"
"1542","ঢাকা","মুন্সিগঞ্জ","সিরাজদিখান","ইছাপুর","১৫৪২"
"1541","ঢাকা","মুন্সিগঞ্জ","সিরাজদিখান","কোলা","১৫৪১"
"1543","ঢাকা","মুন্সিগঞ্জ","সিরাজদিখান","মালখানগর","১৫৪৩"
"1544","ঢাকা","মুন্সিগঞ্জ","সিরাজদিখান","শেখের নগর","১৫৪৪"
"1540","ঢাকা","মুন্সিগঞ্জ","সিরাজদিখান","সিরাজদিখান","১৫৪০"
"1557","ঢাকা","মুন্সিগঞ্জ","শ্রীনগর","বাঘড়া","১৫৫৭"
"1551","ঢাকা","মুন্সিগঞ্জ","শ্রীনগর","বারিখাল","১৫৫১"
"1558","ঢাকা","মুন্সিগঞ্জ","শ্রীনগর","ভাগ্যকুল","১৫৫৮"
"1553","ঢাকা","মুন্সিগঞ্জ","শ্রীনগর","হাশারা","১৫৫৩"
"1554","ঢাকা","মুন্সিগঞ্জ","শ্রীনগর","কলাপাড়া","১৫৫৪"
"1555","ঢাকা","মুন্সিগঞ্জ","শ্রীনগর","কুমারভগ","১৫৫৫"
"1552","ঢাকা","মুন্সিগঞ্জ","শ্রীনগর","মাজপাড়া","১৫৫২"
"1550","ঢাকা","মুন্সিগঞ্জ","শ্রীনগর","শ্রীনগর","১৫৫০"
"1556","ঢাকা","মুন্সিগঞ্জ","শ্রীনগর","ভাগ্যকুল তাই","১৫৫৬"
"1523","ঢাকা","মুন্সিগঞ্জ","টাংগিবাড়ি","বিজরাজুগিনি","১৫২৩"
"1522","ঢাকা","মুন্সিগঞ্জ","টাংগিবাড়ি","বালিগাও","১৫২২"
"1521","ঢাকা","মুন্সিগঞ্জ","টাংগিবাড়ি","বেটকারহাট","১৫২১"
"1525","ঢাকা","মুন্সিগঞ্জ","টাংগিবাড়ি","দিঘিরপাড়","১৫২৫"
"1524","ঢাকা","মুন্সিগঞ্জ","টাংগিবাড়ি","হাসাইল","১৫২৪"
"1527","ঢাকা","মুন্সিগঞ্জ","টাংগিবাড়ি","পুরা","১৫২৭"
"1526","ঢাকা","মুন্সিগঞ্জ","টাংগিবাড়ি","টাংগিবাড়ি","১৫২৬"
"1520","ঢাকা","মুন্সিগঞ্জ","টাংগিবাড়ি","টাংগিবাড়ি","১৫২০"
"1450","ঢাকা","নারায়ণগঞ্জ","আড়াইহাজার","আড়াইহাজার","১৪৫০"
"1460","ঢাকা","নারায়ণগঞ্জ","রূপগঞ্জ","রূপগঞ্জ","১৪৬০"
"1451","ঢাকা","নারায়ণগঞ্জ","আড়াইহাজার","গোপালদি","১৪৫১"
"1440","ঢাকা","Narayanganj","Baidder Bazar","Baidder Bazar","১৪৪০"
"1441","ঢাকা","নারায়ণগঞ্জ","বাইদ্দের বাজার","বারো নগর","১৪৪১"
"1442","ঢাকা","নারায়ণগঞ্জ","বাইদ্দের বাজার","বারোদি","১৪৪২"
"1410","ঢাকা","নারায়ণগঞ্জ","বন্দর","বন্দর","১৪১০"
"1413","ঢাকা","নারায়ণগঞ্জ","বন্দর","বিআইডিএস","১৪১৩"
"1411","ঢাকা","নারায়ণগঞ্জ","বন্দর","ডি.সি মিলস","১৪১১"
"1414","ঢাকা","নারায়ণগঞ্জ","বন্দর","মদনগঞ্জ","১৪১৪"
"1412","ঢাকা","নারায়ণগঞ্জ","বন্দর","নবীগঞ্জ","১৪১২"
"1421","ঢাকা","নারায়ণগঞ্জ","ফতুল্লা","ফতুল্লা বাজার","১৪২১"
"1420","ঢাকা","নারায়ণগঞ্জ","ফতুল্লা","ফতুল্লা","১৪২০"
"1400","ঢাকা","নারায়ণগঞ্জ","নারায়ণগঞ্জ সদর","নারায়ণগঞ্জ সদর","১৪০০"
"1462","ঢাকা","নারায়ণগঞ্জ","রূপগঞ্জ","ভুলতা","১৪৬২"
"1461","ঢাকা","নারায়ণগঞ্জ","রূপগঞ্জ","কাঞ্চন","১৪৬১"
"1464","ঢাকা","নারায়ণগঞ্জ","রূপগঞ্জ","মুরাপাড়া","১৪৬৪"
"1463","ঢাকা","নারায়ণগঞ্জ","রূপগঞ্জ","নগরি","১৪৬৩"
"1431","ঢাকা","নারায়ণগঞ্জ","সিদ্ধিরগঞ্জ","আদামজীনগর","১৪৩১"
"1432","ঢাকা","নারায়ণগঞ্জ","সিদ্ধিরগঞ্জ","সিদ্ধিরগঞ্জ","১৪৩২"
"1430","ঢাকা","নারায়ণগঞ্জ","সিদ্ধিরগঞ্জ","সিদ্ধিরগঞ্জ","১৪৩০"
"1640","ঢাকা","নরসিংদী","বেলাব","বেলাব","১৬৪০"
"1651","ঢাকা","নরসিংদী","মনোহরদি","হাতিরদিয়া","১৬৫১"
"1652","ঢাকা","নরসিংদী","মনোহরদি","কাটাবাড়িয়া","১৬৫২"
"1650","ঢাকা","নরসিংদী","মনোহরদি","মনোহরদি","১৬৫০"
"1605","ঢাকা","নরসিংদী","নরসিংদী সদর","করিমপুর","১৬০৫"
"1604","ঢাকা","নরসিংদী","নরসিংদী সদর","মাধবদী","১৬০৪"
"1602","ঢাকা","নরসিংদী","নরসিংদী সদর","নরসিংদী কলেজ","১৬০২"
"1600","ঢাকা","নরসিংদী","নরসিংদী সদর","নরসিংদী সদর","১৬০০"
"1603","ঢাকা","নরসিংদী","নরসিংদী সদর","পাঁচদোনা","১৬০৩"
"1601","ঢাকা","নরসিংদী","নরসিংদী সদর","UMC জুট মিলস","১৬০১"
"1612","ঢাকা","নরসিংদী","পলাশ","চরসিন্ধুর","১৬১২"
"1613","ঢাকা","নরসিংদী","পলাশ","ঘোড়াশাল","১৬১৩"
"1611","ঢাকা","নরসিংদী","পলাশ","ঘোড়াশাল ইউরিয়া ফ্যাক্টুরি","১৬১১"
"1610","ঢাকা","নরসিংদী","পলাশ","পলাশ","১৬১০"
"1631","ঢাকা","নরসিংদী","রায়পুর","বাজার হাসনাবাদ","১৬৩১"
"1632","ঢাকা","নরসিংদী","রায়পুর","রাধাগঞ্জ বাজার","১৬৩২"
"1630","ঢাকা","নরসিংদী","শিবপুর","শিবপুর","১৬৩০"
"1620","ঢাকা","নরসিংদী","শিবপুর","শিবপুর","১৬২০"
"7730","রাজশাহী","রাজবাড়ী","বালিয়াকান্দি","বালিয়াকান্দি","৭৭৩০"
"7731","রাজশাহী","রাজবাড়ী","বালিয়াকান্দি","নালিয়া থেকে","৭৭৩১"
"7723","রাজশাহী","রাজবাড়ী","পাংশা","মৃগিবাজার","৭৭২৩"
"7720","রাজশাহী","রাজবাড়ী","পাংশা","পাংশা","৭৭২০"
"7721","রাজশাহী","রাজবাড়ী","পাংশা","রামকল","৭৭২১"
"7722","রাজশাহী","রাজবাড়ী","পাংশা","রতনদিয়া","৭৭২২"
"7710","রাজশাহী","রাজবাড়ী","রাজবাড়ী সদর","গোয়ালন্দ","৭৭১০"
"7711","রাজশাহী","রাজবাড়ী","রাজবাড়ী সদর","রাজবাড়ী সদর","৭৭১১"
"7700","রাজশাহী","রাজবাড়ী","রাজবাড়ী সদর","রাজবাড়ী সদর","৭৭০০"
"8030","বরিশাল","শরীয়তপুর","ভেদোরগঞ্জ","ভেদোরগঞ্জ","৮০৩০"
"8040","বরিশাল","শরীয়তপুর","দামুধ্যা","দামুধ্যা","৮০৪০"
"8050","বরিশাল","শরীয়তপুর","গোসাইরহাট","গোসাইরহাট","৮০৫০"
"8010","বরিশাল","শরীয়তপুর","জাজিরা","জাজিরা","৮০১০"
"8021","বরিশাল","শরীয়তপুর","নড়িয়া","ভোজেশ্বর","৮০২১"
"8022","বরিশাল","শরীয়তপুর","নড়িয়া","ঘারিসার","৮০২২"
"8024","বরিশাল","শরীয়তপুর","নড়িয়া","কার্তিকপুর","৮০২৪"
"8020","বরিশাল","শরীয়তপুর","নড়িয়া","নড়িয়া","৮০২০"
"8023","বরিশাল","শরীয়তপুর","নড়িয়া","উপশি","৮০২৩"
"8001","বরিশাল","শরীয়তপুর","শরীয়তপুর সদর","আঙ্গারিয়া","৮০০১"
"8002","বরিশাল","শরীয়তপুর","শরীয়তপুর সদর","শরীয়তপুর সদর","৮০০২"
"8000","বরিশাল","শরীয়তপুর","শরীয়তপুর সদর","শরীয়তপুর সদর","৮০০০"
"1920","ঢাকা","টাঙ্গাইল","বাসাইল","বাসাইল","১৯২০"
"1960","ঢাকা","টাঙ্গাইল","ভূঞাপুর","ভূঞাপুর","১৯৬০"
"1910","ঢাকা","টাঙ্গাইল","দেলদুয়ার","দেলদুয়ার","১৯১০"
"1913","ঢাকা","টাঙ্গাইল","দেলদুয়ার","ইলাসিন","১৯১৩"
"1914","ঢাকা","টাঙ্গাইল","দেলদুয়ার","হিংগা নগর","১৯১৪"
"1911","ঢাকা","টাঙ্গাইল","দেলদুয়ার","জাঙ্গালিয়া","১৯১১"
"1915","ঢাকা","টাঙ্গাইল","দেলদুয়ার","লউহাটি","১৯১৫"
"1912","ঢাকা","টাঙ্গাইল","দেলদুয়ার","পাঠারাইল","১৯১২"
"1982","ঢাকা","টাঙ্গাইল","ঘাটাইল","ডি পাকুটিয়া","১৯৮২"
"1983","ঢাকা","টাঙ্গাইল","ঘাটাইল","ধলাপাড়া","১৯৮৩"
"1980","ঢাকা","টাঙ্গাইল","ঘাটাইল","ঘাটাইল","১৯৮০"
"1984","ঢাকা","টাঙ্গাইল","ঘাটাইল","লোহানী","১৯৮৪"
"1981","ঢাকা","টাঙ্গাইল","ঘাটাইল","জাহিদগঞ্জ","১৯৮১"
"1990","ঢাকা","টাঙ্গাইল","গোপালপুর","গোপালপুর","১৯৯০"
"1992","ঢাকা","টাঙ্গাইল","গোপালপুর","হেমনগর","১৯৯২"
"1991","ঢাকা","টাঙ্গাইল","গোপালপুর","চাতুতিয়া","১৯৯১"
"1973","ঢাকা","টাঙ্গাইল","কালিহাতী","বাল্লাবাজার","১৯৭৩"
"1974","ঢাকা","টাঙ্গাইল","কালিহাতী","ইলিংগা","১৯৭৪"
"1970","ঢাকা","টাঙ্গাইল","কালিহাতী","কালিহাতী","১৯৭০"
"1977","ঢাকা","টাঙ্গাইল","কালিহাতী","নগরবাড়ী","১৯৭৭"
"1976","ঢাকা","টাঙ্গাইল","কালিহাতী","নগরবাড়ী তাই","১৯৭৬"
"1972","ঢাকা","টাঙ্গাইল","কালিহাতী","নাগবাড়ি","১৯৭২"
"1975","ঢাকা","টাঙ্গাইল","কালিহাতী","পালিশা","১৯৭৫"
"1971","ঢাকা","টাঙ্গাইল","কালিহাতী","রাজাফাইর","১৯৭১"
"1930","ঢাকা","টাঙ্গাইল","কাশকাওলিয়া","কাশকাওলিয়া","১৯৩০"
"1997","ঢাকা","টাঙ্গাইল","মধুপুর","ধবাড়ি","১৯৯৭"
"1996","ঢাকা","টাঙ্গাইল","মধুপুর","মধুপুর","১৯৯৬"
"1941","ঢাকা","টাঙ্গাইল","মির্জাপুর","গড়াই","১৯৪১"
"1944","ঢাকা","টাঙ্গাইল","মির্জাপুর","জারমুকি","১৯৪৪"
"1942","ঢাকা","টাঙ্গাইল","মির্জাপুর","এম.সি. কলেজ","১৯৪২"
"1940","ঢাকা","টাঙ্গাইল","মির্জাপুর","মির্জাপুর","১৯৪০"
"1945","ঢাকা","টাঙ্গাইল","মির্জাপুর","মহেরা","১৯৪৫"
"1943","ঢাকা","টাঙ্গাইল","মির্জাপুর","ওয়ারী পাইকপাড়া","১৯৪৩"
"1937","ঢাকা","টাঙ্গাইল","নাগরপুর","ধুবুরিয়া","১৯৩৭"
"1936","ঢাকা","টাঙ্গাইল","নাগরপুর","নাগরপুর","১৯৩৬"
"1938","ঢাকা","টাঙ্গাইল","নাগরপুর","সলিমাবাদ","১৯৩৮"
"1951","ঢাকা","টাঙ্গাইল","সখীপুর","কচুয়া","১৯৫১"
"1950","ঢাকা","টাঙ্গাইল","সখীপুর","সখীপুর","১৯৫০"
"1901","ঢাকা","টাঙ্গাইল","টাঙ্গাইল সদর","কাগমারি","১৯০১"
"1903","ঢাকা","টাঙ্গাইল","টাঙ্গাইল সদর","করোতিয়া","১৯০৩"
"1904","ঢাকা","টাঙ্গাইল","টাঙ্গাইল সদর","পুড়াবাড়ি","১৯০৪"
"1902","ঢাকা","টাঙ্গাইল","টাঙ্গাইল সদর","সন্তোষ","১৯০২"
"1900","ঢাকা","টাঙ্গাইল","টাঙ্গাইল সদর","টাঙ্গাইল সদর","১৯০০"
"2140","ময়মনসিংহ","শেরপুর","বকশীগঞ্জ","বকশীগঞ্জ","২১৪০"
"2030","ময়মনসিংহ","জামালপুর","দেওয়ানগঞ্জ","দেওয়ানগঞ্জ","২০৩০"
"2032","ময়মনসিংহ","Jamalpur","Dewangonj","Dewangonj S. Mills","২০৩২"
"2021","ময়মনসিংহ","জামালপুর","ইসলামপুর","ডুরমোট","২০২১"
"2022","ময়মনসিংহ","জামালপুর","ইসলামপুর","গিলাবাড়ি","২০২২"
"2020","ময়মনসিংহ","জামালপুর","ইসলামপুর","ইসলামপুর","২০২০"
"2000","ময়মনসিংহ","জামালপুর","জামালপুর","জামালপুর","২০০০"
"2001","ময়মনসিংহ","জামালপুর","জামালপুর","নানদিনা","২০০১"
"2002","ময়মনসিংহ","জামালপুর","জামালপুর","নুরুন্দী","২০০২"
"2011","ময়মনসিংহ","জামালপুর","মেলান্দহ","জামালপুর","২০১১"
"2013","ময়মনসিংহ","জামালপুর","মেলান্দহ","মাহমুদপুর","২০১৩"
"2012","ময়মনসিংহ","জামালপুর","মেলান্দহ","মালঞ্চ","২০১২"
"2010","ময়মনসিংহ","জামালপুর","মেলান্দহ","মেলান্দহ","২০১০"
"2041","ময়মনসিংহ","জামালপুর","মাদারগঞ্জ","বালিঝুড়ি","২০৪১"
"2040","ময়মনসিংহ","জামালপুর","মাদারগঞ্জ","মাদারগঞ্জ","২০৪০"
"2052","ময়মনসিংহ","জামালপুর","সরিষাবাড়ি","বাউসী","২০৫২"
"2051","ময়মনসিংহ","জামালপুর","সরিষাবাড়ি","গুনেরবাড়ি","২০৫১"
"2053","ময়মনসিংহ","জামালপুর","সরিষাবাড়ি","জগন্নাথ ঘাট","২০৫৩"
"2055","ময়মনসিংহ","জামালপুর","সরিষাবাড়ি","যমুনা সার কারখানা","২০৫৫"
"2054","ময়মনসিংহ","জামালপুর","সরিষাবাড়ি","পিংনা","২০৫৪"
"2050","ময়মনসিংহ","জামালপুর","সরিষাবাড়ি","সরিষাবাড়ি","২০৫০"
"2240","ময়মনসিংহ","ময়মনসিংহ","ভালুকা","ভালুকা","২২৪০"
"2216","ময়মনসিংহ","ময়মনসিংহ","ফুলবাড়িয়া","ফুলবাড়িয়া","২২১৬"
"2234","ময়মনসিংহ","ময়মনসিংহ","গফরগাঁও","দুট্টারবাজার","২২৩৪"
"2230","ময়মনসিংহ","ময়মনসিংহ","গফরগাঁও","গফরগাঁও","২২৩০"
"2233","ময়মনসিংহ","ময়মনসিংহ","গফরগাঁও","কান্দিপাড়া","২২৩৩"
"2231","ময়মনসিংহ","ময়মনসিংহ","গফরগাঁও","শিবগঞ্জ","২২৩১"
"2232","ময়মনসিংহ","ময়মনসিংহ","গফরগাঁও","উস্তি","২২৩২"
"2270","ময়মনসিংহ","ময়মনসিংহ","গৌরীপুর","গৌরীপুর","২২৭০"
"2271","ময়মনসিংহ","ময়মনসিংহ","গৌরীপুর","রামগোপালপুর","২২৭১"
"2261","ময়মনসিংহ","ময়মনসিংহ","হালুয়াঘাট","ধারা","২২৬১"
"2260","ময়মনসিংহ","ময়মনসিংহ","হালুয়াঘাট","হালুয়াঘাট","২২৬০"
"2262","ময়মনসিংহ","ময়মনসিংহ","হালুয়াঘাট","মুনশিরহাট","২২৬২"
"2282","ময়মনসিংহ","ময়মনসিংহ","ঈশ্বরগঞ্জ","আঠারবাড়ি","২২৮২"
"2280","ময়মনসিংহ","ময়মনসিংহ","ঈশ্বরগঞ্জ","ঈশ্বরগঞ্জ","২২৮০"
"2281","ময়মনসিংহ","ময়মনসিংহ","ঈশ্বরগঞ্জ","সোহাগি","২২৮১"
"2210","ময়মনসিংহ","ময়মনসিংহ","মুক্তাগাছা","মুক্তাগাছা","২২১০"
"2202","ময়মনসিংহ","ময়মনসিংহ","ময়মনসিংহ সদর","কৃষি বিশ্ববিদ্যালয়","২২০২"
"2204","ময়মনসিংহ","ময়মনসিংহ","ময়মনসিংহ সদর","বিদ্যাগঞ্জ","২২০৪"
"2201","ময়মনসিংহ","ময়মনসিংহ","ময়মনসিংহ সদর","কাওয়াটখালি","২২০১"
"2200","ময়মনসিংহ","ময়মনসিংহ","ময়মনসিংহ সদর","ময়মনসিংহ সদর","২২০০"
"2205","ময়মনসিংহ","ময়মনসিংহ","ময়মনসিংহ সদর","পিয়ারপুর","২২০৫"
"2203","ময়মনসিংহ","ময়মনসিংহ","ময়মনসিংহ সদর","শম্ভুগঞ্জ","২২০৩"
"2291","ময়মনসিংহ","ময়মনসিংহ","নান্দাইল","গানগাইল","২২৯১"
"2290","ময়মনসিংহ","ময়মনসিংহ","নান্দাইল","নান্দাইল","২২৯০"
"2251","ময়মনসিংহ","ময়মনসিংহ","ফুলপুর","বেলতিয়া","২২৫১"
"2250","ময়মনসিংহ","ময়মনসিংহ","ফুলপুর","ফুলপুর","২২৫০"
"2252","ময়মনসিংহ","ময়মনসিংহ","ফুলপুর","তারাকান্দা","২২৫২"
"2221","ময়মনসিংহ","ময়মনসিংহ","ত্রিশাল","আহমাদবাদ","২২২১"
"2223","ময়মনসিংহ","ময়মনসিংহ","ত্রিশাল","ধলা","২২২৩"
"2222","ময়মনসিংহ","ময়মনসিংহ","ত্রিশাল","রাম অমৃতগঞ্জ","২২২২"
"2220","ময়মনসিংহ","ময়মনসিংহ","ত্রিশাল","ত্রিশাল","২২২০"
"2420","ময়মনসিংহ","নেত্রকোনা","সুসনঞ্জ দুর্গাপুর","সুসনঞ্জ দুর্গাপুর","২৪২০"
"2470","ময়মনসিংহ","নেত্রকোনা","আটপাড়া","আটপাড়া","২৪৭০"
"2440","ময়মনসিংহ","নেত্রকোনা","বারহাট্টা","বারহাট্টা","২৪৪০"
"2450","ময়মনসিংহ","নেত্রকোনা","ধর্মপাশা","ধর্মপাশা","২৪৫০"
"2416","ময়মনসিংহ","নেত্রকোনা","ধবাউরা","ধবাউরা","২৪১৬"
"2417","ময়মনসিংহ","নেত্রকোনা","ধবাউরা","সাকয়াই","২৪১৭"
"2430","ময়মনসিংহ","নেত্রকোনা","কলমাকান্দা","কলমাকান্দা","২৪৩০"
"2480","ময়মনসিংহ","নেত্রকোনা","কেন্দুয়া","কেন্দুয়া","২৪৮০"
"2460","ময়মনসিংহ","নেত্রকোনা","খালিয়াজুরী","খালিয়াজুরী","২৪৬০"
"2462","ময়মনসিংহ","নেত্রকোনা","খালিয়াজুরী","শালদিঘা","২৪৬২"
"2490","ময়মনসিংহ","নেত্রকোনা","মদন","মদন","২৪৯০"
"2456","ময়মনসিংহ","নেত্রকোনা","মধ্যনগর","মধ্যনগর","২৪৫৬"
"2446","ময়মনসিংহ","নেত্রকোনা","মোহনগঞ্জ","মোহনগঞ্জ","২৪৪৬"
"2401","ময়মনসিংহ","নেত্রকোনা","নেত্রকোণা সদর","বাইখেরহাটি","২৪০১"
"2400","ময়মনসিংহ","নেত্রকোনা","নেত্রকোণা সদর","নেত্রকোণা সদর","২৪০০"
"2412","ময়মনসিংহ","নেত্রকোনা","পুর্বধোলা","জারিয়া ঝানঝাইল","২৪১২"
"2410","ময়মনসিংহ","নেত্রকোনা","পুর্বধোলা","শামগঞ্জ","২৪১০"
"2411","ময়মনসিংহ","নেত্রকোনা","পুর্বধোলা","শামগঞ্জ","২৪১১"
"2120","ময়মনসিংহ","শেরপুর","ঝিনাইগাতী","ঝিনাইগাতী","২১২০"
"2151","ময়মনসিংহ","শেরপুর","নকলা","গণপাদ্দি","২১৫১"
"2150","ময়মনসিংহ","শেরপুর","নকলা","নকলা","২১৫০"
"2111","ময়মনসিংহ","শেরপুর","নালিতাবাড়ী","হাতীবান্ধা","২১১১"
"2110","ময়মনসিংহ","শেরপুর","নালিতাবাড়ী","নালিতাবাড়ী","২১১০"
"2100","ময়মনসিংহ","শেরপুর","শেরপুর সদর","শেরপুর সদর","২১০০"
"2130","ময়মনসিংহ","শেরপুর","শ্রীবরদী","শ্রীবরদী","২১৩০"
"3360","সিলেট","হবিগঞ্জ","আজমিরীগঞ্জ","আজমিরীগঞ্জ","৩৩৬০"
"3310","সিলেট","হবিগঞ্জ","বাহুবল","মানিকা বাজার","৩৩১০"
"3350","সিলেট","হবিগঞ্জ","বানিয়াচং","বানিয়াচং","৩৩৫০"
"3351","সিলেট","হবিগঞ্জ","বানিয়াচং","যাত্রাপাশা","৩৩৫১"
"3352","সিলেট","হবিগঞ্জ","বানিয়াচং","কাদিরগঞ্জ","৩৩৫২"
"3321","সিলেট","হবিগঞ্জ","চুনারুঘাট","চাঁদপুরবাগান","৩৩২১"
"3320","সিলেট","হবিগঞ্জ","চুনারুঘাট","চুনারুঘাট","৩৩২০"
"3322","সিলেট","হবিগঞ্জ","চুনারুঘাট","নরপাটি","৩৩২২"
"3302","সিলেট","হবিগঞ্জ","হবিগঞ্জ সদর","গোপায়া","৩৩০২"
"3300","সিলেট","হবিগঞ্জ","হবিগঞ্জ সদর","হবিগঞ্জ সদর","৩৩০০"
"3301","সিলেট","হবিগঞ্জ","হবিগঞ্জ সদর","শায়েস্তাগঞ্জ","৩৩০১"
"3340","সিলেট","হবিগঞ্জ","কালাউক","কালাউক","৩৩৪০"
"3341","সিলেট","হবিগঞ্জ","কালাউক","লাখাই","৩৩৪১"
"3331","সিলেট","হবিগঞ্জ","মাধবপুর","ইটাখোলা","৩৩৩১"
"3330","সিলেট","হবিগঞ্জ","মাধবপুর","মাধবপুর","৩৩৩০"
"3333","সিলেট","হবিগঞ্জ","মাধবপুর","সাইহাম নগর","৩৩৩৩"
"3332","সিলেট","হবিগঞ্জ","মাধবপুর","শাহজিবাজার","৩৩৩২"
"3373","সিলেট","হবিগঞ্জ","নবীগঞ্জ","দিগলবাক","৩৩৭৩"
"3372","সিলেট","হবিগঞ্জ","নবীগঞ্জ","গোলডুবা","৩৩৭২"
"3371","সিলেট","হবিগঞ্জ","নবীগঞ্জ","গোপলারবাজার","৩৩৭১"
"3374","সিলেট","হবিগঞ্জ","নবীগঞ্জ","ইনাতগঞ্জ","৩৩৭৪"
"3370","সিলেট","হবিগঞ্জ","নবীগঞ্জ","নবীগঞ্জ","৩৩৭০"
"3250","সিলেট","মৌলভীবাজার","বড়লেখা","বড়লেখা","৩২৫০"
"3252","সিলেট","মৌলভীবাজার","বড়লেখা","দক্ষিণবাগ","৩২৫২"
"3251","সিলেট","মৌলভীবাজার","বড়লেখা","জুড়ী","৩২৫১"
"3253","সিলেট","মৌলভীবাজার","বড়লেখা","পূর্বাশাহাবাজপুর","৩২৫৩"
"3220","সিলেট","মৌলভীবাজার","কমলগঞ্জ","কমলগঞ্জ","৩২২০"
"3221","সিলেট","মৌলভীবাজার","কমলগঞ্জ","কেরামত নগর","৩২২১"
"3224","সিলেট","মৌলভীবাজার","কমলগঞ্জ","মুন্সীবাজার","৩২২৪"
"3222","সিলেট","মৌলভীবাজার","কমলগঞ্জ","পাত্রখোলা","৩২২২"
"3223","সিলেট","মৌলভীবাজার","কমলগঞ্জ","শমসের নগর","৩২২৩"
"3237","সিলেট","মৌলভীবাজার","কুলাউড়া","বরমচাল","৩২৩৭"
"3234","সিলেট","মৌলভীবাজার","কুলাউড়া","কাজলধারা","৩২৩৪"
"3235","সিলেট","মৌলভীবাজার","কুলাউড়া","করিমপুর","৩২৩৫"
"3230","সিলেট","মৌলভীবাজার","কুলাউড়া","কুলাউড়া","৩২৩০"
"3232","সিলেট","মৌলভীবাজার","কুলাউড়া","লংলা","৩২৩২"
"3233","সিলেট","মৌলভীবাজার","কুলাউড়া","পৃথিমপাশা","৩২৩৩"
"3231","সিলেট","মৌলভীবাজার","কুলাউড়া","টিলাগাও","৩২৩১"
"3203","সিলেট","মৌলভীবাজার","মৌলভীবাজার সদর","আফরোজগঞ্জ","৩২০৩"
"3201","সিলেট","মৌলভীবাজার","মৌলভীবাজার সদর","বারাকাপান","৩২০১"
"3202","সিলেট","মৌলভীবাজার","মৌলভীবাজার সদর","মনুমুখ","৩২০২"
"3200","সিলেট","মৌলভীবাজার","মৌলভীবাজার সদর","মৌলভীবাজার সদর","৩২০০"
"3240","সিলেট","মৌলভীবাজার","রাজনগর","রাজনগর","৩২৪০"
"3212","সিলেট","মৌলভীবাজার","শ্রীমঙ্গল","কালীঘাট","৩২১২"
"3213","সিলেট","মৌলভীবাজার","শ্রীমঙ্গল","খেজুরীছড়া","৩২১৩"
"3211","সিলেট","মৌলভীবাজার","শ্রীমঙ্গল","নারায়ন ছড়া","৩২১১"
"3214","সিলেট","মৌলভীবাজার","শ্রীমঙ্গল","সাতগাঁও","৩২১৪"
"3210","সিলেট","মৌলভীবাজার","শ্রীমঙ্গল","শ্রীমঙ্গল","৩২১০"
"3010","সিলেট","সুনামগঞ্জ","বিশম্ভরপুর","বিশম্ভরপুর","৩০১০"
"3080","সিলেট","সুনামগঞ্জ","ছাতক","ছাতক","৩০৮০"
"3081","সিলেট","সুনামগঞ্জ","ছাতক","ছাতক সিমেন্ট ফ্যাক্টরি","৩০৮১"
"3082","সিলেট","সুনামগঞ্জ","ছাতক","ছাতক পেপার মিলস","৩০৮২"
"3893","সিলেট","সুনামগঞ্জ","ছাতক","চৌরঙ্গী বাজার","৩৮৯৩"
"3083","সিলেট","সুনামগঞ্জ","ছাতক","গোবিন্দগঞ্জ","৩০৮৩"
"3084","সিলেট","সুনামগঞ্জ","ছাতক","গোবিন্দগঞ্জ নতুন বাজার","৩০৮৪"
"3088","সিলেট","সুনামগঞ্জ","ছাতক","ইসলামাবাদ","৩০৮৮"
"3087","সিলেট","সুনামগঞ্জ","ছাতক","জাহিদপুর","৩০৮৭"
"3085","সিলেট","সুনামগঞ্জ","ছাতক","খুরমা","৩০৮৫"
"3086","সিলেট","সুনামগঞ্জ","ছাতক","মৈনপুর","৩০৮৬"
"3040","সিলেট","সুনামগঞ্জ","দিরাই চাঁদপুর","দিরাই চাঁদপুর","৩০৪০"
"3041","সিলেট","সুনামগঞ্জ","দিরাই চাঁদপুর","জগদল","৩০৪১"
"3070","সিলেট","সুনামগঞ্জ","দুয়ারা বাজার","দুয়ারা বাজার","৩০৭০"
"3050","সিলেট","সুনামগঞ্জ","ঘুঙ্গিয়ার","ঘুঙ্গিয়ার","৩০৫০"
"3062","সিলেট","সুনামগঞ্জ","জগন্নাথপুর","আতুয়াজান","৩০৬২"
"3063","সিলেট","সুনামগঞ্জ","জগন্নাথপুর","হাসান ফাতেমাপুর","৩০৬৩"
"3060","সিলেট","সুনামগঞ্জ","জগন্নাথপুর","জগন্নাথপুর","৩০৬০"
"3064","সিলেট","সুনামগঞ্জ","জগন্নাথপুর","রাসূলগঞ্জ","৩০৬৪"
"3065","সিলেট","সুনামগঞ্জ","জগন্নাথপুর","শিরামসি","৩০৬৫"
"3061","সিলেট","সুনামগঞ্জ","জগন্নাথপুর","সৈয়দপুর","৩০৬১"
"3127","সিলেট","সিলেট","বালাগঞ্জ","কাঁঠাল খাইর","৩১২৭"
"3020","সিলেট","সুনামগঞ্জ","সাচনা","সাচনা","৩০২০"
"3001","সিলেট","সুনামগঞ্জ","সুনামগঞ্জ সদর","পাগলা","৩০০১"
"3002","সিলেট","সুনামগঞ্জ","সুনামগঞ্জ সদর","পাথারিয়া","৩০০২"
"3000","সিলেট","সুনামগঞ্জ","সুনামগঞ্জ সদর","সুনামগঞ্জ সদর","৩০০০"
"3030","সিলেট","সুনামগঞ্জ","তাহিরপুর","তাহিরপুর","৩০৩০"
"3120","সিলেট","সিলেট","বালাগঞ্জ","বালাগঞ্জ","৩১২০"
"3125","সিলেট","সিলেট","বালাগঞ্জ","বেগমপুর","৩১২৫"
"3122","সিলেট","সিলেট","বালাগঞ্জ","ব্রহ্ম শাসন","৩১২২"
"3128","সিলেট","সিলেট","বালাগঞ্জ","গহরপুর","৩১২৮"
"3124","সিলেট","সিলেট","বালাগঞ্জ","গোয়ালা বাজার","৩১২৪"
"3121","সিলেট","সিলেট","বালাগঞ্জ","করুয়া","৩১২১"
"3129","সিলেট","সিলেট","বালাগঞ্জ","নতুন বাজার","৩১২৯"
"3126","সিলেট","সিলেট","বালাগঞ্জ","ওমরপুর","৩১২৬"
"3123","সিলেট","সিলেট","বালাগঞ্জ","তাজপুর","৩১২৩"
"3170","সিলেট","সিলেট","বিয়ানীবাজার","বিয়ানীবাজার","৩১৭০"
"3175","সিলেট","সিলেট","বিয়ানীবাজার","চারখাই","৩১৭৫"
"3171","সিলেট","সিলেট","বিয়ানীবাজার","জলঢুপ","৩১৭১"
"3173","সিলেট","সিলেট","বিয়ানীবাজার","কুড়ার বাজার","৩১৭৩"
"3172","সিলেট","সিলেট","বিয়ানীবাজার","মাথিউরা","৩১৭২"
"3174","সিলেট","সিলেট","বিয়ানীবাজার","সালিয়া বাজার","৩১৭৪"
"3130","সিলেট","সিলেট","বিশ্বনাথ","বিশ্বনাথ","৩১৩০"
"3131","সিলেট","সিলেট","বিশ্বনাথ","দশঘর","৩১৩১"
"3133","সিলেট","সিলেট","বিশ্বনাথ","দেওকলস","৩১৩৩"
"3132","সিলেট","সিলেট","বিশ্বনাথ","দৌলতপুর","৩১৩২"
"3134","সিলেট","সিলেট","বিশ্বনাথ","সিঙ্গার কাঞ্চ","৩১৩৪"
"3116","সিলেট","সিলেট","ফেঞ্চুগঞ্জ","ফেঞ্চুগঞ্জ","৩১১৬"
"3117","সিলেট","সিলেট","ফেঞ্চুগঞ্জ","ফেঞ্চুগঞ্জ সার কারখানা","৩১১৭"
"3152","সিলেট","সিলেট","গোয়াইনহাট","চিকনাগুলি","৩১৫২"
"3150","সিলেট","সিলেট","গোয়াইনহাট","গোয়াইনহাট","৩১৫০"
"3151","সিলেট","সিলেট","গোয়াইনহাট","জাফলং","৩১৫১"
"3164","সিলেট","সিলেট","গোলাপগঞ্জ","বাণীগ্রাম","৩১৬৪"
"3165","সিলেট","সিলেট","গোলাপগঞ্জ","চন্দনপুর","৩১৬৫"
"3162","সিলেট","সিলেট","গোলাপগঞ্জ","দক্ষিণ ভাদাশরে","৩১৬২"
"3161","সিলেট","সিলেট","গোলাপগঞ্জ","ঢাকা দক্ষিণ","৩১৬১"
"3160","সিলেট","সিলেট","গোলাপগঞ্জ","গোলাপগঞ্জ","৩১৬০"
"3163","সিলেট","সিলেট","গোলাপগঞ্জ","রানাপিং","৩১৬৩"
"3156","সিলেট","সিলেট","জৈন্তাপুর","জৈন্তাপুর","৩১৫৬"
"3191","সিলেট","সিলেট","জকিগঞ্জ","ইছামতি","৩১৯১"
"3190","সিলেট","সিলেট","জকিগঞ্জ","জকিগঞ্জ","৩১৯০"
"3181","সিলেট","সিলেট","কানাইঘাট","চটুলবাজার","৩১৮১"
"3183","সিলেট","সিলেট","কানাইঘাট","গাছবাড়ী","৩১৮৩"
"3180","সিলেট","সিলেট","কানাইঘাট","কানাইঘাট","৩১৮০"
"3182","সিলেট","সিলেট","কানাইঘাট","মানিকগঞ্জ","৩১৮২"
"3140","সিলেট","সিলেট","কোম্পানীগঞ্জ","কোম্পানীগঞ্জ","৩১৪০"
"3106","সিলেট","সিলেট","সিলেট সদর","বিরাহিমপুর","৩১০৬"
"3107","সিলেট","সিলেট","সিলেট সদর","জালালাবাদ","৩১০৭"
"3104","সিলেট","সিলেট","সিলেট সদর","জালালাবাদ সেনানিবাস","৩১০৪"
"3111","সিলেট","সিলেট","সিলেট সদর","কদমতলী","৩১১১"
"3112","সিলেট","সিলেট","সিলেট সদর","কামালবাজার","৩১১২"
"3103","সিলেট","সিলেট","সিলেট সদর","খাদিমনগর","৩১০৩"
"3113","সিলেট","সিলেট","সিলেট সদর","লালবাজার","৩১১৩"
"3108","সিলেট","সিলেট","সিলেট সদর","মগ্লা","৩১০৮"
"3109","সিলেট","সিলেট","সিলেট সদর","রাঙ্গা হাজীগঞ্জ","৩১০৯"
"3114","সিলেট","সিলেট","সিলেট সদর","শাহ্‌জালাল বিজ্ঞান ও প্রযুক্তি","৩১১৪"
"3105","সিলেট","সিলেট","সিলেট সদর","সিলাম","৩১০৫"
"3100","সিলেট","সিলেট","সিলেট সদর","সিলেট সদর","৩১০০"
"3102","সিলেট","সিলেট","সিলেট সদর","সিলেট বিমান বন্দর","৩১০২"
"3101","সিলেট","সিলেট","সিলেট সদর","সিলেট ক্যাডেট কলেজ","৩১০১"
"3937","সিলেট","Feni","Sonagazi","Mangal Kandi","৩৯৩৭"
"4650","চট্টগ্রাম","বান্দরবান","আলিকদম","আলিকদম","৪৬৫০"
"4660","চট্টগ্রাম","বান্দরবান","নাইখং","নাইখং","৪৬৬০"
"4610","চট্টগ্রাম","বান্দরবান","রংছড়ি","রংছড়ি","৪৬১০"
"4620","চট্টগ্রাম","বান্দরবান","রুমা","রুমা","৪৬২০"
"4641","চট্টগ্রাম","বান্দরবান","থানচি","লামা","৪৬৪১"
"4630","চট্টগ্রাম","বান্দরবান","থানচি","থানচি","৪৬৩০"
"3450","সিলেট","ব্রাহ্মণবাড়িয়া","আখাউড়া","আখাউড়া","৩৪৫০"
"3451","সিলেট","ব্রাহ্মণবাড়িয়া","আখাউড়া","আজমপুর","৩৪৫১"
"3452","সিলেট","ব্রাহ্মণবাড়িয়া","আখাউড়া","গঙ্গাসাগর","৩৪৫২"
"3420","সিলেট","ব্রাহ্মণবাড়িয়া","বাঞ্ছারামপুর","বাঞ্ছারামপুর","৩৪২০"
"3402","সিলেট","ব্রাহ্মণবাড়িয়া","ব্রাহ্মণবাড়িয়া সদর","আশুগঞ্জ","৩৪০২"
"3403","সিলেট","ব্রাহ্মণবাড়িয়া","ব্রাহ্মণবাড়িয়া সদর","আশুগঞ্জ সেয়ার","৩৪০৩"
"3400","সিলেট","ব্রাহ্মণবাড়িয়া","ব্রাহ্মণবাড়িয়া সদর","ব্রাহ্মণবাড়িয়া সদর","৩৪০০"
"3404","সিলেট","ব্রাহ্মণবাড়িয়া","ব্রাহ্মণবাড়িয়া সদর","Poun","৩৪০৪"
"3401","সিলেট","ব্রাহ্মণবাড়িয়া","ব্রাহ্মণবাড়িয়া সদর","Talshahar","৩৪০১"
"3462","সিলেট","ব্রাহ্মণবাড়িয়া","কসবা","Chandidar","৩৪৬২"
"3463","সিলেট","ব্রাহ্মণবাড়িয়া","কসবা","Chargachh","৩৪৬৩"
"3464","সিলেট","ব্রাহ্মণবাড়িয়া","কসবা","গোপীনাথপুর","৩৪৬৪"
"3460","সিলেট","ব্রাহ্মণবাড়িয়া","কসবা","কসবা","৩৪৬০"
"3461","সিলেট","ব্রাহ্মণবাড়িয়া","কসবা","কুটি","৩৪৬১"
"3419","সিলেট","ব্রাহ্মণবাড়িয়া","নবীনগর","Jibanganj","৩৪১৯"
"3417","সিলেট","ব্রাহ্মণবাড়িয়া","নবীনগর","Kaitala","৩৪১৭"
"3411","সিলেট","ব্রাহ্মণবাড়িয়া","নবীনগর","Laubfatehpur","৩৪১১"
"3410","সিলেট","ব্রাহ্মণবাড়িয়া","নবীনগর","নবীনগর","৩৪১০"
"3412","সিলেট","ব্রাহ্মণবাড়িয়া","নবীনগর","Rasullabad","৩৪১২"
"3414","সিলেট","ব্রাহ্মণবাড়িয়া","নবীনগর","রতনপুর","৩৪১৪"
"3418","সিলেট","ব্রাহ্মণবাড়িয়া","নবীনগর","Salimganj","৩৪১৮"
"3415","সিলেট","ব্রাহ্মণবাড়িয়া","নবীনগর","শাহ্পুর","৩৪১৫"
"3413","সিলেট","ব্রাহ্মণবাড়িয়া","নবীনগর","Shamgram","৩৪১৩"
"3441","সিলেট","ব্রাহ্মণবাড়িয়া","নাসিরনগর","Fandauk","৩৪৪১"
"3440","সিলেট","ব্রাহ্মণবাড়িয়া","নাসিরনগর","নাসিরনগর","৩৪৪০"
"3432","সিলেট","ব্রাহ্মণবাড়িয়া","সরাইল","Chandura","৩৪৩২"
"3430","সিলেট","ব্রাহ্মণবাড়িয়া","সরাইল","Sarial","৩৪৩০"
"3431","সিলেট","ব্রাহ্মণবাড়িয়া","সরাইল","শাহবাজপুর","৩৪৩১"
"3602","সিলেট","চাঁদপুর","চাঁদপুর সদর","বাবুরহাট","৩৬০২"
"3600","সিলেট","চাঁদপুর","চাঁদপুর সদর","চাঁদপুর সদর","৩৬০০"
"3601","সিলেট","চাঁদপুর","চাঁদপুর সদর","পুরানবাজারের","৩৬০১"
"3603","সিলেট","চাঁদপুর","চাঁদপুর সদর","Sahatali","৩৬০৩"
"3651","সিলেট","চাঁদপুর","ফরিদগঞ্জ","চন্দ্র","৩৬৫১"
"3650","সিলেট","চাঁদপুর","ফরিদগঞ্জ","ফরিদগঞ্জ","৩৬৫০"
"3653","সিলেট","চাঁদপুর","ফরিদগঞ্জ","Gridkaliandia","৩৬৫৩"
"3655","সিলেট","চাঁদপুর","ফরিদগঞ্জ","ইসলামপুর শাহ Isain","৩৬৫৫"
"3654","সিলেট","চাঁদপুর","ফরিদগঞ্জ","Rampurbazar","৩৬৫৪"
"3652","সিলেট","চাঁদপুর","ফরিদগঞ্জ","রূপসা","৩৬৫২"
"3611","সিলেট","চাঁদপুর","হাজীগঞ্জ","Bolakhal","৩৬১১"
"3610","সিলেট","চাঁদপুর","হাজীগঞ্জ","হাজীগঞ্জ","৩৬১০"
"3661","সিলেট","চাঁদপুর","হাইমচর","Gandamara","৩৬৬১"
"3660","সিলেট","চাঁদপুর","হাইমচর","হাইমচর","৩৬৬০"
"3630","সিলেট","চাঁদপুর","কচুয়া","কচুয়া","৩৬৩০"
"3631","সিলেট","চাঁদপুর","কচুয়া","পাক শ্রীরামপুর","৩৬৩১"
"3632","সিলেট","চাঁদপুর","কচুয়া","রহিমা নগর","৩৬৩২"
"3633","সিলেট","চাঁদপুর","কচুয়া","Shachar","৩৬৩৩"
"3642","সিলেট","চাঁদপুর","মতলবগঞ্জ","Kalipur","৩৬৪২"
"3640","সিলেট","চাঁদপুর","মতলবগঞ্জ","মতলবগঞ্জ","৩৬৪০"
"3641","সিলেট","চাঁদপুর","মতলবগঞ্জ","মোহনপুর","৩৬৪১"
"3623","সিলেট","চাঁদপুর","শাহরাস্তি","Chotoshi","৩৬২৩"
"3624","সিলেট","চাঁদপুর","শাহরাস্তি","ইসলামিয়া মাদ্রাসা","৩৬২৪"
"3621","সিলেট","চাঁদপুর","শাহরাস্তি","Khilabazar","৩৬২১"
"3622","সিলেট","চাঁদপুর","শাহরাস্তি","পশ্চিম Kherihar আল","৩৬২২"
"3620","সিলেট","চাঁদপুর","শাহরাস্তি","শাহরাস্তি","৩৬২০"
"4376","চট্টগ্রাম","চট্টগ্রাম","আনোয়ারা","আনোয়ারা","৪৩৭৬"
"4378","চট্টগ্রাম","চট্টগ্রাম","আনোয়ারা","Battali","৪৩৭৮"
"4377","চট্টগ্রাম","চট্টগ্রাম","আনোয়ারা","Paroikora","৪৩৭৭"
"4366","চট্টগ্রাম","চট্টগ্রাম","বোয়ালখালী","বোয়ালখালী","৪৩৬৬"
"4369","চট্টগ্রাম","চট্টগ্রাম","বোয়ালখালী","Charandwip","৪৩৬৯"
"4365","চট্টগ্রাম","চট্টগ্রাম","বোয়ালখালী","ইকবাল পার্কে","৪৩৬৫"
"4368","চট্টগ্রাম","চট্টগ্রাম","বোয়ালখালী","Kadurkhal","৪৩৬৮"
"4363","চট্টগ্রাম","চট্টগ্রাম","বোয়ালখালী","কানুনগোপাড়া","৪৩৬৩"
"4367","চট্টগ্রাম","চট্টগ্রাম","বোয়ালখালী","Sakpura","৪৩৬৭"
"4364","চট্টগ্রাম","চট্টগ্রাম","বোয়ালখালী","Saroatoli","৪৩৬৪"
"4221","চট্টগ্রাম","চট্টগ্রাম","চট্টগ্রাম সদর","আল আমিন Baria Madra","৪২২১"
"4211","চট্টগ্রাম","চট্টগ্রাম","চট্টগ্রাম সদর","আমিন জুট মিলস","৪২১১"
"4215","চট্টগ্রাম","চট্টগ্রাম","চট্টগ্রাম সদর","আনন্দবাজার","৪২১৫"
"4210","চট্টগ্রাম","চট্টগ্রাম","চট্টগ্রাম সদর","বায়েজিদ বোস্তামী","৪২১০"
"4212","চট্টগ্রাম","চট্টগ্রাম","চট্টগ্রাম সদর","চাঁদগাও","৪২১২"
"4203","চট্টগ্রাম","চট্টগ্রাম","চট্টগ্রাম সদর","চকবাজার","৪২০৩"
"4220","চট্টগ্রাম","চট্টগ্রাম","চট্টগ্রাম সদর","Chitt. সেনানিবাস","৪২২০"
"4219","চট্টগ্রাম","চট্টগ্রাম","চট্টগ্রাম সদর","Chitt. কাস্টমস Acca","৪২১৯"
"4209","চট্টগ্রাম","চট্টগ্রাম","চট্টগ্রাম সদর","Chitt. Politechnic ইন","৪২০৯"
"4218","চট্টগ্রাম","চট্টগ্রাম","চট্টগ্রাম সদর","Chitt. Sailers কোলন","৪২১৮"
"4205","চট্টগ্রাম","চট্টগ্রাম","চট্টগ্রাম সদর","চট্টগ্রাম বিমানবন্দর","৪২০৫"
"4100","চট্টগ্রাম","চট্টগ্রাম","চট্টগ্রাম সদর","চট্টগ্রাম বন্দর","৪১০০"
"4000","চট্টগ্রাম","চট্টগ্রাম","চট্টগ্রাম সদর","চট্টগ্রাম জিপিও","৪০০০"
"4223","চট্টগ্রাম","চট্টগ্রাম","চট্টগ্রাম সদর","রপ্তানি প্রক্রিয়াকরণ","৪২২৩"
"4207","চট্টগ্রাম","চট্টগ্রাম","চট্টগ্রাম সদর","Firozshah","৪২০৭"
"4216","চট্টগ্রাম","চট্টগ্রাম","চট্টগ্রাম সদর","হালিশহর","৪২১৬"
"4225","চট্টগ্রাম","চট্টগ্রাম","চট্টগ্রাম সদর","Halishshar","৪২২৫"
"4214","চট্টগ্রাম","চট্টগ্রাম","চট্টগ্রাম সদর","জালালাবাদ","৪২১৪"
"4206","চট্টগ্রাম","চট্টগ্রাম","চট্টগ্রাম সদর","জলদিa Merine Accade","৪২০৬"
"4222","চট্টগ্রাম","চট্টগ্রাম","চট্টগ্রাম সদর","মধ্য পতেঙ্গা","৪২২২"
"4208","চট্টগ্রাম","চট্টগ্রাম","চট্টগ্রাম সদর","Mohard","৪২০৮"
"4226","চট্টগ্রাম","চট্টগ্রাম","চট্টগ্রাম সদর","উত্তর হালিশহর","৪২২৬"
"4217","চট্টগ্রাম","চট্টগ্রাম","চট্টগ্রাম সদর","উত্তর Katuli","৪২১৭"
"4202","চট্টগ্রাম","চট্টগ্রাম","চট্টগ্রাম সদর","পাহাড়তলী","৪২০২"
"4204","চট্টগ্রাম","চট্টগ্রাম","চট্টগ্রাম সদর","পতেঙ্গা","৪২০৪"
"4224","চট্টগ্রাম","চট্টগ্রাম","চট্টগ্রাম সদর","রামপুরা TSO","৪২২৪"
"4213","চট্টগ্রাম","চট্টগ্রাম","চট্টগ্রাম সদর","Wazedia","৪২১৩"
"4383","চট্টগ্রাম","চট্টগ্রাম","পূর্ব জোয়ারা","বর্মা","৪৩৮৩"
"4382","চট্টগ্রাম","চট্টগ্রাম","পূর্ব জোয়ারা","দোহাজারী","৪৩৮২"
"4380","চট্টগ্রাম","চট্টগ্রাম","পূর্ব জোয়ারা","পূর্ব জোয়ারা","৪৩৮০"
"4381","চট্টগ্রাম","চট্টগ্রাম","পূর্ব জোয়ারা","Gachbaria","৪৩৮১"
"4352","চট্টগ্রাম","চট্টগ্রাম","ফটিকছড়ি","ভাণ্ডার শরীফ","৪৩৫২"
"4350","চট্টগ্রাম","চট্টগ্রাম","ফটিকছড়ি","ফটিকছড়ি","৪৩৫০"
"4354","চট্টগ্রাম","চট্টগ্রাম","ফটিকছড়ি","Harualchhari","৪৩৫৪"
"4353","চট্টগ্রাম","চট্টগ্রাম","ফটিকছড়ি","Najirhat","৪৩৫৩"
"4351","চট্টগ্রাম","চট্টগ্রাম","ফটিকছড়ি","Nanupur","৪৩৫১"
"4355","চট্টগ্রাম","চট্টগ্রাম","ফটিকছড়ি","Narayanhat","৪৩৫৫"
"4331","চট্টগ্রাম","চট্টগ্রাম","হাটহাজারী","Chitt.University","৪৩৩১"
"4335","চট্টগ্রাম","চট্টগ্রাম","হাটহাজারী","Fatahabad","৪৩৩৫"
"4332","চট্টগ্রাম","চট্টগ্রাম","হাটহাজারী","Gorduara","৪৩৩২"
"4330","চট্টগ্রাম","চট্টগ্রাম","হাটহাজারী","হাটহাজারী","৪৩৩০"
"4333","চট্টগ্রাম","চট্টগ্রাম","হাটহাজারী","Katirhat","৪৩৩৩"
"4339","চট্টগ্রাম","চট্টগ্রাম","হাটহাজারী","মাদ্রাসা","৪৩৩৯"
"4334","চট্টগ্রাম","চট্টগ্রাম","হাটহাজারী","মির্জাপুর","৪৩৩৪"
"4337","চট্টগ্রাম","চট্টগ্রাম","হাটহাজারী","Nuralibari","৪৩৩৭"
"4338","চট্টগ্রাম","চট্টগ্রাম","হাটহাজারী","ইউনূস নগর","৪৩৩৮"
"4393","চট্টগ্রাম","চট্টগ্রাম","জলদি","Banigram","৪৩৯৩"
"4392","চট্টগ্রাম","চট্টগ্রাম","জলদি","Gunagari","৪৩৯২"
"4390","চট্টগ্রাম","চট্টগ্রাম","জলদি","জলদি","৪৩৯০"
"4391","চট্টগ্রাম","চট্টগ্রাম","জলদি","খান বাহাদুর","৪৩৯১"
"4398","চট্টগ্রাম","চট্টগ্রাম","লোহাগাড়া","Chunti","৪৩৯৮"
"4396","চট্টগ্রাম","চট্টগ্রাম","লোহাগাড়া","লোহাগাড়া","৪৩৯৬"
"4397","চট্টগ্রাম","চট্টগ্রাম","লোহাগাড়া","পদুয়া","৪৩৯৭"
"4321","চট্টগ্রাম","চট্টগ্রাম","মীরসরাই","Abutorab","৪৩২১"
"4325","চট্টগ্রাম","চট্টগ্রাম","মীরসরাই","Azampur","৪৩২৫"
"4323","চট্টগ্রাম","চট্টগ্রাম","মীরসরাই","Bharawazhat","৪৩২৩"
"4322","চট্টগ্রাম","চট্টগ্রাম","মীরসরাই","Darrogahat","৪৩২২"
"4324","চট্টগ্রাম","চট্টগ্রাম","মীরসরাই","Joarganj","৪৩২৪"
"4327","চট্টগ্রাম","চট্টগ্রাম","মীরসরাই","Korerhat","৪৩২৭"
"4320","চট্টগ্রাম","চট্টগ্রাম","মীরসরাই","মীরসরাই","৪৩২০"
"4328","চট্টগ্রাম","চট্টগ্রাম","মীরসরাই","Mohazanhat","৪৩২৮"
"4371","চট্টগ্রাম","চট্টগ্রাম","পটিয়া","Budhpara","৪৩৭১"
"4370","চট্টগ্রাম","চট্টগ্রাম","পটিয়া","পটিয়া প্রধান কার্যালয়","৪৩৭০"
"4361","চট্টগ্রাম","চট্টগ্রাম","রাঙ্গুনিয়া","Dhamair","৪৩৬১"
"4360","চট্টগ্রাম","চট্টগ্রাম","রাঙ্গুনিয়া","রাঙ্গুনিয়া","৪৩৬০"
"4349","চট্টগ্রাম","চট্টগ্রাম","রাউজান","B.I.T পোস্ট অফিস","৪৩৪৯"
"4341","চট্টগ্রাম","চট্টগ্রাম","রাউজান","Beenajuri","৪৩৪১"
"4347","চট্টগ্রাম","চট্টগ্রাম","রাউজান","Dewanpur","৪৩৪৭"
"4345","চট্টগ্রাম","চট্টগ্রাম","রাউজান","Fatepur","৪৩৪৫"
"4343","চট্টগ্রাম","চট্টগ্রাম","রাউজান","Gahira","৪৩৪৩"
"4346","চট্টগ্রাম","চট্টগ্রাম","রাউজান","Guzra নোয়াপাড়া","৪৩৪৬"
"4344","চট্টগ্রাম","চট্টগ্রাম","রাউজান","জগন্নাথ হাট","৪৩৪৪"
"4342","চট্টগ্রাম","চট্টগ্রাম","রাউজান","কুন্ডেশ্বরী","৪৩৪২"
"4348","চট্টগ্রাম","চট্টগ্রাম","রাউজান","Mohamuni","৪৩৪৮"
"4340","চট্টগ্রাম","চট্টগ্রাম","রাউজান","রাউজান","৪৩৪০"
"4300","চট্টগ্রাম","চট্টগ্রাম","সন্দ্বীপ","সন্দ্বীপ","৪৩০০"
"4301","চট্টগ্রাম","চট্টগ্রাম","সন্দ্বীপ","Shiberhat","৪৩০১"
"4302","চট্টগ্রাম","চট্টগ্রাম","সন্দ্বীপ","সন্দ্বীপ","৪৩০২"
"4387","চট্টগ্রাম","চট্টগ্রাম","সাতকানিয়া","বায়তুল Ijjat","৪৩৮৭"
"4388","চট্টগ্রাম","চট্টগ্রাম","সাতকানিয়া","বাজালিয়া","৪৩৮৮"
"4386","চট্টগ্রাম","চট্টগ্রাম","সাতকানিয়া","সাতকানিয়া","৪৩৮৬"
"4312","চট্টগ্রাম","চট্টগ্রাম","সীতাকুন্ড","Barabkunda","৪৩১২"
"4311","চট্টগ্রাম","চট্টগ্রাম","সীতাকুন্ড","Baroidhala","৪৩১১"
"4313","চট্টগ্রাম","চট্টগ্রাম","সীতাকুন্ড","Bawashbaria","৪৩১৩"
"4315","চট্টগ্রাম","চট্টগ্রাম","সীতাকুন্ড","ভাটিয়ারী","৪৩১৫"
"4316","চট্টগ্রাম","চট্টগ্রাম","সীতাকুন্ড","ফৌজদারহাট","৪৩১৬"
"4317","চট্টগ্রাম","চট্টগ্রাম","সীতাকুন্ড","জাফরাবাদ","৪৩১৭"
"4314","চট্টগ্রাম","চট্টগ্রাম","সীতাকুন্ড","কুমিরা","৪৩১৪"
"4310","চট্টগ্রাম","চট্টগ্রাম","সীতাকুন্ড","সীতাকুন্ড","৪৩১০"
"3560","সিলেট","কুমিল্লা","বরুড়া","বরুড়া","৩৫৬০"
"3562","সিলেট","কুমিল্লা","বরুড়া","Murdafarganj","৩৫৬২"
"3561","সিলেট","কুমিল্লা","বরুড়া","Poyalgachha","৩৫৬১"
"3526","সিলেট","কুমিল্লা","ব্রাহ্মণপাড়া","ব্রাহ্মণপাড়া","৩৫২৬"
"3520","সিলেট","কুমিল্লা","বুড়িচং","বুড়িচং","৩৫২০"
"3521","সিলেট","কুমিল্লা","বুড়িচং","Maynamoti বাজার","৩৫২১"
"3510","সিলেট","কুমিল্লা","চান্দিনা","চান্দিয়া","৩৫১০"
"3511","সিলেট","কুমিল্লা","চান্দিনা","Madhaiabazar","৩৫১১"
"3551","সিলেট","কুমিল্লা","চৌদ্দগ্রাম","Batisa","৩৫৫১"
"3552","সিলেট","কুমিল্লা","চৌদ্দগ্রাম","Chiora","৩৫৫২"
"3550","সিলেট","কুমিল্লা","চৌদ্দগ্রাম","চৌদ্দগ্রাম","৩৫৫০"
"3501","সিলেট","কুমিল্লা","কুমিল্লা সদর","কুমিল্লা Contoment","৩৫০১"
"3500","সিলেট","কুমিল্লা","কুমিল্লা সদর","কুমিল্লা সদর","৩৫০০"
"3503","সিলেট","কুমিল্লা","কুমিল্লা সদর","Courtbari","৩৫০৩"
"3502","সিলেট","কুমিল্লা","কুমিল্লা সদর","Halimanagar","৩৫০২"
"3504","সিলেট","কুমিল্লা","কুমিল্লা সদর","Suaganj","৩৫০৪"
"3518","সিলেট","কুমিল্লা","দাউদকান্দি","Dashpara","৩৫১৮"
"3516","সিলেট","কুমিল্লা","দাউদকান্দি","দাউদকান্দি","৩৫১৬"
"3519","সিলেট","কুমিল্লা","দাউদকান্দি","Eliotganj","৩৫১৯"
"3517","সিলেট","কুমিল্লা","দাউদকান্দি","গৌরীপুর","৩৫১৭"
"3532","সিলেট","কুমিল্লা","দাবিদার","Barashalghar","৩৫৩২"
"3530","সিলেট","কুমিল্লা","দাবিদার","দাবিদার","৩৫৩০"
"3533","সিলেট","কুমিল্লা","দাবিদার","Dhamtee","৩৫৩৩"
"3531","সিলেট","কুমিল্লা","দাবিদার","Gangamandal","৩৫৩১"
"3546","সিলেট","কুমিল্লা","হোমনা","হোমনা","৩৫৪৬"
"3572","সিলেট","কুমিল্লা","লাকসাম","Bipulasar","৩৫৭২"
"3570","সিলেট","কুমিল্লা","লাকসাম","লাকসাম","৩৫৭০"
"3571","সিলেট","কুমিল্লা","লাকসাম","Lakshamanpur","৩৫৭১"
"3582","সিলেট","কুমিল্লা","লাঙ্গলকোট","Chhariabazar","৩৫৮২"
"3581","সিলেট","কুমিল্লা","লাঙ্গলকোট","Dhalua","৩৫৮১"
"3583","সিলেট","কুমিল্লা","লাঙ্গলকোট","Gunabati","৩৫৮৩"
"3580","সিলেট","কুমিল্লা","লাঙ্গলকোট","লাঙ্গলকোট","৩৫৮০"
"3543","সিলেট","কুমিল্লা","মুরাদনগর","Bangra","৩৫৪৩"
"3542","সিলেট","কুমিল্লা","মুরাদনগর","কোম্পানীগঞ্জ","৩৫৪২"
"3540","সিলেট","কুমিল্লা","মুরাদনগর","মুরাদনগর","৩৫৪০"
"3545","সিলেট","কুমিল্লা","মুরাদনগর","Pantibazar","৩৫৪৫"
"3541","সিলেট","কুমিল্লা","মুরাদনগর","Ramchandarpur","৩৫৪১"
"3544","সিলেট","কুমিল্লা","মুরাদনগর","Sonakanda","৩৫৪৪"
"4742","চট্টগ্রাম","কক্সবাজার","চিরিঙ্গা","Badarkali","৪৭৪২"
"4740","চট্টগ্রাম","কক্সবাজার","চিরিঙ্গা","চিরিঙ্গা","৪৭৪০"
"4741","চট্টগ্রাম","কক্সবাজার","চিরিঙ্গা","চিরিঙ্গা S.O","৪৭৪১"
"4743","চট্টগ্রাম","কক্সবাজার","চিরিঙ্গা","Malumghat","৪৭৪৩"
"4700","চট্টগ্রাম","কক্সবাজার","কক্সবাজার সদর","কক্সবাজার সদর","৪৭০০"
"4702","চট্টগ্রাম","কক্সবাজার","কক্সবাজার সদর","Eidga","৪৭০২"
"4701","চট্টগ্রাম","কক্সবাজার","কক্সবাজার সদর","Zhilanja","৪৭০১"
"4710","চট্টগ্রাম","কক্সবাজার","Gorakghat","Gorakghat","৪৭১০"
"4720","চট্টগ্রাম","কক্সবাজার","কুতুবদিয়া","কুতুবদিয়া","৪৭২০"
"4730","চট্টগ্রাম","কক্সবাজার","রামু","রামু","৪৭৩০"
"4761","চট্টগ্রাম","কক্সবাজার","টেকনাফ","Hnila","৪৭৬১"
"4762","চট্টগ্রাম","কক্সবাজার","টেকনাফ","St.Martin","৪৭৬২"
"4760","চট্টগ্রাম","কক্সবাজার","টেকনাফ","টেকনাফ","৪৭৬০"
"4750","চট্টগ্রাম","কক্সবাজার","উখিয়া","উখিয়া","৪৭৫০"
"3910","সিলেট","ফেনী","Chhagalnaia","Chhagalnaia","৩৯১০"
"3912","সিলেট","ফেনী","Chhagalnaia","Daraga হাট","৩৯১২"
"3911","সিলেট","ফেনী","Chhagalnaia","মহারাজগঞ্জ","৩৯১১"
"3913","সিলেট","ফেনী","Chhagalnaia","Puabashimulia","৩৯১৩"
"3922","সিলেট","ফেনী","দাগনভূইয়া","Chhilonia","৩৯২২"
"3920","সিলেট","ফেনী","দাগনভূইয়া","Dagondhuia","৩৯২০"
"3921","সিলেট","ফেনী","দাগনভূইয়া","Dudmukha","৩৯২১"
"3923","সিলেট","ফেনী","দাগনভূইয়া","রাজাপুর","৩৯২৩"
"3901","সিলেট","ফেনী","ফেনী সদর","Fazilpur","৩৯০১"
"3900","সিলেট","ফেনী","ফেনী সদর","ফেনী সদর","৩৯০০"
"3903","সিলেট","ফেনী","ফেনী সদর","Laskarhat","৩৯০৩"
"3902","সিলেট","ফেনী","ফেনী সদর","Sharshadie","৩৯০২"
"3942","সিলেট","ফেনী","পশুরামপুর","ফুলগাজী","৩৯৪২"
"3943","সিলেট","ফেনী","পশুরামপুর","Munshirhat","৩৯৪৩"
"3940","সিলেট","ফেনী","পশুরামপুর","পশুরামপুর","৩৯৪০"
"3941","সিলেট","ফেনী","পশুরামপুর","Shuarbazar","৩৯৪১"
"3932","সিলেট","ফেনী","সোনাগাজী","আহমদপুর","৩৯৩২"
"3933","সিলেট","ফেনী","সোনাগাজী","Kazirhat","৩৯৩৩"
"3931","সিলেট","ফেনী","সোনাগাজী","Motiganj","৩৯৩১"
"3930","সিলেট","ফেনী","সোনাগাজী","সোনাগাজী","৩৯৩০"
"4420","চট্টগ্রাম","খাগড়াছড়ি","Diginala","Diginala","৪৪২০"
"4400","চট্টগ্রাম","খাগড়াছড়ি","খাগড়াছড়ি সদর","খাগড়াছড়ি সদর","৪৪০০"
"4470","চট্টগ্রাম","খাগড়াছড়ি","Laxmichhari","Laxmichhari","৪৪৭০"
"4430","চট্টগ্রাম","খাগড়াছড়ি","Mahalchhari","Mahalchhari","৪৪৩০"
"4460","চট্টগ্রাম","খাগড়াছড়ি","মানিকছড়ি","মানিকছড়ি","৪৪৬০"
"4450","চট্টগ্রাম","খাগড়াছড়ি","মাটিরাঙ্গা","মাটিরাঙ্গা","৪৪৫০"
"4410","চট্টগ্রাম","খাগড়াছড়ি","পানছড়ি","পানছড়ি","৪৪১০"
"4440","চট্টগ্রাম","খাগড়াছড়ি","রামগড়ে প্রধান কার্যালয়","রামগড়ে প্রধান কার্যালয়","৪৪৪০"
"3730","সিলেট","লক্ষ্মীপুর","চর আলেক্সজান্ডার","চর আলেক্সজান্ডার","৩৭৩০"
"3731","সিলেট","লক্ষ্মীপুর","চর আলেক্সজান্ডার","Hajirghat","৩৭৩১"
"3732","সিলেট","লক্ষ্মীপুর","চর আলেক্সজান্ডার","Ramgatirhat","৩৭৩২"
"3709","সিলেট","লক্ষ্মীপুর","লক্ষ্মীপুর সদর","Amani থেকে লক্ষ্মীপুর","৩৭০৯"
"3702","সিলেট","লক্ষ্মীপুর","লক্ষ্মীপুর সদর","ভবানীগঞ্জ","৩৭০২"
"3708","সিলেট","লক্ষ্মীপুর","লক্ষ্মীপুর সদর","চন্দ্রগঞ্জ","৩৭০৮"
"3707","সিলেট","লক্ষ্মীপুর","লক্ষ্মীপুর সদর","Choupalli","৩৭০৭"
"3701","সিলেট","লক্ষ্মীপুর","লক্ষ্মীপুর সদর","দালাল বাজার","৩৭০১"
"3706","সিলেট","লক্ষ্মীপুর","লক্ষ্মীপুর সদর","Duttapara","৩৭০৬"
"3704","সিলেট","লক্ষ্মীপুর","লক্ষ্মীপুর সদর","Keramatganj","৩৭০৪"
"3700","সিলেট","লক্ষ্মীপুর","লক্ষ্মীপুর সদর","লক্ষ্মীপুর সদর","৩৭০০"
"3703","সিলেট","লক্ষ্মীপুর","লক্ষ্মীপুর সদর","Mandari","৩৭০৩"
"3705","সিলেট","লক্ষ্মীপুর","লক্ষ্মীপুর সদর","Rupchara","৩৭০৫"
"3721","সিলেট","লক্ষ্মীপুর","রামগঞ্জ","আলীপুর","৩৭২১"
"3725","সিলেট","লক্ষ্মীপুর","রামগঞ্জ","Dolta","৩৭২৫"
"3723","সিলেট","লক্ষ্মীপুর","রামগঞ্জ","কাঞ্চনপুর","৩৭২৩"
"3724","সিলেট","লক্ষ্মীপুর","রামগঞ্জ","Naagmud","৩৭২৪"
"3722","সিলেট","লক্ষ্মীপুর","রামগঞ্জ","Panpara","৩৭২২"
"3720","সিলেট","লক্ষ্মীপুর","রামগঞ্জ","রামগঞ্জ","৩৭২০"
"3714","সিলেট","লক্ষ্মীপুর","রায়পুর","Bhuabari","৩৭১৪"
"3713","সিলেট","লক্ষ্মীপুর","রায়পুর","Haydarganj","৩৭১৩"
"3712","সিলেট","লক্ষ্মীপুর","রায়পুর","Nagerdighirpar","৩৭১২"
"3711","সিলেট","লক্ষ্মীপুর","রায়পুর","Rakhallia","৩৭১১"
"3710","সিলেট","লক্ষ্মীপুর","রায়পুর","রায়পুর","৩৭১০"
"3850","সিলেট","নোয়াখালী","Basurhat","Basur হাট","৩৮৫০"
"3851","সিলেট","নোয়াখালী","Basurhat","Charhajari","৩৮৫১"
"3831","সিলেট","নোয়াখালী","বেগমগঞ্জ","Alaiarpur","৩৮৩১"
"3847","সিলেট","নোয়াখালী","বেগমগঞ্জ","Amisha পাড়া","৩৮৪৭"
"3822","সিলেট","নোয়াখালী","বেগমগঞ্জ","বাংলাবাজার","৩৮২২"
"3824","সিলেট","নোয়াখালী","বেগমগঞ্জ","Bazra","৩৮২৪"
"3820","সিলেট","নোয়াখালী","বেগমগঞ্জ","বেগমগঞ্জ","৩৮২০"
"3837","সিলেট","নোয়াখালী","বেগমগঞ্জ","ভবানী Jibanpur","৩৮৩৭"
"3821","সিলেট","নোয়াখালী","বেগমগঞ্জ","Choumohani","৩৮২১"
"3843","সিলেট","নোয়াখালী","বেগমগঞ্জ","Dauti","৩৮৪৩"
"3848","সিলেট","নোয়াখালী","বেগমগঞ্জ","দুর্গাপুর","৩৮৪৮"
"3828","সিলেট","নোয়াখালী","বেগমগঞ্জ","গোপালপুর","৩৮২৮"
"3825","সিলেট","নোয়াখালী","বেগমগঞ্জ","Jamidar হাট","৩৮২৫"
"3844","সিলেট","নোয়াখালী","বেগমগঞ্জ","Joyag","৩৮৪৪"
"3829","সিলেট","নোয়াখালী","বেগমগঞ্জ","Joynarayanpur","৩৮২৯"
"3833","সিলেট","নোয়াখালী","বেগমগঞ্জ","Khalafat বাজার","৩৮৩৩"
"3842","সিলেট","নোয়াখালী","বেগমগঞ্জ","খালিশপুর","৩৮৪২"
"3838","সিলেট","নোয়াখালী","বেগমগঞ্জ","Maheshganj","৩৮৩৮"
"3823","সিলেট","নোয়াখালী","বেগমগঞ্জ","মীর Owarishpur","৩৮২৩"
"3839","সিলেট","নোয়াখালী","বেগমগঞ্জ","Nadona","৩৮৩৯"
"3841","সিলেট","নোয়াখালী","বেগমগঞ্জ","Nandiapara","৩৮৪১"
"3835","সিলেট","নোয়াখালী","বেগমগঞ্জ","Oachhekpur","৩৮৩৫"
"3834","সিলেট","নোয়াখালী","বেগমগঞ্জ","রাজগঞ্জ","৩৮৩৪"
"3827","সিলেট","নোয়াখালী","বেগমগঞ্জ","সোনাইমুড়ি","৩৮২৭"
"3832","সিলেট","নোয়াখালী","বেগমগঞ্জ","Tangirpar","৩৮৩২"
"3845","সিলেট","নোয়াখালী","বেগমগঞ্জ","Thanar হাট","৩৮৪৫"
"3879","সিলেট","নোয়াখালী","চাটখিল","Bansa বাজার","৩৮৭৯"
"3873","সিলেট","নোয়াখালী","চাটখিল","Bodalcourt","৩৮৭৩"
"3870","সিলেট","নোয়াখালী","চাটখিল","চাটখিল","৩৮৭০"
"3878","সিলেট","নোয়াখালী","চাটখিল","দশদিন Gharia","৩৮৭৮"
"3877","সিলেট","নোয়াখালী","চাটখিল","Karihati","৩৮৭৭"
"3872","সিলেট","নোয়াখালী","চাটখিল","Khilpara","৩৮৭২"
"3871","সিলেট","নোয়াখালী","চাটখিল","Palla","৩৮৭১"
"3874","সিলেট","নোয়াখালী","চাটখিল","Rezzakpur","৩৮৭৪"
"3881","সিলেট","নোয়াখালী","চাটখিল","সাহাপুর","৩৮৮১"
"3882","সিলেট","নোয়াখালী","চাটখিল","শম্পার","৩৮৮২"
"3883","সিলেট","নোয়াখালী","চাটখিল","Shingbahura","৩৮৮৩"
"3875","সিলেট","নোয়াখালী","চাটখিল","Solla","৩৮৭৫"
"3891","সিলেট","নোয়াখালী","হাতিয়া","Afazia","৩৮৯১"
"3890","সিলেট","নোয়াখালী","হাতিয়া","হাতিয়া","৩৮৯০"
"3892","সিলেট","নোয়াখালী","হাতিয়া","Tamoraddi","৩৮৯২"
"3811","সিলেট","নোয়াখালী","নোয়াখালী সদর","Chaprashir হাট","৩৮১১"
"3812","সিলেট","নোয়াখালী","নোয়াখালী সদর","চর জব্বার","৩৮১২"
"3809","সিলেট","নোয়াখালী","নোয়াখালী সদর","Charam Tua থেকে","৩৮০৯"
"3803","সিলেট","নোয়াখালী","নোয়াখালী সদর","দীন মনির হাট","৩৮০৩"
"3807","সিলেট","নোয়াখালী","নোয়াখালী সদর","কবিরহাট","৩৮০৭"
"3808","সিলেট","নোয়াখালী","নোয়াখালী সদর","Khalifar হাট","৩৮০৮"
"3806","সিলেট","নোয়াখালী","নোয়াখালী সদর","Mriddarhat","৩৮০৬"
"3801","সিলেট","নোয়াখালী","নোয়াখালী সদর","নোয়াখালী কলেজ","৩৮০১"
"3800","সিলেট","নোয়াখালী","নোয়াখালী সদর","নোয়াখালী সদর","৩৮০০"
"3804","সিলেট","নোয়াখালী","নোয়াখালী সদর","পাক কিশোরগঞ্জ","৩৮০৪"
"3802","সিলেট","নোয়াখালী","নোয়াখালী সদর","সোনাপুর","৩৮০২"
"3862","সিলেট","নোয়াখালী","সেনবাগ","Beezbag","৩৮৬২"
"3864","সিলেট","নোয়াখালী","সেনবাগ","Chatarpaia","৩৮৬৪"
"3861","সিলেট","নোয়াখালী","সেনবাগ","Kallyandi","৩৮৬১"
"3863","সিলেট","নোয়াখালী","সেনবাগ","Kankirhat","৩৮৬৩"
"3860","সিলেট","নোয়াখালী","সেনবাগ","সেনবাগ","৩৮৬০"
"3865","সিলেট","নোয়াখালী","সেনবাগ","T.P. Lamua","৩৮৬৫"
"4570","চট্টগ্রাম","রাঙ্গামাটি","Barakal","Barakal","৪৫৭০"
"4550","চট্টগ্রাম","রাঙ্গামাটি","Bilaichhari","Bilaichhari","৪৫৫০"
"4560","চট্টগ্রাম","রাঙ্গামাটি","Jarachhari","Jarachhari","৪৫৬০"
"4511","চট্টগ্রাম","রাঙ্গামাটি","Kalampati","বেতবুনিয়া","৪৫১১"
"4510","চট্টগ্রাম","রাঙ্গামাটি","Kalampati","Kalampati","৪৫১০"
"4531","চট্টগ্রাম","রাঙ্গামাটি","কাপ্তাই","চন্দ্রঘোনার","৪৫৩১"
"4530","চট্টগ্রাম","রাঙ্গামাটি","কাপ্তাই","কাপ্তাই","৪৫৩০"
"4533","চট্টগ্রাম","রাঙ্গামাটি","কাপ্তাই","কাপ্তাই Nuton বাজার","৪৫৩৩"
"4532","চট্টগ্রাম","রাঙ্গামাটি","কাপ্তাই","কাপ্তাই প্রকল্প","৪৫৩২"
"4580","চট্টগ্রাম","রাঙ্গামাটি","Longachh","Longachh","৪৫৮০"
"4590","চট্টগ্রাম","রাঙ্গামাটি","Marishya","Marishya","৪৫৯০"
"4520","চট্টগ্রাম","রাঙ্গামাটি","Naniachhar","Nanichhar","৪৫২০"
"4540","চট্টগ্রাম","রাঙ্গামাটি","Rajsthali","Rajsthali","৪৫৪০"
"4500","চট্টগ্রাম","রাঙ্গামাটি","রাঙ্গামাটি সদর","রাঙ্গামাটি সদর","৪৫০০"
"5270","রংপুর","দিনাজপুর","বাংলা হিলি","বাংলা হিলি","৫২৭০"
"5210","রংপুর","দিনাজপুর","বিরল","বিরল","৫২১০"
"5266","রংপুর","দিনাজপুর","বিরামপুর","বিরামপুর","৫২৬৬"
"5220","রংপুর","দিনাজপুর","বীরগঞ্জ","বীরগঞ্জ","৫২২০"
"5240","রংপুর","দিনাজপুর","চিরিরবন্দর","চিরিরবন্দর","৫২৪০"
"5241","রংপুর","দিনাজপুর","চিরিরবন্দর","রাণীররবন্দর","৫২৪১"
"5201","রংপুর","দিনাজপুর","দিনাজপুর সদর","দিনাজপুর রাজবাড়ী","৫২০১"
"5200","রংপুর","দিনাজপুর","দিনাজপুর সদর","দিনাজপুর সদর","৫২০০"
"5230","রংপুর","দিনাজপুর","খানসামা","খানসামা","৫২৩০"
"5231","রংপুর","দিনাজপুর","খানসামা","পাকেরহাট","৫২৩১"
"5226","রংপুর","দিনাজপুর","মহারাজগঞ্জ","মহারাজগঞ্জ","৫২২৬"
"5281","রংপুর","দিনাজপুর","নবাবগঞ্জ জেলায়","দাউদপুর","৫২৮১"
"5282","রংপুর","দিনাজপুর","নবাবগঞ্জ জেলায়","গোপালপুর","৫২৮২"
"5280","রংপুর","দিনাজপুর","নবাবগঞ্জ জেলায়","নবাবগঞ্জ জেলায়","৫২৮০"
"5291","রংপুর","দিনাজপুর","ওসমানপুর","ঘোড়াঘাট","৫২৯১"
"5290","রংপুর","দিনাজপুর","ওসমানপুর","ওসমানপুর","৫২৯০"
"5250","রংপুর","দিনাজপুর","পার্বতীপুর","পার্বতীপুর","৫২৫০"
"5260","রংপুর","দিনাজপুর","ফুলবাড়ী","ফুলবাড়ী","৫২৬০"
"5216","রংপুর","দিনাজপুর","সেতাবগঞ্জ","সেতাবগঞ্জ","৫২১৬"
"5750","রংপুর","গাইবান্ধা","বোনারপাড়া","বোনারপাড়া","৫৭৫০"
"5751","রংপুর","গাইবান্ধা","বোনারপাড়া","সাঘাটা","৫৭৫১"
"5700","রংপুর","গাইবান্ধা","গাইবান্ধা সদর","গাইবান্ধা সদর","৫৭০০"
"5740","রংপুর","গাইবান্ধা","গোবিন্দগঞ্জ","গোবিন্দগঞ্জ","৫৭৪০"
"5741","রংপুর","গাইবান্ধা","গোবিন্দগঞ্জ","মাহিমাগঞ্জ","৫৭৪১"
"5730","রংপুর","গাইবান্ধা","পলাশবাড়ী","পলাশবাড়ী","৫৭৩০"
"5761","রংপুর","গাইবান্ধা","ফুলছড়ি","ভরতখালি","৫৭৬১"
"5760","রংপুর","গাইবান্ধা","ফুলছড়ি","ফুলছড়ি","৫৭৬০"
"5711","রংপুর","গাইবান্ধা","সাদুল্লাপুর","নলডাঙ্গা","৫৭১১"
"5710","রংপুর","গাইবান্ধা","সাদুল্লাপুর","সাদুল্লাপুর","৫৭১০"
"5721","রংপুর","গাইবান্ধা","সুন্দরগঞ্জ","বামনডাঙ্গা","৫৭২১"
"5720","রংপুর","গাইবান্ধা","সুন্দরগঞ্জ","সুন্দরগঞ্জ","৫৭২০"
"5670","রংপুর","কুড়িগ্রাম","ভুরুঙ্গামারী","ভুরুঙ্গামারী","৫৬৭০"
"5630","রংপুর","কুড়িগ্রাম","চিলমারী","চিলমারী","৫৬৩০"
"5631","রংপুর","কুড়িগ্রাম","চিলমারী","জোড়গাছা","৫৬৩১"
"5600","রংপুর","কুড়িগ্রাম","কুড়িগ্রাম সদর","কুড়িগ্রাম সদর","৫৬০০"
"5601","রংপুর","কুড়িগ্রাম","কুড়িগ্রাম সদর","পান্ডুল","৫৬০১"
"5680","রংপুর","কুড়িগ্রাম","কুড়িগ্রাম সদর","ফুলবাড়ী","৫৬৮০"
"5660","রংপুর","কুড়িগ্রাম","নাগেশ্বর","নাগেশ্বর","৫৬৬০"
"5611","রংপুর","কুড়িগ্রাম","রাজারহাট","নাজিমখান","৫৬১১"
"5650","রংপুর","কুড়িগ্রাম","রাজিবপুর","রাজিবপুর","৫৬৫০"
"5640","রংপুর","কুড়িগ্রাম","রৌমারী","রৌমারী","৫৬৪০"
"5621","রংপুর","কুড়িগ্রাম","উলিপুর","বাজারহাট","৫৬২১"
"5620","রংপুর","কুড়িগ্রাম","উলিপুর","উলিপুর","৫৬২০"
"5510","রংপুর","লালমনিরহাট","আদিতমারী","আদিতমারী","৫৫১০"
"5530","রংপুর","লালমনিরহাট","হাতীবান্ধা","হাতীবান্ধা","৫৫৩০"
"5502","রংপুর","লালমনিরহাট","লালমনিরহাট সদর","Kulaghat তাই","৫৫০২"
"5500","রংপুর","লালমনিরহাট","লালমনিরহাট সদর","লালমনিরহাট সদর","৫৫০০"
"5501","রংপুর","লালমনিরহাট","লালমনিরহাট সদর","মোঘলহাট","৫৫০১"
"5541","রংপুর","লালমনিরহাট","পাটগ্রাম","বাউরা","৫৫৪১"
"5542","রংপুর","লালমনিরহাট","পাটগ্রাম","বুড়িমারী","৫৫৪২"
"5540","রংপুর","লালমনিরহাট","পাটগ্রাম","পাটগ্রাম","৫৫৪০"
"5520","রংপুর","লালমনিরহাট","তুষভান্ডার","তুষভান্ডার","৫৫২০"
"5350","রংপুর","নীলফামারী","ডিমলা","ডিমলা","৫৩৫০"
"5351","রংপুর","নীলফামারী","ডিমলা","ঘাগা খড়িবাড়ি","৫৩৫১"
"5341","রংপুর","নীলফামারী","ডোমার","চিলাহাটি","৫৩৪১"
"5340","রংপুর","নীলফামারী","ডোমার","ডোমার","৫৩৪০"
"5330","রংপুর","নীলফামারী","জলঢাকা","জলঢাকা","৫৩৩০"
"5320","রংপুর","নীলফামারী","কিশোরীগঞ্জ","কিশোরীগঞ্জ","৫৩২০"
"5300","রংপুর","নীলফামারী","নীলফামারী সদর","নীলফামারী সদর","৫৩০০"
"5301","রংপুর","নীলফামারী","নীলফামারী সদর","নীলফামারী চিনি মিল","৫৩০১"
"5310","রংপুর","নীলফামারী","সৈয়দপুর","সৈয়দপুর","৫৩১০"
"5311","রংপুর","নীলফামারী","সৈয়দপুর","সৈয়দপুর উপশহর","৫৩১১"
"5010","রংপুর","পঞ্চগড়","বোদা","বোদা","৫০১০"
"4050","চট্টগ্রাম","Panchagarh","Chotto Dab","Chotto Dab","৪০৫০"
"5041","রংপুর","পঞ্চগড়","ছোট্ট ডাবের","মির্জাপুর","৫০৪১"
"5020","রংপুর","পঞ্চগড়","দেবীগঞ্জ","দেবীগঞ্জ","৫০২০"
"5000","রংপুর","পঞ্চগড়","পঞ্চগড় সদর","পঞ্চগড় সদর","৫০০০"
"5030","রংপুর","পঞ্চগড়","তেঁতুলিয়া","তেঁতুলিয়া","৫০৩০"
"5420","রংপুর","রংপুর","তারাগঞ্জ","তারাগঞ্জ","৫৪২০"
"5431","রংপুর","রংপুর","বদরগঞ্জ","শ্যামপুর","৫৪৩১"
"5410","রংপুর","রংপুর","গঙ্গাচড়া","গঙ্গাচড়া","৫৪১০"
"5441","রংপুর","রংপুর","কাউনিয়া","হারাগাছ","৫৪৪১"
"5440","রংপুর","রংপুর","কাউনিয়া","কাউনিয়া","৫৪৪০"
"5450","রংপুর","রংপুর","পীরগাছা","পীরগাছা","৫৪৫০"
"5460","রংপুর","রংপুর","মিঠাপুকুর","মিঠাপুকুর","৫৪৬০"
"5470","রংপুর","রংপুর","পীরগঞ্জ","পীরগঞ্জ","৫৪৭০"
"5402","রংপুর","রংপুর","রংপুর সদর","আলামনাগার","৫৪০২"
"5403","রংপুর","রংপুর","রংপুর সদর","মাহিগঞ্জ","৫৪০৩"
"5404","রংপুর","রংপুর","রংপুর সদর","রংপুর ক্যাডেট কলেজ","৫৪০৪"
"5405","রংপুর","রংপুর","রংপুর সদর","রংপুর কারমাইকেল কলেজ","৫৪০৫"
"5400","রংপুর","রংপুর","রংপুর সদর","রংপুর সদর","৫৪০০"
"5401","রংপুর","রংপুর","রংপুর সদর","রংপুর উপশহর","৫৪০১"
"5430","রংপুর","রংপুর","বদরগঞ্জ","বদরগঞ্জ","৫৪৩০"
"5140","রংপুর","ঠাকুরগাঁও","বালিয়াডাঙ্গী","বালিয়াডাঙ্গী","৫১৪০"
"5141","রংপুর","ঠাকুরগাঁও","বালিয়াডাঙ্গী","লাহিড়ি","৫১৪১"
"5130","রংপুর","ঠাকুরগাঁও","জীবনপুর","জীবনপুর","৫১৩০"
"5110","রংপুর","ঠাকুরগাঁও","পীরগঞ্জ","পীরগঞ্জ","৫১১০"
"5121","রংপুর","ঠাকুরগাঁও","রাণীশংকৈল","নেকমরদ","৫১২১"
"5120","রংপুর","ঠাকুরগাঁও","রাণীশংকৈল","রাণীশংকৈল","৫১২০"
"5103","রংপুর","ঠাকুরগাঁও","ঠাকুরগাঁও সদর","রুহিয়া","৫১০৩"
"5102","রংপুর","ঠাকুরগাঁও","ঠাকুরগাঁও সদর","শিবগঞ্জ","৫১০২"
"5101","রংপুর","ঠাকুরগাঁও","ঠাকুরগাঁও সদর","ঠাকুরগাঁও রোড","৫১০১"
"5100","রংপুর","ঠাকুরগাঁও","ঠাকুরগাঁও সদর","ঠাকুরগাঁও সদর","৫১০০"
"5890","রংপুর","বগুড়া","আদমদীঘি","আদমদীঘি","৫৮৯০"
"5892","রংপুর","বগুড়া","আদমদীঘি","নশরতপুর","৫৮৯২"
"5891","রংপুর","বগুড়া","আদমদীঘি","সান্তাহার","৫৮৯১"
"5801","রংপুর","বগুড়া","বগুড়া সদর","বগুড়া সেনানিবাস","৫৮০১"
"5800","রংপুর","বগুড়া","বগুড়া সদর","বগুড়া সদর","৫৮০০"
"5850","রংপুর","বগুড়া","ধুনট","ধুনট","৫৮৫০"
"5851","রংপুর","বগুড়া","ধুনট","গোসাইবাড়ি","৫৮৫১"
"5880","রংপুর","বগুড়া","দুপচাঁচিয়া","দুপচাঁচিয়া","৫৮৮০"
"5881","রংপুর","বগুড়া","দুপচাঁচিয়া","তালোড়া","৫৮৮১"
"5820","রংপুর","বগুড়া","গাবতলী","গাবতলী","৫৮২০"
"5821","রংপুর","বগুড়া","গাবতলী","সুখানপুকুর","৫৮২১"
"5870","রংপুর","বগুড়া","কাহালু","কাহালু","৫৮৭০"
"5860","রংপুর","বগুড়া","নন্দীগ্রাম","নন্দীগ্রাম","৫৮৬০"
"5831","রংপুর","বগুড়া","সারিয়াকান্দি","চন্দন বাইশা","৫৮৩১"
"5830","রংপুর","বগুড়া","সারিয়াকান্দি","সারিয়াকান্দি","৫৮৩০"
"5841","রংপুর","বগুড়া","শেরপুর","চান্দাইকোনা","৫৮৪১"
"5842","রংপুর","বগুড়া","শেরপুর","পল্লী উন্নয়ন একাডেমী","৫৮৪২"
"5840","রংপুর","বগুড়া","শেরপুর","শেরপুর","৫৮৪০"
"5810","রংপুর","বগুড়া","শিবগঞ্জ","শিবগঞ্জ","৫৮১০"
"5826","রংপুর","বগুড়া","সোনাতলা","সোনাতলা","৫৮২৬"
"6330","রাজশাহী","চাঁপাইনবাবগঞ্জ","ভোলাহাট","ভোলাহাট","৬৩৩০"
"6303","রাজশাহী","চাঁপাইনবাবগঞ্জ","চাঁপাইনবাবগঞ্জ সদর","আমনুরা","৬৩০৩"
"6300","রাজশাহী","চাঁপাইনবাবগঞ্জ","চাঁপাইনবাবগঞ্জ সদর","চাঁপাইনবাবগঞ্জ সদর","৬৩০০"
"6301","রাজশাহী","চাঁপাইনবাবগঞ্জ","চাঁপাইনবাবগঞ্জ সদর","রাজারামপুর","৬৩০১"
"6302","রাজশাহী","চাঁপাইনবাবগঞ্জ","চাঁপাইনবাবগঞ্জ সদর","রামচন্দ্রপুর","৬৩০২"
"6311","রাজশাহী","চাঁপাইনবাবগঞ্জ","নাচোল","মন্ডুমালা","৬৩১১"
"6310","রাজশাহী","চাঁপাইনবাবগঞ্জ","নাচোল","নাচোল","৬৩১০"
"6321","রাজশাহী","চাঁপাইনবাবগঞ্জ","রোহনপুর","গোমস্তাপুর","৬৩২১"
"6320","রাজশাহী","চাঁপাইনবাবগঞ্জ","রোহনপুর","রোহনপুর","৬৩২০"
"6341","রাজশাহী","চাঁপাইনবাবগঞ্জ","শিবগঞ্জ U.P.O","কনসার্ট","৬৩৪১"
"6342","রাজশাহী","চাঁপাইনবাবগঞ্জ","শিবগঞ্জ U.P.O","মনাকষা","৬৩৪২"
"6340","রাজশাহী","চাঁপাইনবাবগঞ্জ","শিবগঞ্জ U.P.O","শিবগঞ্জ U.P.O","৬৩৪০"
"5940","রংপুর","জয়পুরহাট","আক্কেলপুর","আক্কেলপুর","৫৯৪০"
"5941","রংপুর","জয়পুরহাট","আক্কেলপুর","জামালগঞ্জ","৫৯৪১"
"5942","রংপুর","জয়পুরহাট","আক্কেলপুর","তিলকপুর","৫৯৪২"
"5900","রংপুর","জয়পুরহাট","জয়পুরহাট সদর","জয়পুরহাট সদর","৫৯০০"
"5930","রংপুর","জয়পুরহাট","কালাই","কালাই","৫৯৩০"
"5920","রংপুর","জয়পুরহাট","ক্ষেতলাল","ক্ষেতলাল","৫৯২০"
"5910","রংপুর","জয়পুরহাট","পাঁচবিবি","পাঁচবিবি","৫৯১০"
"6596","রাজশাহী","নওগাঁ","আহসানগঞ্জ","আহসানগঞ্জ","৬৫৯৬"
"6597","রাজশাহী","নওগাঁ","আহসানগঞ্জ","বান্দাই","৬৫৯৭"
"6570","রাজশাহী","নওগাঁ","বদলগাছী","বদলগাছী","৬৫৭০"
"6580","রাজশাহী","নওগাঁ","ধামুইরহাট","ধামুইরহাট","৬৫৮০"
"6530","রাজশাহী","নওগাঁ","মহাদেবপুর","মহাদেবপুর","৬৫৩০"
"6500","রাজশাহী","নওগাঁ","নওগাঁ সদর","নওগাঁ সদর","৬৫০০"
"6520","রাজশাহী","নওগাঁ","নিয়ামতপুর","নিয়ামতপুর","৬৫২০"
"6550","রাজশাহী","নওগাঁ","নিতপুর","নিতপুর","৬৫৫০"
"6552","রাজশাহী","নওগাঁ","নিতপুর","পঙ্গুরিয়া","৬৫৫২"
"6551","রাজশাহী","নওগাঁ","নিতপুর","পরসা","৬৫৫১"
"6540","রাজশাহী","নওগাঁ","পত্নীতলা","পত্নীতলা","৬৫৪০"
"6512","রাজশাহী","নওগাঁ","প্রসাদপুর","বলিহারের","৬৫১২"
"6511","রাজশাহী","নওগাঁ","প্রসাদপুর","মান্দা","৬৫১১"
"6510","রাজশাহী","নওগাঁ","প্রসাদপুর","প্রসাদপুর","৬৫১০"
"6591","রাজশাহী","নওগাঁ","রানীনগর","কাশিমপুর","৬৫৯১"
"6590","রাজশাহী","নওগাঁ","রানীনগর","রানীনগর","৬৫৯০"
"6561","রাজশাহী","নওগাঁ","সাপাহার","মদুহিল","৬৫৬১"
"6560","রাজশাহী","নওগাঁ","সাপাহার","সাপাহার","৬৫৬০"
"6422","রাজশাহী","নাটোর","গোপালপুর Upo","আব্দুলপুর","৬৪২২"
"6420","রাজশাহী","নাটোর","গোপালপুর Upo","গোপালপুর U.P.O","৬৪২০"
"6421","রাজশাহী","নাটোর","গোপালপুর Upo","লালপুর S.O","৬৪২১"
"6432","রাজশাহী","নাটোর","হারুয়া","বড়াইগ্রামে","৬৪৩২"
"6431","রাজশাহী","নাটোর","হারুয়া","দয়ারামপুর","৬৪৩১"
"6430","রাজশাহী","নাটোর","হারুয়া","হারুয়া","৬৪৩০"
"6440","রাজশাহী","নাটোর","হাতগুরুদাসপুর","হাতগুরুদাসপুর","৬৪৪০"
"6410","রাজশাহী","নাটোর","লক্ষ্মণ","লক্ষ্মণ","৬৪১০"
"6402","রাজশাহী","নাটোর","নাটোর সদর","বাইদ্দ্যাবল ঘরিয়া","৬৪০২"
"6401","রাজশাহী","নাটোর","নাটোর সদর","দিঘাপাতিয়া","৬৪০১"
"6403","রাজশাহী","নাটোর","নাটোর সদর","মাধনগর","৬৪০৩"
"6400","রাজশাহী","নাটোর","নাটোর সদর","নাটোর সদর","৬৪০০"
"6450","রাজশাহী","নাটোর","সিংড়া","সিংড়া","৬৪৫০"
"6650","রাজশাহী","পাবনা","বানওয়ারীনগর","বানওয়ারীনগর","৬৬৫০"
"6680","রাজশাহী","পাবনা","বেড়া","বেড়া","৬৬৮০"
"6682","রাজশাহী","পাবনা","বেড়া","কাশিনাথপুর","৬৬৮২"
"6681","রাজশাহী","পাবনা","বেড়া","নাকালিয়া","৬৬৮১"
"6683","রাজশাহী","পাবনা","বেড়া","পুরান ভারেঙ্গা","৬৬৮৩"
"6640","রাজশাহী","পাবনা","ভাঙ্গুরা","ভাঙ্গুরা","৬৬৪০"
"6630","রাজশাহী","পাবনা","চাটমোহর","চাটমোহর","৬৬৩০"
"6610","রাজশাহী","পাবনা","দেবোত্তর","দেবোত্তর","৬৬১০"
"6621","রাজশাহী","পাবনা","ঈশ্বরদী","ধাপারী","৬৬২১"
"6620","রাজশাহী","পাবনা","ঈশ্বরদী","ঈশ্বরদী","৬৬২০"
"6622","রাজশাহী","পাবনা","ঈশ্বরদী","পাকশী","৬৬২২"
"6623","রাজশাহী","পাবনা","ঈশ্বরদী","রাজাপুর","৬৬২৩"
"6602","রাজশাহী","পাবনা","পাবনা সদর","হেমায়েতপুর","৬৬০২"
"6601","রাজশাহী","পাবনা","পাবনা সদর","কালিকো কটন মিলস","৬৬০১"
"6600","রাজশাহী","পাবনা","পাবনা সদর","পাবনা সদর","৬৬০০"
"6670","রাজশাহী","পাবনা","সাঁথিয়া","সাঁথিয়া","৬৬৭০"
"6661","রাজশাহী","পাবনা","সুজানগর","সাগরকান্দি","৬৬৬১"
"6660","রাজশাহী","পাবনা","সুজানগর","সুজানগর","৬৬৬০"
"6281","রাজশাহী","রাজশাহী","বাঘা","আড়ানী","৬২৮১"
"6280","রাজশাহী","রাজশাহী","বাঘা","বাঘা","৬২৮০"
"6250","রাজশাহী","রাজশাহী","ভবানীগঞ্জ","ভবানীগঞ্জ","৬২৫০"
"6251","রাজশাহী","রাজশাহী","ভবানীগঞ্জ","তাহারপুর","৬২৫১"
"6270","রাজশাহী","রাজশাহী","চারঘাট","চারঘাট","৬২৭০"
"6271","রাজশাহী","রাজশাহী","চারঘাট","সারদা","৬২৭১"
"6240","রাজশাহী","রাজশাহী","দুর্গাপুর","দুর্গাপুর","৬২৪০"
"6290","রাজশাহী","রাজশাহী","গোদাগাড়ী","গোদাগাড়ী","৬২৯০"
"6291","রাজশাহী","রাজশাহী","গোদাগাড়ী","প্রেমতলী","৬২৯১"
"6220","রাজশাহী","রাজশাহী","খোদমোহনপুর","খোদমোহনপুর","৬২২০"
"6210","রাজশাহী","রাজশাহী","লালিতগঞ্জ","লালিতগঞ্জ","৬২১০"
"6211","রাজশাহী","রাজশাহী","লালিতগঞ্জ","রাজশাহী চিনিকল","৬২১১"
"6212","রাজশাহী","রাজশাহী","লালিতগঞ্জ","শ্যামপুর","৬২১২"
"6260","রাজশাহী","রাজশাহী","পুঠিয়া","পুঠিয়া","৬২৬০"
"6206","রাজশাহী","রাজশাহী","রাজশাহী সদর","বিনোদপুর বাজার","৬২০৬"
"6100","রাজশাহী","রাজশাহী","রাজশাহী সদর","ঘুড়ামারা","৬১০০"
"6204","রাজশাহী","রাজশাহী","রাজশাহী সদর","কাজলা","৬২০৪"
"6202","রাজশাহী","রাজশাহী","রাজশাহী সদর","রাজশাহী সেনানিবাস","৬২০২"
"6201","রাজশাহী","রাজশাহী","রাজশাহী সদর","রাজশাহী কোর্ট","৬২০১"
"6000","রাজশাহী","রাজশাহী","রাজশাহী সদর","রাজশাহী সদর","৬০০০"
"6205","রাজশাহী","রাজশাহী","রাজশাহী সদর","রাজশাহী বিশ্ববিদ্যালয়","৬২০৫"
"6203","রাজশাহী","রাজশাহী","রাজশাহী সদর","সাপুরা","৬২০৩"
"6230","রাজশাহী","রাজশাহী","তানোরে","তানোরে","৬২৩০"
"6730","রাজশাহী","সিরাজগঞ্জ","বাইদ্দ্যা জ্যাম তৈল","বাইদ্দ্যা জ্যাম তৈল","৬৭৩০"
"6740","রাজশাহী","সিরাজগঞ্জ","বেলকুচি","বেলকুচি","৬৭৪০"
"6751","রাজশাহী","সিরাজগঞ্জ","বেলকুচি","এনায়েতপুর","৬৭৫১"
"6742","রাজশাহী","সিরাজগঞ্জ","বেলকুচি","রাজাপুর","৬৭৪২"
"6741","রাজশাহী","সিরাজগঞ্জ","বেলকুচি","সোহাগপুর","৬৭৪১"
"6752","রাজশাহী","সিরাজগঞ্জ","বেলকুচি","স্থল","৬৭৫২"
"6720","রাজশাহী","সিরাজগঞ্জ","ধানগড়া","ধানগড়া","৬৭২০"
"6721","রাজশাহী","সিরাজগঞ্জ","ধানগড়া","মালঙ্গা","৬৭২১"
"6712","রাজশাহী","সিরাজগঞ্জ","কাজীপুর","গান্ধাইল","৬৭১২"
"6710","রাজশাহী","সিরাজগঞ্জ","কাজীপুর","কাজীপুর","৬৭১০"
"6711","রাজশাহী","সিরাজগঞ্জ","কাজীপুর","শুভগাছা","৬৭১১"
"6772","রাজশাহী","সিরাজগঞ্জ","শাহজাদপুর","জামিরটা","৬৭৭২"
"6773","রাজশাহী","সিরাজগঞ্জ","শাহজাদপুর","কৈজুরী","৬৭৭৩"
"6771","রাজশাহী","সিরাজগঞ্জ","শাহজাদপুর","পরজানা","৬৭৭১"
"6770","রাজশাহী","সিরাজগঞ্জ","শাহজাদপুর","শাহজাদপুর","৬৭৭০"
"6701","রাজশাহী","সিরাজগঞ্জ","সিরাজগঞ্জ সদর","রায়পুর","৬৭০১"
"6702","রাজশাহী","সিরাজগঞ্জ","সিরাজগঞ্জ সদর","রাশিদাবাদ","৬৭০২"
"6700","রাজশাহী","সিরাজগঞ্জ","সিরাজগঞ্জ সদর","সিরাজগঞ্জ সদর","৬৭০০"
"6780","রাজশাহী","সিরাজগঞ্জ","তাড়াশ","তাড়াশ","৬৭৮০"
"6762","রাজশাহী","সিরাজগঞ্জ","উল্লাপাড়া","লাহিড়ী মোহনপুর","৬৭৬২"
"6763","রাজশাহী","সিরাজগঞ্জ","উল্লাপাড়া","সালাপ","৬৭৬৩"
"6760","রাজশাহী","সিরাজগঞ্জ","উল্লাপাড়া","উল্লাপাড়া","৬৭৬০"
"6761","রাজশাহী","সিরাজগঞ্জ","উল্লাপাড়া","উল্লাপাড়া R.S","৬৭৬১"
"8710","বরিশাল","বরগুনা","আমতলী","আমতলী","৮৭১০"
"8730","বরিশাল","বরগুনা","বামনা","বামনা","৮৭৩০"
"8700","বরিশাল","বরগুনা","বরগুনা সদর","বরগুনা সদর","৮৭০০"
"8701","বরিশাল","বরগুনা","বরগুনা সদর","নালি বন্দর","৮৭০১"
"8740","বরিশাল","বরগুনা","বেতাগী","বেতাগী","৮৭৪০"
"8741","বরিশাল","বরগুনা","বেতাগী","দারুল ঊলম","৮৭৪১"
"8721","বরিশাল","বরগুনা","পাথরঘাটা","কাকচিড়া","৮৭২১"
"8720","বরিশাল","বরগুনা","পাথরঘাটা","পাথরঘাটা","৮৭২০"
"8240","বরিশাল","বরিশাল","আগাইলঝড়া","আগাইলঝড়া","৮২৪০"
"8241","বরিশাল","বরিশাল","আগাইলঝড়া","গাইলা","৮২৪১"
"8242","বরিশাল","বরিশাল","আগাইলঝড়া","পয়সারহাট","৮২৪২"
"8210","বরিশাল","বরিশাল","বাবুগঞ্জ","বাবুগঞ্জ","৮২১০"
"8216","বরিশাল","বরিশাল","বাবুগঞ্জ","বরিশাল ক্যাডেট","৮২১৬"
"8212","বরিশাল","বরিশাল","বাবুগঞ্জ","চাঁদপাশা","৮২১২"
"8213","বরিশাল","বরিশাল","বাবুগঞ্জ","মাধবপাশা","৮২১৩"
"8215","বরিশাল","বরিশাল","বাবুগঞ্জ","নিজামউদ্দিন কলেজ","৮২১৫"
"8211","বরিশাল","বরিশাল","বাবুগঞ্জ","রহমতপুর","৮২১১"
"8214","বরিশাল","বরিশাল","বাবুগঞ্জ","ঠাকুর মল্লিক","৮২১৪"
"8260","বরিশাল","বরিশাল","বড়জালিয়া","বড়জালিয়া","৮২৬০"
"8261","বরিশাল","বরিশাল","বড়জালিয়া","ওসমান মঞ্জিল","৮২৬১"
"8200","বরিশাল","বরিশাল","বরিশাল সদর","বরিশাল সদর","৮২০০"
"8201","বরিশাল","বরিশাল","বরিশাল সদর","বুখায়নগর","৮২০১"
"8206","বরিশাল","বরিশাল","বরিশাল সদর","জাগুয়ারহাট","৮২০৬"
"8205","বরিশাল","বরিশাল","বরিশাল সদর","কাশীপুর","৮২০৫"
"8204","বরিশাল","বরিশাল","বরিশাল সদর","পাতাং","৮২০৪"
"8202","বরিশাল","বরিশাল","বরিশাল সদর","সাহেবেরহাট","৮২০২"
"8203","বরিশাল","বরিশাল","বরিশাল সদর","সুগন্দিয়া","৮২০৩"
"8233","বরিশাল","বরিশাল","গৌরনদী","বাটাজোর","৮২৩৩"
"8230","বরিশাল","বরিশাল","গৌরনদী","গৌরনদী","৮২৩০"
"8232","বরিশাল","বরিশাল","গৌরনদী","কাসেমাবাদ","৮২৩২"
"8231","বরিশাল","বরিশাল","গৌরনদী","তার্কি বন্দর","৮২৩১"
"8274","বরিশাল","বরিশাল","মেহেন্দিগঞ্জ","লেঙ্গুটিয়া","৮২৭৪"
"8271","বরিশাল","বরিশাল","মেহেন্দিগঞ্জ","লস্করপুর","৮২৭১"
"8270","বরিশাল","বরিশাল","মেহেন্দিগঞ্জ","মেহেন্দিগঞ্জ","৮২৭০"
"8273","বরিশাল","বরিশাল","মেহেন্দিগঞ্জ","নালগোরা","৮২৭৩"
"8272","বরিশাল","বরিশাল","মেহেন্দিগঞ্জ","উলানিয়া","৮২৭২"
"8252","বরিশাল","বরিশাল","মুলাদী","চরকালেখাঁ","৮২৫২"
"8251","বরিশাল","বরিশাল","মুলাদী","কাজিরচর","৮২৫১"
"8250","বরিশাল","বরিশাল","মুলাদী","মুলাদী","৮২৫০"
"8281","বরিশাল","বরিশাল","সাহেবগঞ্জ","চরামন্ডি","৮২৮১"
"8284","বরিশাল","বরিশাল","সাহেবগঞ্জ","কলসকাঠী","৮২৮৪"
"8282","বরিশাল","বরিশাল","সাহেবগঞ্জ","পাদ্রি শিবপুর","৮২৮২"
"8280","বরিশাল","বরিশাল","সাহেবগঞ্জ","সাহেবগঞ্জ","৮২৮০"
"8283","বরিশাল","বরিশাল","সাহেবগঞ্জ","শিয়ালগুনী","৮২৮৩"
"8223","বরিশাল","বরিশাল","উজিরপুর","ডাকুয়ারহাট","৮২২৩"
"8221","বরিশাল","বরিশাল","উজিরপুর","ধামুরা","৮২২১"
"8222","বরিশাল","বরিশাল","উজিরপুর","জুগিরকান্দা","৮২২২"
"8224","বরিশাল","বরিশাল","উজিরপুর","শিকারপুর","৮২২৪"
"8220","বরিশাল","বরিশাল","উজিরপুর","উজিরপুর","৮২২০"
"8300","বরিশাল","ভোলা","ভোলা সদর","ভোলা সদর","৮৩০০"
"8301","বরিশাল","ভোলা","ভোলা সদর","জয়নগর","৮৩০১"
"8320","বরিশাল","ভোলা","বোরহানউদ্দিন Upo","বোরহানউদ্দিন Upo","৮৩২০"
"8321","বরিশাল","ভোলা","বোরহানউদ্দিন Upo","Mirzakalu","৮৩২১"
"8340","বরিশাল","ভোলা","চরফ্যাশন","চরফ্যাশন","৮৩৪০"
"8341","বরিশাল","ভোলা","চরফ্যাশন","দুলারহাট","৮৩৪১"
"8342","বরিশাল","ভোলা","চরফ্যাশন","কেরামতগঞ্জ","৮৩৪২"
"8310","বরিশাল","ভোলা","দৌলতখান","দৌলতখান","৮৩১০"
"8311","বরিশাল","ভোলা","দৌলতখান","হাজীপুর","৮৩১১"
"8360","বরিশাল","ভোলা","হাজিরহাট","হাজিরহাট","৮৩৬০"
"8350","বরিশাল","ভোলা","হাটশশীগঞ্জ","হাটশশীগঞ্জ","৮৩৫০"
"8331","বরিশাল","ভোলা","লালমোহন Upo","দৌড়ীহাট","৮৩৩১"
"8332","বরিশাল","ভোলা","লালমোহন Upo","গজারিয়া","৮৩৩২"
"8330","বরিশাল","ভোলা","লালমোহন Upo","লালমোহন Upo","৮৩৩০"
"8402","বরিশাল","ঝালকাঠি","ঝালকাঠি সদর","বাউকাঠি","৮৪০২"
"8403","বরিশাল","ঝালকাঠি","ঝালকাঠি সদর","গাভা","৮৪০৩"
"8400","বরিশাল","ঝালকাঠি","ঝালকাঠি সদর","ঝালকাঠি সদর","৮৪০০"
"8401","বরিশাল","ঝালকাঠি","ঝালকাঠি সদর","নবগ্রাম","৮৪০১"
"8404","বরিশাল","ঝালকাঠি","ঝালকাঠি সদর","শেখেরহাট","৮৪০৪"
"8431","বরিশাল","ঝালকাঠি","কাঁঠালিয়া","আমুয়া","৮৪৩১"
"8430","বরিশাল","ঝালকাঠি","কাঁঠালিয়া","কাঁঠালিয়া","৮৪৩০"
"8432","বরিশাল","ঝালকাঠি","কাঁঠালিয়া","নিয়ামাতেই","৮৪৩২"
"8433","বরিশাল","ঝালকাঠি","কাঁঠালিয়া","শৌলজালিয়া","৮৪৩৩"
"8421","বরিশাল","ঝালকাঠি","নলছিটি","বীরকাঠি","৮৪২১"
"8420","বরিশাল","ঝালকাঠি","নলছিটি","নলছিটি","৮৪২০"
"8410","বরিশাল","ঝালকাঠি","রাজাপুর","রাজাপুর","৮৪১০"
"8621","বরিশাল","পটুয়াখালী","বাউফল","বাগাবন্দর","৮৬২১"
"8620","বরিশাল","পটুয়াখালী","বাউফল","বাউফল","৮৬২০"
"8622","বরিশাল","পটুয়াখালী","বাউফল","বীরপাশা","৮৬২২"
"8624","বরিশাল","পটুয়াখালী","বাউফল","কালাইয়া","৮৬২৪"
"8623","বরিশাল","পটুয়াখালী","বাউফল","কালীশুরী","৮৬২৩"
"8630","বরিশাল","পটুয়াখালী","দশমিনা","দশমিনা","৮৬৩০"
"8640","বরিশাল","পটুয়াখালী","গলাচিপা","গলাচিপা","৮৬৪০"
"8641","বরিশাল","পটুয়াখালী","গলাচিপা","গাজীপুর বন্দর","৮৬৪১"
"8650","বরিশাল","পটুয়াখালী","খেপুপাড়া","খেপুপাড়া","৮৬৫০"
"8651","বরিশাল","পটুয়াখালী","খেপুপাড়া","মহীপুর","৮৬৫১"
"8602","বরিশাল","পটুয়াখালী","পটুয়াখালী সদর","দুমকী","৮৬০২"
"8601","বরিশাল","পটুয়াখালী","পটুয়াখালী সদর","মৌকরণ","৮৬০১"
"8600","বরিশাল","পটুয়াখালী","পটুয়াখালী সদর","পটুয়াখালী সদর","৮৬০০"
"8603","বরিশাল","পটুয়াখালী","পটুয়াখালী সদর","রহিমাবাদ","৮৬০৩"
"8610","বরিশাল","পটুয়াখালী","সুবিদখালী","সুবিদখালী","৮৬১০"
"8530","বরিশাল","পিরোজপুর","বানারীপাড়া","বানারীপাড়া","৮৫৩০"
"8531","বরিশাল","পিরোজপুর","বানারীপাড়া","চাখার","৮৫৩১"
"8550","বরিশাল","পিরোজপুর","ভান্ডারিয়া","ভান্ডারিয়া","৮৫৫০"
"8552","বরিশাল","পিরোজপুর","ভান্ডারিয়া","ধাওয়া","৮৫৫২"
"8551","বরিশাল","পিরোজপুর","ভান্ডারিয়া","কানুদাসকাঠি","৮৫৫১"
"8513","বরিশাল","পিরোজপুর","কাউখালী","জোলাগাতি","৮৫১৩"
"8512","বরিশাল","পিরোজপুর","কাউখালী","জয়কুল","৮৫১২"
"8510","বরিশাল","পিরোজপুর","কাউখালী","কাউখালী","৮৫১০"
"8511","বরিশাল","পিরোজপুর","কাউখালী","কেউন্দিয়া","৮৫১১"
"8565","বরিশাল","পিরোজপুর","মঠবাড়িয়া","বেতমোর নতুন হাট","৮৫৬৫"
"8563","বরিশাল","পিরোজপুর","মঠবাড়িয়া","গুলিশাখালী","৮৫৬৩"
"8562","বরিশাল","পিরোজপুর","মঠবাড়িয়া","হাল্টা","৮৫৬২"
"8560","বরিশাল","পিরোজপুর","মঠবাড়িয়া","মঠবাড়িয়া","৮৫৬০"
"8566","বরিশাল","পিরোজপুর","মঠবাড়িয়া","শিলারগঞ্জ","৮৫৬৬"
"8564","বরিশাল","পিরোজপুর","মঠবাড়িয়া","টিয়ারখালী","৮৫৬৪"
"8561","বরিশাল","পিরোজপুর","মঠবাড়িয়া","তুষখালি","৮৫৬১"
"8540","বরিশাল","পিরোজপুর","নাজিরপুর","নাজিরপুর","৮৫৪০"
"8541","বরিশাল","পিরোজপুর","নাজিরপুর","শ্রীরামকাঠি","৮৫৪১"
"8501","বরিশাল","পিরোজপুর","পিরোজপুর সদর","হুলারহাট","৮৫০১"
"8502","বরিশাল","পিরোজপুর","পিরোজপুর সদর","পারেরহাট","৮৫০২"
"8500","বরিশাল","পিরোজপুর","পিরোজপুর সদর","পিরোজপুর সদর","৮৫০০"
"8521","বরিশাল","পিরোজপুর","স্বরূপকাঠি","দারুস সুন্নাত","৮৫২১"
"8523","বরিশাল","পিরোজপুর","স্বরূপকাঠি","জালাবাড়ি","৮৫২৩"
"8522","বরিশাল","পিরোজপুর","স্বরূপকাঠি","কৌরিখাড়া","৮৫২২"
"8520","বরিশাল","পিরোজপুর","স্বরূপকাঠি","স্বরূপকাঠি","৮৫২০"
"9300","খুলনা","বাগেরহাটের","বাগেরহাট সদর","বাগেরহাট সদর","৯৩০০"
"9301","খুলনা","বাগেরহাটের","বাগেরহাট সদর","P.C কলেজ","৯৩০১"
"9302","খুলনা","বাগেরহাটের","বাগেরহাট সদর","Rangdia","৯৩০২"
"9350","খুলনা","বাগেরহাটের","চালনা Ankorage","চালনা Ankorage","৯৩৫০"
"9351","খুলনা","বাগেরহাটের","চালনা Ankorage","মংলা বন্দর","৯৩৫১"
"9361","খুলনা","বাগেরহাটের","চিতলমারী","বড়বাডি়য়া","৯৩৬১"
"9360","খুলনা","বাগেরহাটের","চিতলমারী","চিতলমারী","৯৩৬০"
"9372","খুলনা","বাগেরহাটের","ফকিরহাট","Bhanganpar বাজার","৯৩৭২"
"9370","খুলনা","বাগেরহাটের","ফকিরহাট","ফকিরহাট","৯৩৭০"
"9371","খুলনা","বাগেরহাটের","ফকিরহাট","মানসা","৯৩৭১"
"9310","খুলনা","বাগেরহাটের","কচুয়া Upo","কচুয়া","৯৩১০"
"9311","খুলনা","বাগেরহাটের","কচুয়া Upo","Sonarkola","৯৩১১"
"9383","খুলনা","বাগেরহাটের","মোল্লাহাট","Charkulia","৯৩৮৩"
"9382","খুলনা","বাগেরহাটের","মোল্লাহাট","Dariala","৯৩৮২"
"9381","খুলনা","বাগেরহাটের","মোল্লাহাট","Kahalpur","৯৩৮১"
"9380","খুলনা","বাগেরহাটের","মোল্লাহাট","মোল্লাহাট","৯৩৮০"
"9384","খুলনা","বাগেরহাটের","মোল্লাহাট","Nagarkandi","৯৩৮৪"
"9385","খুলনা","বাগেরহাটের","মোল্লাহাট","পাক গাংনী","৯৩৮৫"
"9320","খুলনা","বাগেরহাটের","মোরেলগঞ্জের","মোরেলগঞ্জের","৯৩২০"
"9321","খুলনা","বাগেরহাটের","মোরেলগঞ্জের","সন্ন্যাসী বাজার","৯৩২১"
"9322","খুলনা","বাগেরহাটের","মোরেলগঞ্জের","Telisatee","৯৩২২"
"9341","খুলনা","বাগেরহাটের","রামপাল","Foylahat","৯৩৪১"
"9343","খুলনা","বাগেরহাটের","রামপাল","Gourambha","৯৩৪৩"
"9340","খুলনা","বাগেরহাটের","রামপাল","রামপাল","৯৩৪০"
"9342","খুলনা","বাগেরহাটের","রামপাল","Sonatunia","৯৩৪২"
"9330","খুলনা","বাগেরহাটের","Rayenda","Rayenda","৯৩৩০"
"7210","রাজশাহী","চুয়াডাঙ্গা","আলমডাঙ্গা","আলমডাঙ্গা","৭২১০"
"7211","রাজশাহী","চুয়াডাঙ্গা","আলমডাঙ্গা","Hardi","৭২১১"
"7200","রাজশাহী","চুয়াডাঙ্গা","চুয়াডাঙ্গা সদর","চুয়াডাঙ্গা সদর","৭২০০"
"7201","রাজশাহী","চুয়াডাঙ্গা","চুয়াডাঙ্গা সদর","মুন্সিগঞ্জ","৭২০১"
"7222","রাজশাহী","চুয়াডাঙ্গা","দামুড়হুদা","Andulbaria","৭২২২"
"7220","রাজশাহী","চুয়াডাঙ্গা","দামুড়হুদা","দামুড়হুদা","৭২২০"
"7221","রাজশাহী","চুয়াডাঙ্গা","দামুড়হুদা","দর্শনা","৭২২১"
"7230","রাজশাহী","চুয়াডাঙ্গা","Doulatganj","Doulatganj","৭২৩০"
"7470","রাজশাহী","যশোর","বাঘারপাড়া","বাঘারপাড়া","৭৪৭০"
"7471","রাজশাহী","যশোর","বাঘারপাড়া","Gouranagar","৭৪৭১"
"7410","রাজশাহী","যশোর","চৌগাছা","চৌগাছা","৭৪১০"
"7406","রাজশাহী","যশোর","যশোর সদর","বসুন্দিয়া","৭৪০৬"
"7402","রাজশাহী","যশোর","যশোর সদর","নগরী Chanchra","৭৪০২"
"7407","রাজশাহী","যশোর","যশোর সদর","Churamankathi","৭৪০৭"
"7404","রাজশাহী","যশোর","যশোর সদর","যশোর Airbach","৭৪০৪"
"7403","রাজশাহী","যশোর","যশোর সদর","যশোর canttonment","৭৪০৩"
"7400","রাজশাহী","যশোর","যশোর সদর","যশোর সদর","৭৪০০"
"7401","রাজশাহী","যশোর","যশোর সদর","যশোর ইউপিএ-সাহারের","৭৪০১"
"7405","রাজশাহী","যশোর","যশোর সদর","Rupdia","৭৪০৫"
"7420","রাজশাহী","যশোর","ঝিকরগাছা","ঝিকরগাছা","৭৪২০"
"7450","রাজশাহী","যশোর","কেশবপুর","কেশবপুর","৭৪৫০"
"7440","রাজশাহী","যশোর","মনিরামপুর","মনিরামপুর","৭৪৪০"
"7462","রাজশাহী","যশোর","নোয়াপাড়া","Bhugilhat","৭৪৬২"
"7460","রাজশাহী","যশোর","নোয়াপাড়া","নোয়াপাড়া","৭৪৬০"
"7461","রাজশাহী","যশোর","নোয়াপাড়া","রাজঘাট","৭৪৬১"
"7433","রাজশাহী","যশোর","শর্শা","ব্যাগ Achra","৭৪৩৩"
"7431","রাজশাহী","যশোর","শর্শা","বেনাপোল","৭৪৩১"
"7432","রাজশাহী","যশোর","শর্শা","Jadabpur","৭৪৩২"
"7430","রাজশাহী","যশোর","শর্শা","শর্শা","৭৪৩০"
"7310","রাজশাহী","ঝিনাইদহ","হরিনাকুন্ডু","হরিনাকুন্ডু","৭৩১০"
"7301","রাজশাহী","ঝিনাইদহ","ঝিনাইদহ সদর","ঝিনাইদহ ক্যাডেট কলেজ","৭৩০১"
"7300","রাজশাহী","ঝিনাইদহ","ঝিনাইদহ সদর","ঝিনাইদহ সদর","৭৩০০"
"7330","রাজশাহী","ঝিনাইদহ","কোটচাঁদপুর","কোটচাঁদপুর","৭৩৩০"
"7340","রাজশাহী","ঝিনাইদহ","মহেশপুর","মহেশপুর","৭৩৪০"
"7351","রাজশাহী","ঝিনাইদহ","নলডাঙ্গা","হাট বারোবাজার","৭৩৫১"
"7350","রাজশাহী","ঝিনাইদহ","নলডাঙ্গা","নলডাঙ্গা","৭৩৫০"
"7321","রাজশাহী","ঝিনাইদহ","শৈলকুপা","Kumiradaha","৭৩২১"
"7320","রাজশাহী","ঝিনাইদহ","শৈলকুপা","শৈলকুপা","৭৩২০"
"9240","খুলনা","খুলনা","আলাইপুর","আলাইপুর","৯২৪০"
"9242","খুলনা","খুলনা","আলাইপুর","Belphulia","৯২৪২"
"9241","খুলনা","খুলনা","আলাইপুর","রূপসা","৯২৪১"
"9260","খুলনা","খুলনা","Batiaghat","Batiaghat","৯২৬০"
"9261","খুলনা","খুলনা","Batiaghat","Surkalee","৯২৬১"
"9272","খুলনা","খুলনা","চালনা বাজার","Bajua","৯২৭২"
"9270","খুলনা","খুলনা","চালনা বাজার","চালনা বাজার","৯২৭০"
"9271","খুলনা","খুলনা","চালনা বাজার","Dakup","৯২৭১"
"9273","খুলনা","খুলনা","চালনা বাজার","Nalian","৯২৭৩"
"9221","খুলনা","খুলনা","Digalia","চাঁদনি মহল","৯২২১"
"9220","খুলনা","খুলনা","Digalia","Digalia","৯২২০"
"9224","খুলনা","খুলনা","Digalia","Gazirhat","৯২২৪"
"9223","খুলনা","খুলনা","Digalia","Ghoshghati","৯২২৩"
"9222","খুলনা","খুলনা","Digalia","Senhati","৯২২২"
"9207","খুলনা","খুলনা","খুলনা সদর","Atra শিল্পা ফোন","৯২০৭"
"9203","খুলনা","খুলনা","খুলনা সদর","বিআইটি খুলনা","৯২০৩"
"9202","খুলনা","খুলনা","খুলনা সদর","দৌলতপুর","৯২০২"
"9205","খুলনা","খুলনা","খুলনা সদর","জাহানাবাদ Canttonmen","৯২০৫"
"9100","খুলনা","খুলনা","খুলনা সদর","Khula সদর","৯১০০"
"9000","খুলনা","খুলনা","খুলনা সদর","খুলনা G.P.O","৯০০০"
"9201","খুলনা","খুলনা","খুলনা সদর","খুলনা শিপইয়ার্ড","৯২০১"
"9208","খুলনা","খুলনা","খুলনা সদর","খুলনা বিশ্ববিদ্যালয়ের","৯২০৮"
"9204","খুলনা","খুলনা","খুলনা সদর","Siramani","৯২০৪"
"9206","খুলনা","খুলনা","খুলনা সদর","সোনালী জুট মিলস","৯২০৬"
"9291","খুলনা","খুলনা","Madinabad","Amadee","৯২৯১"
"9290","খুলনা","খুলনা","Madinabad","Madinabad","৯২৯০"
"9284","খুলনা","খুলনা","পাইকগাছা","Chandkhali","৯২৮৪"
"9285","খুলনা","খুলনা","পাইকগাছা","Garaikhali","৯২৮৫"
"9281","খুলনা","খুলনা","পাইকগাছা","Godaipur","৯২৮১"
"9282","খুলনা","খুলনা","পাইকগাছা","Kapilmoni","৯২৮২"
"9283","খুলনা","খুলনা","পাইকগাছা","Katipara","৯২৮৩"
"9280","খুলনা","খুলনা","পাইকগাছা","পাইকগাছা","৯২৮০"
"9210","খুলনা","খুলনা","ফুলতলা","ফুলতলা","৯২১০"
"9252","খুলনা","খুলনা","সাজিয়ারা","চুকনগর","৯২৫২"
"9251","খুলনা","খুলনা","সাজিয়ারা","Ghonabanda","৯২৫১"
"9250","খুলনা","খুলনা","সাজিয়ারা","সাজিয়ারা","৯২৫০"
"9253","খুলনা","খুলনা","সাজিয়ারা","শাহাপুর","৯২৫৩"
"9231","খুলনা","খুলনা","Terakhada","পাক বারাসত","৯২৩১"
"9230","খুলনা","খুলনা","Terakhada","Terakhada","৯২৩০"
"7042","রাজশাহী","কুষ্টিয়া","ভেড়ামারা","Allardarga","৭০৪২"
"7040","রাজশাহী","কুষ্টিয়া","ভেড়ামারা","ভেড়ামারা","৭০৪০"
"7041","রাজশাহী","কুষ্টিয়া","ভেড়ামারা","গঙ্গা ভেড়ামারা","৭০৪১"
"7020","রাজশাহী","কুষ্টিয়া","Janipur","Janipur","৭০২০"
"7021","রাজশাহী","কুষ্টিয়া","Janipur","খোকসা","৭০২১"
"7010","রাজশাহী","কুষ্টিয়া","কুমারখালী","কুমারখালী","৭০১০"
"7011","রাজশাহী","কুষ্টিয়া","কুমারখালী","পান্টি","৭০১১"
"7003","রাজশাহী","কুষ্টিয়া","কুষ্টিয়া সদর","ইসলামী বিশ্ববিদ্যালয়","৭০০৩"
"7002","রাজশাহী","কুষ্টিয়া","কুষ্টিয়া সদর","Jagati","৭০০২"
"7001","রাজশাহী","কুষ্টিয়া","কুষ্টিয়া সদর","কুষ্টিয়া মোহিনী","৭০০১"
"7000","রাজশাহী","কুষ্টিয়া","কুষ্টিয়া সদর","কুষ্টিয়া সদর","৭০০০"
"7032","রাজশাহী","কুষ্টিয়া","মিরপুর","আমলা সদরপুর","৭০৩২"
"7030","রাজশাহী","কুষ্টিয়া","মিরপুর","মিরপুর","৭০৩০"
"7031","রাজশাহী","কুষ্টিয়া","মিরপুর","Poradaha","৭০৩১"
"7052","রাজশাহী","কুষ্টিয়া","রাফায়েতপুর","Khasmathurapur","৭০৫২"
"7050","রাজশাহী","কুষ্টিয়া","রাফায়েতপুর","রাফায়েতপুর","৭০৫০"
"7051","রাজশাহী","কুষ্টিয়া","রাফায়েতপুর","Taragunia","৭০৫১"
"7620","রাজশাহী","মাগুরা","আড়পাড়া","আড়পাড়া","৭৬২০"
"7600","রাজশাহী","মাগুরা","মাগুরা সদর","মাগুরা সদর","৭৬০০"
"7631","রাজশাহী","মাগুরা","মোহাম্মদপুর","বিনোদপুর","৭৬৩১"
"7630","রাজশাহী","মাগুরা","মোহাম্মদপুর","মোহাম্মদপুর","৭৬৩০"
"7632","রাজশাহী","মাগুরা","মোহাম্মদপুর","Nahata","৭৬৩২"
"7611","রাজশাহী","মাগুরা","শ্রীপুর","Langalbadh","৭৬১১"
"7612","রাজশাহী","মাগুরা","শ্রীপুর","Nachol","৭৬১২"
"7610","রাজশাহী","মাগুরা","শ্রীপুর","শ্রীপুর","৭৬১০"
"7110","রাজশাহী","মেহেরপুর","গাংনী","গাংনী","৭১১০"
"7101","রাজশাহী","মেহেরপুর","মেহেরপুর সদর","Amjhupi","৭১০১"
"7152","রাজশাহী","মেহেরপুর","মেহেরপুর সদর","Amjhupi","৭১৫২"
"7100","রাজশাহী","মেহেরপুর","মেহেরপুর সদর","মেহেরপুর সদর","৭১০০"
"7102","রাজশাহী","মেহেরপুর","মেহেরপুর সদর","মুজিব নগর কমপ্লেক্স","৭১০২"
"7520","রাজশাহী","নড়াইল","কালিয়া","কালিয়া","৭৫২০"
"7514","রাজশাহী","নড়াইল","লক্ষ্মীপাশা","Baradia","৭৫১৪"
"7512","রাজশাহী","নড়াইল","লক্ষ্মীপাশা","ইটনা","৭৫১২"
"7510","রাজশাহী","নড়াইল","লক্ষ্মীপাশা","লক্ষ্মীপাশা","৭৫১০"
"7511","রাজশাহী","নড়াইল","লক্ষ্মীপাশা","লোহাগড়া","৭৫১১"
"7513","রাজশাহী","নড়াইল","লক্ষ্মীপাশা","Naldi","৭৫১৩"
"7521","রাজশাহী","নড়াইল","Mohajan","Mohajan","৭৫২১"
"7500","রাজশাহী","নড়াইল","নড়াইল সদর","নড়াইল সদর","৭৫০০"
"7501","রাজশাহী","নড়াইল","নড়াইল সদর","Ratanganj","৭৫০১"
"9460","খুলনা","সাতক্ষীরা","আশাশুনির","আশাশুনির","৯৪৬০"
"9461","খুলনা","সাতক্ষীরা","আশাশুনির","বড়দল","৯৪৬১"
"9430","খুলনা","সাতক্ষীরা","Debbhata","Debbhata","৯৪৩০"
"9431","খুলনা","সাতক্ষীরা","Debbhata","Gurugram","৯৪৩১"
"9415","খুলনা","সাতক্ষীরা","কলারোয়া","Chandanpur","৯৪১৫"
"9413","খুলনা","সাতক্ষীরা","কলারোয়া","Hamidpur","৯৪১৩"
"9412","খুলনা","সাতক্ষীরা","কলারোয়া","ঝাউডাঙ্গা","৯৪১২"
"9410","খুলনা","সাতক্ষীরা","কলারোয়া","কলারোয়া","৯৪১০"
"9414","খুলনা","সাতক্ষীরা","কলারোয়া","Khordo","৯৪১৪"
"9440","খুলনা","সাতক্ষীরা","কালীগঞ্জ Upo","কালীগঞ্জ Upo","৯৪৪০"
"9441","খুলনা","সাতক্ষীরা","কালীগঞ্জ Upo","নলতা Mubaroknagar","৯৪৪১"
"9442","খুলনা","সাতক্ষীরা","কালীগঞ্জ Upo","রতনপুর","৯৪৪২"
"9453","খুলনা","সাতক্ষীরা","নকিপুর","বুড়ি Goalini","৯৪৫৩"
"9454","খুলনা","সাতক্ষীরা","নকিপুর","গাবুরা","৯৪৫৪"
"9455","খুলনা","সাতক্ষীরা","নকিপুর","Habinagar","৯৪৫৫"
"9450","খুলনা","সাতক্ষীরা","নকিপুর","নকিপুর","৯৪৫০"
"9452","খুলনা","সাতক্ষীরা","নকিপুর","Naobeki","৯৪৫২"
"9451","খুলনা","সাতক্ষীরা","নকিপুর","Noornagar","৯৪৫১"
"9403","খুলনা","সাতক্ষীরা","সাতক্ষীরা সদর","Budhhat","৯৪০৩"
"9402","খুলনা","সাতক্ষীরা","সাতক্ষীরা সদর","Gunakar Kati","৯৪০২"
"9401","খুলনা","সাতক্ষীরা","সাতক্ষীরা সদর","সাতক্ষীরা ইসলামিয়া Acc","৯৪০১"
"9400","খুলনা","সাতক্ষীরা","সাতক্ষীরা সদর","সাতক্ষীরা সদর","৯৪০০"
"9421","খুলনা","সাতক্ষীরা","তালা","পাটকেলঘাটা","৯৪২১"
"9420","খুলনা","পঞ্চগড়","ছোট্ট ডাবের","ছোট্ট ডাবের","৯৪২০"
"1360","ঢাকা","ঢাকা","ডেমরা","ডেমরা","১৩৬০"
"1362","ঢাকা","ঢাকা","ডেমরা","মাতুয়াইল","১৩৬২"
"1361","ঢাকা","ঢাকা","ডেমরা","সারুলিয়া","১৩৬১"
"1351","ঢাকা","ঢাকা","ধামরাই","কমলপুর","১৩৫১"
"1232","ঢাকা","ঢাকা","যাত্রাবাড়ি","ধনিয়া TSO","১২৩২"
"1330","ঢাকা","ঢাকা","জয়পাড়া","জয়পাড়া","১৩৩০"
"2031","ময়মনসিংহ","জামালপুর","দেওয়ানগঞ্জ","দেওয়ানগঞ্জ এস মিলস","২০৩১"
"4600","চট্টগ্রাম","বান্দরবান","বান্দরবান সদর","বান্দরবান সদর","৪৬০০"
"9411","খুলনা","সাতক্ষীরা","কলারোয়া","মুরারীকাঠী","৯৪১১"
"5610","রংপুর","কুড়িগ্রাম","রাজারহাট","রাজারহাট","৫৬১০"
"5040","রংপুর","পঞ্চগড়","ছোট্ট ডাবের","ছোট্ট ডাবের","৫০৪০"
