{
  "3700": {
    "bn": {
      "division": "চট্টগ্রাম",
      "district": "লক্ষ্মীপুর",
      "thana": "লক্ষ্মীপুর সদর",
      "suboffice": "লক্ষ্মীপুর সদর",
      "postcode": "৩৭০০"
    },
    "en": {
      "division": "Chittagong",
      "district": "Lakshmipur",
      "thana": "Lakshimpur Sadar",
      "suboffice": "Lakshimpur Sadar",
      "postcode": 3700
    }
  },
  "3701": {
    "bn": {
      "division": "চট্টগ্রাম",
      "district": "লক্ষ্মীপুর",
      "thana": "লক্ষ্মীপুর সদর",
      "suboffice": "দালাল বাজার",
      "postcode": "৩৭০১"
    },
    "en": {
      "division": "Chittagong",
      "district": "Lakshmipur",
      "thana": "Lakshimpur Sadar",
      "suboffice": "Dalal Bazar",
      "postcode": 3701
    }
  },
  "3702": {
    "bn": {
      "division": "চট্টগ্রাম",
      "district": "লক্ষ্মীপুর",
      "thana": "লক্ষ্মীপুর সদর",
      "suboffice": "ভবানীগঞ্জ",
      "postcode": "৩৭০২"
    },
    "en": {
      "division": "Chittagong",
      "district": "Lakshmipur",
      "thana": "Lakshimpur Sadar",
      "suboffice": "Bhabaniganj",
      "postcode": 3702
    }
  },
  "3703": {
    "bn": {
      "division": "চট্টগ্রাম",
      "district": "লক্ষ্মীপুর",
      "thana": "লক্ষ্মীপুর সদর",
      "suboffice": "মান্দারী",
      "postcode": "৩৭০৩"
    },
    "en": {
      "division": "Chittagong",
      "district": "Lakshmipur",
      "thana": "Lakshimpur Sadar",
      "suboffice": "Mandari",
      "postcode": 3703
    }
  },
  "3704": {
    "bn": {
      "division": "চট্টগ্রাম",
      "district": "লক্ষ্মীপুর",
      "thana": "লক্ষ্মীপুর সদর",
      "suboffice": "কেরামতগঞ্জ",
      "postcode": "৩৭০৪"
    },
    "en": {
      "division": "Chittagong",
      "district": "Lakshmipur",
      "thana": "Lakshimpur Sadar",
      "suboffice": "Keramatganj",
      "postcode": 3704
    }
  },
  "3705": {
    "bn": {
      "division": "চট্টগ্রাম",
      "district": "লক্ষ্মীপুর",
      "thana": "লক্ষ্মীপুর সদর",
      "suboffice": "রুপছড়া",
      "postcode": "৩৭০৫"
    },
    "en": {
      "division": "Chittagong",
      "district": "Lakshmipur",
      "thana": "Lakshimpur Sadar",
      "suboffice": "Rupchara",
      "postcode": 3705
    }
  },
  "3706": {
    "bn": {
      "division": "চট্টগ্রাম",
      "district": "লক্ষ্মীপুর",
      "thana": "লক্ষ্মীপুর সদর",
      "suboffice": "দত্তপাড়া",
      "postcode": "৩৭০৬"
    },
    "en": {
      "division": "Chittagong",
      "district": "Lakshmipur",
      "thana": "Lakshimpur Sadar",
      "suboffice": "Duttapara",
      "postcode": 3706
    }
  },
  "3707": {
    "bn": {
      "division": "চট্টগ্রাম",
      "district": "লক্ষ্মীপুর",
      "thana": "লক্ষ্মীপুর সদর",
      "suboffice": "চৌপল্লী",
      "postcode": "৩৭০৭"
    },
    "en": {
      "division": "Chittagong",
      "district": "Lakshmipur",
      "thana": "Lakshimpur Sadar",
      "suboffice": "Choupalli",
      "postcode": 3707
    }
  },
  "3708": {
    "bn": {
      "division": "চট্টগ্রাম",
      "district": "লক্ষ্মীপুর",
      "thana": "লক্ষ্মীপুর সদর",
      "suboffice": "চন্দ্রগঞ্জ",
      "postcode": "৩৭০৮"
    },
    "en": {
      "division": "Chittagong",
      "district": "Lakshmipur",
      "thana": "Lakshimpur Sadar",
      "suboffice": "Chandraganj",
      "postcode": 3708
    }
  },
  "3709": {
    "bn": {
      "division": "চট্টগ্রাম",
      "district": "লক্ষ্মীপুর",
      "thana": "লক্ষ্মীপুর সদর",
      "suboffice": "আমানি থেকে লক্ষ্মীপুর",
      "postcode": "৩৭০৯"
    },
    "en": {
      "division": "Chittagong",
      "district": "Lakshmipur",
      "thana": "Lakshimpur Sadar",
      "suboffice": "Amani Lakshimpur",
      "postcode": 3709
    }
  },
  "3710": {
    "bn": {
      "division": "চট্টগ্রাম",
      "district": "লক্ষ্মীপুর",
      "thana": "রায়পুর",
      "suboffice": "রায়পুর",
      "postcode": "৩৭১০"
    },
    "en": {
      "division": "Chittagong",
      "district": "Lakshmipur",
      "thana": "Raypur",
      "suboffice": "Raipur",
      "postcode": 3710
    }
  },
  "3711": {
    "bn": {
      "division": "চট্টগ্রাম",
      "district": "লক্ষ্মীপুর",
      "thana": "রায়পুর",
      "suboffice": "রাখালিয়া",
      "postcode": "৩৭১১"
    },
    "en": {
      "division": "Chittagong",
      "district": "Lakshmipur",
      "thana": "Raypur",
      "suboffice": "Rakhallia",
      "postcode": 3711
    }
  },
  "3712": {
    "bn": {
      "division": "চট্টগ্রাম",
      "district": "লক্ষ্মীপুর",
      "thana": "রায়পুর",
      "suboffice": "নাগের দিঘীরপাড়",
      "postcode": "৩৭১২"
    },
    "en": {
      "division": "Chittagong",
      "district": "Lakshmipur",
      "thana": "Raypur",
      "suboffice": "Nagerdighirpar",
      "postcode": 3712
    }
  },
  "3713": {
    "bn": {
      "division": "চট্টগ্রাম",
      "district": "লক্ষ্মীপুর",
      "thana": "রায়পুর",
      "suboffice": "হায়দারগঞ্জ",
      "postcode": "৩৭১৩"
    },
    "en": {
      "division": "Chittagong",
      "district": "Lakshmipur",
      "thana": "Raypur",
      "suboffice": "Khaser Hat",
      "postcode": 3713
    }
  },
  "3714": {
    "bn": {
      "division": "চট্টগ্রাম",
      "district": "লক্ষ্মীপুর",
      "thana": "রায়পুর",
      "suboffice": "ভুয়াবাড়ি",
      "postcode": "৩৭১৪"
    },
    "en": {
      "division": "Chittagong",
      "district": "Lakshmipur",
      "thana": "Raypur",
      "suboffice": "Bhuiyanbari",
      "postcode": 3714
    }
  },
  "3720": {
    "bn": {
      "division": "চট্টগ্রাম",
      "district": "লক্ষ্মীপুর",
      "thana": "রামগঞ্জ",
      "suboffice": "রামগঞ্জ",
      "postcode": "৩৭২০"
    },
    "en": {
      "division": "Chittagong",
      "district": "Lakshmipur",
      "thana": "Ramganj",
      "suboffice": "Ramganj",
      "postcode": 3720
    }
  },
  "3721": {
    "bn": {
      "division": "চট্টগ্রাম",
      "district": "লক্ষ্মীপুর",
      "thana": "রামগঞ্জ",
      "suboffice": "আলীপুর",
      "postcode": "৩৭২১"
    },
    "en": {
      "division": "Chittagong",
      "district": "Lakshmipur",
      "thana": "Ramganj",
      "suboffice": "Alipur",
      "postcode": 3721
    }
  },
  "3722": {
    "bn": {
      "division": "চট্টগ্রাম",
      "district": "লক্ষ্মীপুর",
      "thana": "রামগঞ্জ",
      "suboffice": "পানপাড়া",
      "postcode": "৩৭২২"
    },
    "en": {
      "division": "Chittagong",
      "district": "Lakshmipur",
      "thana": "Ramganj",
      "suboffice": "Panpara",
      "postcode": 3722
    }
  },
  "3723": {
    "bn": {
      "division": "চট্টগ্রাম",
      "district": "লক্ষ্মীপুর",
      "thana": "রামগঞ্জ",
      "suboffice": "কাঞ্চনপুর",
      "postcode": "৩৭২৩"
    },
    "en": {
      "division": "Chittagong",
      "district": "Lakshmipur",
      "thana": "Ramganj",
      "suboffice": "Kanchanpur",
      "postcode": 3723
    }
  },
  "3724": {
    "bn": {
      "division": "চট্টগ্রাম",
      "district": "লক্ষ্মীপুর",
      "thana": "রামগঞ্জ",
      "suboffice": "নাগমুদ",
      "postcode": "৩৭২৪"
    },
    "en": {
      "division": "Chittagong",
      "district": "Lakshmipur",
      "thana": "Ramganj",
      "suboffice": "Naagmud",
      "postcode": 3724
    }
  },
  "3725": {
    "bn": {
      "division": "চট্টগ্রাম",
      "district": "লক্ষ্মীপুর",
      "thana": "রামগঞ্জ",
      "suboffice": "দলতা",
      "postcode": "৩৭২৫"
    },
    "en": {
      "division": "Chittagong",
      "district": "Lakshmipur",
      "thana": "Ramganj",
      "suboffice": "Dolta",
      "postcode": 3725
    }
  },
  "3730": {
    "bn": {
      "division": "চট্টগ্রাম",
      "district": "লক্ষ্মীপুর",
      "thana": "চর আলেক্সজান্ডার",
      "suboffice": "চর আলেক্সজান্ডার",
      "postcode": "৩৭৩০"
    },
    "en": {
      "division": "Chittagong",
      "district": "Lakshmipur",
      "thana": "Char Alexgander",
      "suboffice": "Char Alexgander",
      "postcode": 3730
    }
  },
  "3731": {
    "bn": {
      "division": "চট্টগ্রাম",
      "district": "লক্ষ্মীপুর",
      "thana": "চর আলেক্সজান্ডার",
      "suboffice": "হাজীরঘাট",
      "postcode": "৩৭৩১"
    },
    "en": {
      "division": "Chittagong",
      "district": "Lakshmipur",
      "thana": "Char Alexgander",
      "suboffice": "Hajirghat",
      "postcode": 3731
    }
  },
  "3732": {
    "bn": {
      "division": "চট্টগ্রাম",
      "district": "লক্ষ্মীপুর",
      "thana": "চর আলেক্সজান্ডার",
      "suboffice": "রামগতিরহাট",
      "postcode": "৩৭৩২"
    },
    "en": {
      "division": "Chittagong",
      "district": "Lakshmipur",
      "thana": "Char Alexgander",
      "suboffice": "Ramgatirhat",
      "postcode": 3732
    }
  }
}
