{
  "2000": {
    "bn": {
      "division": "ময়মনসিংহ",
      "district": "জামালপুর",
      "thana": "জামালপুর",
      "suboffice": "জামালপুর",
      "postcode": "২০০০"
    },
    "en": {
      "division": "Mymensingh",
      "district": "Jamalpur",
      "thana": "Jamalpur",
      "suboffice": "Jalalpur",
      "postcode": 2000
    }
  },
  "2001": {
    "bn": {
      "division": "ময়মনসিংহ",
      "district": "জামালপুর",
      "thana": "জামালপুর",
      "suboffice": "নানদিনা",
      "postcode": "২০০১"
    },
    "en": {
      "division": "Mymensingh",
      "district": "Jamalpur",
      "thana": "Jamalpur",
      "suboffice": "Nandina",
      "postcode": 2001
    }
  },
  "2002": {
    "bn": {
      "division": "ময়মনসিংহ",
      "district": "জামালপুর",
      "thana": "জামালপুর",
      "suboffice": "নুরুন্দী",
      "postcode": "২০০২"
    },
    "en": {
      "division": "Mymensingh",
      "district": "Jamalpur",
      "thana": "Jamalpur",
      "suboffice": "Narundi",
      "postcode": 2002
    }
  },
  "2010": {
    "bn": {
      "division": "ময়মনসিংহ",
      "district": "জামালপুর",
      "thana": "মেলান্দহ",
      "suboffice": "মেলান্দহ",
      "postcode": "২০১০"
    },
    "en": {
      "division": "Mymensingh",
      "district": "Jamalpur",
      "thana": "Melandah",
      "suboffice": "Melandah",
      "postcode": 2010
    }
  },
  "2011": {
    "bn": {
      "division": "ময়মনসিংহ",
      "district": "জামালপুর",
      "thana": "মেলান্দহ",
      "suboffice": "জামালপুর",
      "postcode": "২০১১"
    },
    "en": {
      "division": "Mymensingh",
      "district": "Jamalpur",
      "thana": "Melandah",
      "suboffice": "Jalalpur",
      "postcode": 2011
    }
  },
  "2012": {
    "bn": {
      "division": "ময়মনসিংহ",
      "district": "জামালপুর",
      "thana": "মেলান্দহ",
      "suboffice": "মালঞ্চ",
      "postcode": "২০১২"
    },
    "en": {
      "division": "Mymensingh",
      "district": "Jamalpur",
      "thana": "Melandah",
      "suboffice": "Malancha",
      "postcode": 2012
    }
  },
  "2013": {
    "bn": {
      "division": "ময়মনসিংহ",
      "district": "জামালপুর",
      "thana": "মেলান্দহ",
      "suboffice": "মাহমুদপুর",
      "postcode": "২০১৩"
    },
    "en": {
      "division": "Mymensingh",
      "district": "Jamalpur",
      "thana": "Melandah",
      "suboffice": "Mahmudpur",
      "postcode": 2013
    }
  },
  "2020": {
    "bn": {
      "division": "ময়মনসিংহ",
      "district": "জামালপুর",
      "thana": "ইসলামপুর",
      "suboffice": "ইসলামপুর",
      "postcode": "২০২০"
    },
    "en": {
      "division": "Mymensingh",
      "district": "Jamalpur",
      "thana": "Islampur",
      "suboffice": "Islampur",
      "postcode": 2020
    }
  },
  "2021": {
    "bn": {
      "division": "ময়মনসিংহ",
      "district": "জামালপুর",
      "thana": "ইসলামপুর",
      "suboffice": "ডুরমোট",
      "postcode": "২০২১"
    },
    "en": {
      "division": "Mymensingh",
      "district": "Jamalpur",
      "thana": "Islampur",
      "suboffice": "Durmoot",
      "postcode": 2021
    }
  },
  "2022": {
    "bn": {
      "division": "ময়মনসিংহ",
      "district": "জামালপুর",
      "thana": "ইসলামপুর",
      "suboffice": "গিলাবাড়ি",
      "postcode": "২০২২"
    },
    "en": {
      "division": "Mymensingh",
      "district": "Jamalpur",
      "thana": "Islampur",
      "suboffice": "Gilabari",
      "postcode": 2022
    }
  },
  "2030": {
    "bn": {
      "division": "ময়মনসিংহ",
      "district": "জামালপুর",
      "thana": "দেওয়ানগঞ্জ",
      "suboffice": "দেওয়ানগঞ্জ",
      "postcode": "২০৩০"
    },
    "en": {
      "division": "Mymensingh",
      "district": "Jamalpur",
      "thana": "Dewangonj",
      "suboffice": "Dewangonj S. Mills",
      "postcode": 2030
    }
  },
  "2031": {
    "bn": {
      "division": "ময়মনসিংহ",
      "district": "জামালপুর",
      "thana": "দেওয়ানগঞ্জ",
      "suboffice": "দেওয়ানগঞ্জ এস মিলস",
      "postcode": "২০৩১"
    },
    "en": {
      "division": "Mymensingh",
      "district": "Jamalpur",
      "thana": "Dewangonj",
      "suboffice": "Dewangonj S. Mills",
      "postcode": 2031
    }
  },
  "2040": {
    "bn": {
      "division": "ময়মনসিংহ",
      "district": "জামালপুর",
      "thana": "মাদারগঞ্জ",
      "suboffice": "মাদারগঞ্জ",
      "postcode": "২০৪০"
    },
    "en": {
      "division": "Mymensingh",
      "district": "Jamalpur",
      "thana": "Madarganj",
      "suboffice": "Madarganj",
      "postcode": 2040
    }
  },
  "2041": {
    "bn": {
      "division": "ময়মনসিংহ",
      "district": "জামালপুর",
      "thana": "মাদারগঞ্জ",
      "suboffice": "বালিঝুড়ি",
      "postcode": "২০৪১"
    },
    "en": {
      "division": "Mymensingh",
      "district": "Jamalpur",
      "thana": "Madarganj",
      "suboffice": "Balijhuri",
      "postcode": 2041
    }
  },
  "2050": {
    "bn": {
      "division": "ময়মনসিংহ",
      "district": "জামালপুর",
      "thana": "সরিষাবাড়ি",
      "suboffice": "সরিষাবাড়ি",
      "postcode": "২০৫০"
    },
    "en": {
      "division": "Mymensingh",
      "district": "Jamalpur",
      "thana": "Sharishabari",
      "suboffice": "Sharishabari",
      "postcode": 2050
    }
  },
  "2051": {
    "bn": {
      "division": "ময়মনসিংহ",
      "district": "জামালপুর",
      "thana": "সরিষাবাড়ি",
      "suboffice": "গুনেরবাড়ি",
      "postcode": "২০৫১"
    },
    "en": {
      "division": "Mymensingh",
      "district": "Jamalpur",
      "thana": "Sharishabari",
      "suboffice": "Adarvita",
      "postcode": 2051
    }
  },
  "2052": {
    "bn": {
      "division": "ময়মনসিংহ",
      "district": "জামালপুর",
      "thana": "সরিষাবাড়ি",
      "suboffice": "বাউসী",
      "postcode": "২০৫২"
    },
    "en": {
      "division": "Mymensingh",
      "district": "Jamalpur",
      "thana": "Sharishabari",
      "suboffice": "Bausee",
      "postcode": 2052
    }
  },
  "2053": {
    "bn": {
      "division": "ময়মনসিংহ",
      "district": "জামালপুর",
      "thana": "সরিষাবাড়ি",
      "suboffice": "জগন্নাথ ঘাট",
      "postcode": "২০৫৩"
    },
    "en": {
      "division": "Mymensingh",
      "district": "Jamalpur",
      "thana": "Sharishabari",
      "suboffice": "Jagannath Ghat",
      "postcode": 2053
    }
  },
  "2054": {
    "bn": {
      "division": "ময়মনসিংহ",
      "district": "জামালপুর",
      "thana": "সরিষাবাড়ি",
      "suboffice": "পিংনা",
      "postcode": "২০৫৪"
    },
    "en": {
      "division": "Mymensingh",
      "district": "Jamalpur",
      "thana": "Sharishabari",
      "suboffice": "Pingna",
      "postcode": 2054
    }
  },
  "2055": {
    "bn": {
      "division": "ময়মনসিংহ",
      "district": "জামালপুর",
      "thana": "সরিষাবাড়ি",
      "suboffice": "যমুনা সার কারখানা",
      "postcode": "২০৫৫"
    },
    "en": {
      "division": "Mymensingh",
      "district": "Jamalpur",
      "thana": "Sharishabari",
      "suboffice": "Jamuna Sar Karkhana",
      "postcode": 2055
    }
  },
  "2100": {
    "bn": {
      "division": "ময়মনসিংহ",
      "district": "শেরপুর",
      "thana": "শেরপুর সদর",
      "suboffice": "শেরপুর সদর",
      "postcode": "২১০০"
    },
    "en": {
      "division": "Mymensingh",
      "district": "Sherpur",
      "thana": "Sherpur Shadar",
      "suboffice": "Sherpur Shadar",
      "postcode": 2100
    }
  },
  "2110": {
    "bn": {
      "division": "ময়মনসিংহ",
      "district": "শেরপুর",
      "thana": "নালিতাবাড়ী",
      "suboffice": "নালিতাবাড়ী",
      "postcode": "২১১০"
    },
    "en": {
      "division": "Mymensingh",
      "district": "Sherpur",
      "thana": "Nalitabari",
      "suboffice": "Nalitabari",
      "postcode": 2110
    }
  },
  "2111": {
    "bn": {
      "division": "ময়মনসিংহ",
      "district": "শেরপুর",
      "thana": "নালিতাবাড়ী",
      "suboffice": "হাতীবান্ধা",
      "postcode": "২১১১"
    },
    "en": {
      "division": "Mymensingh",
      "district": "Sherpur",
      "thana": "Nalitabari",
      "suboffice": "Hatibandha",
      "postcode": 2111
    }
  },
  "2120": {
    "bn": {
      "division": "ময়মনসিংহ",
      "district": "শেরপুর",
      "thana": "ঝিনাইগাতী",
      "suboffice": "ঝিনাইগাতী",
      "postcode": "২১২০"
    },
    "en": {
      "division": "Mymensingh",
      "district": "Sherpur",
      "thana": "Jhinaigati",
      "suboffice": "Jhinaigati",
      "postcode": 2120
    }
  },
  "2130": {
    "bn": {
      "division": "ময়মনসিংহ",
      "district": "শেরপুর",
      "thana": "শ্রীবরদী",
      "suboffice": "শ্রীবরদী",
      "postcode": "২১৩০"
    },
    "en": {
      "division": "Mymensingh",
      "district": "Sherpur",
      "thana": "Shribardi",
      "suboffice": "Shribardi",
      "postcode": 2130
    }
  },
  "2140": {
    "bn": {
      "division": "ময়মনসিংহ",
      "district": "শেরপুর",
      "thana": "বকশীগঞ্জ",
      "suboffice": "বকশীগঞ্জ",
      "postcode": "২১৪০"
    },
    "en": {
      "division": "Mymensingh",
      "district": "Sherpur",
      "thana": "Bakshigonj",
      "suboffice": "Bakshigonj",
      "postcode": 2140
    }
  },
  "2150": {
    "bn": {
      "division": "ময়মনসিংহ",
      "district": "শেরপুর",
      "thana": "নকলা",
      "suboffice": "নকলা",
      "postcode": "২১৫০"
    },
    "en": {
      "division": "Mymensingh",
      "district": "Sherpur",
      "thana": "Nakla",
      "suboffice": "Nakla",
      "postcode": 2150
    }
  },
  "2151": {
    "bn": {
      "division": "ময়মনসিংহ",
      "district": "শেরপুর",
      "thana": "নকলা",
      "suboffice": "গণপাদ্দি",
      "postcode": "২১৫১"
    },
    "en": {
      "division": "Mymensingh",
      "district": "Sherpur",
      "thana": "Nakla",
      "suboffice": "Gonopaddi",
      "postcode": 2151
    }
  },
  "2200": {
    "bn": {
      "division": "ময়মনসিংহ",
      "district": "ময়মনসিংহ",
      "thana": "ময়মনসিংহ সদর",
      "suboffice": "ময়মনসিংহ সদর",
      "postcode": "২২০০"
    },
    "en": {
      "division": "Mymensingh",
      "district": "Mymensingh",
      "thana": "Mymensingh Sadar",
      "suboffice": "Mymensingh Sadar",
      "postcode": 2200
    }
  },
  "2201": {
    "bn": {
      "division": "ময়মনসিংহ",
      "district": "ময়মনসিংহ",
      "thana": "ময়মনসিংহ সদর",
      "suboffice": "কেওয়াটখালি",
      "postcode": "২২০১"
    },
    "en": {
      "division": "Mymensingh",
      "district": "Mymensingh",
      "thana": "Mymensingh Sadar",
      "suboffice": "Kawatkhali",
      "postcode": 2201
    }
  },
  "2202": {
    "bn": {
      "division": "ময়মনসিংহ",
      "district": "ময়মনসিংহ",
      "thana": "ময়মনসিংহ সদর",
      "suboffice": "কৃষি বিশ্ববিদ্যালয়",
      "postcode": "২২০২"
    },
    "en": {
      "division": "Mymensingh",
      "district": "Mymensingh",
      "thana": "Mymensingh Sadar",
      "suboffice": "Agriculture Universi",
      "postcode": 2202
    }
  },
  "2203": {
    "bn": {
      "division": "ময়মনসিংহ",
      "district": "ময়মনসিংহ",
      "thana": "ময়মনসিংহ সদর",
      "suboffice": "শম্ভুগঞ্জ",
      "postcode": "২২০৩"
    },
    "en": {
      "division": "Mymensingh",
      "district": "Mymensingh",
      "thana": "Mymensingh Sadar",
      "suboffice": "Shombhuganj",
      "postcode": 2203
    }
  },
  "2204": {
    "bn": {
      "division": "ময়মনসিংহ",
      "district": "ময়মনসিংহ",
      "thana": "ময়মনসিংহ সদর",
      "suboffice": "বিদ্যাগঞ্জ",
      "postcode": "২২০৪"
    },
    "en": {
      "division": "Mymensingh",
      "district": "Mymensingh",
      "thana": "Mymensingh Sadar",
      "suboffice": "Biddyaganj",
      "postcode": 2204
    }
  },
  "2205": {
    "bn": {
      "division": "ময়মনসিংহ",
      "district": "ময়মনসিংহ",
      "thana": "ময়মনসিংহ সদর",
      "suboffice": "পিয়ারপুর",
      "postcode": "২২০৫"
    },
    "en": {
      "division": "Mymensingh",
      "district": "Mymensingh",
      "thana": "Mymensingh Sadar",
      "suboffice": "Pearpur",
      "postcode": 2205
    }
  },
  "2210": {
    "bn": {
      "division": "ময়মনসিংহ",
      "district": "ময়মনসিংহ",
      "thana": "মুক্তাগাছা",
      "suboffice": "মুক্তাগাছা",
      "postcode": "২২১০"
    },
    "en": {
      "division": "Mymensingh",
      "district": "Mymensingh",
      "thana": "Muktagachha",
      "suboffice": "Muktagachha",
      "postcode": 2210
    }
  },
  "2216": {
    "bn": {
      "division": "ময়মনসিংহ",
      "district": "ময়মনসিংহ",
      "thana": "ফুলবাড়িয়া",
      "suboffice": "ফুলবাড়িয়া",
      "postcode": "২২১৬"
    },
    "en": {
      "division": "Mymensingh",
      "district": "Mymensingh",
      "thana": "Fulbaria",
      "suboffice": "Fulbaria",
      "postcode": 2216
    }
  },
  "2220": {
    "bn": {
      "division": "ময়মনসিংহ",
      "district": "ময়মনসিংহ",
      "thana": "ত্রিশাল",
      "suboffice": "ত্রিশাল",
      "postcode": "২২২০"
    },
    "en": {
      "division": "Mymensingh",
      "district": "Mymensingh",
      "thana": "Trishal",
      "suboffice": "Trishal",
      "postcode": 2220
    }
  },
  "2221": {
    "bn": {
      "division": "ময়মনসিংহ",
      "district": "ময়মনসিংহ",
      "thana": "ত্রিশাল",
      "suboffice": "আহমাদবাদ",
      "postcode": "২২২১"
    },
    "en": {
      "division": "Mymensingh",
      "district": "Mymensingh",
      "thana": "Trishal",
      "suboffice": "Ahmadbad",
      "postcode": 2221
    }
  },
  "2222": {
    "bn": {
      "division": "ময়মনসিংহ",
      "district": "ময়মনসিংহ",
      "thana": "ত্রিশাল",
      "suboffice": "রাম অমৃতগঞ্জ",
      "postcode": "২২২২"
    },
    "en": {
      "division": "Mymensingh",
      "district": "Mymensingh",
      "thana": "Trishal",
      "suboffice": "Ram Amritaganj",
      "postcode": 2222
    }
  },
  "2223": {
    "bn": {
      "division": "ময়মনসিংহ",
      "district": "ময়মনসিংহ",
      "thana": "ত্রিশাল",
      "suboffice": "ধলা",
      "postcode": "২২২৩"
    },
    "en": {
      "division": "Mymensingh",
      "district": "Mymensingh",
      "thana": "Trishal",
      "suboffice": "Dhala",
      "postcode": 2223
    }
  },
  "2230": {
    "bn": {
      "division": "ময়মনসিংহ",
      "district": "ময়মনসিংহ",
      "thana": "গফরগাঁও",
      "suboffice": "গফরগাঁও",
      "postcode": "২২৩০"
    },
    "en": {
      "division": "Mymensingh",
      "district": "Mymensingh",
      "thana": "Gaforgaon",
      "suboffice": "Gaforgaon",
      "postcode": 2230
    }
  },
  "2231": {
    "bn": {
      "division": "ময়মনসিংহ",
      "district": "ময়মনসিংহ",
      "thana": "গফরগাঁও",
      "suboffice": "শিবগঞ্জ",
      "postcode": "২২৩১"
    },
    "en": {
      "division": "Mymensingh",
      "district": "Mymensingh",
      "thana": "Gaforgaon",
      "suboffice": "Shibganj",
      "postcode": 2231
    }
  },
  "2232": {
    "bn": {
      "division": "ময়মনসিংহ",
      "district": "ময়মনসিংহ",
      "thana": "গফরগাঁও",
      "suboffice": "উস্তি",
      "postcode": "২২৩২"
    },
    "en": {
      "division": "Mymensingh",
      "district": "Mymensingh",
      "thana": "Gaforgaon",
      "suboffice": "Usti",
      "postcode": 2232
    }
  },
  "2233": {
    "bn": {
      "division": "ময়মনসিংহ",
      "district": "ময়মনসিংহ",
      "thana": "গফরগাঁও",
      "suboffice": "কান্দিপাড়া",
      "postcode": "২২৩৩"
    },
    "en": {
      "division": "Mymensingh",
      "district": "Mymensingh",
      "thana": "Gaforgaon",
      "suboffice": "Kandipara",
      "postcode": 2233
    }
  },
  "2234": {
    "bn": {
      "division": "ময়মনসিংহ",
      "district": "ময়মনসিংহ",
      "thana": "গফরগাঁও",
      "suboffice": "দুট্টারবাজার",
      "postcode": "২২৩৪"
    },
    "en": {
      "division": "Mymensingh",
      "district": "Mymensingh",
      "thana": "Gaforgaon",
      "suboffice": "Dobasia",
      "postcode": 2234
    }
  },
  "2240": {
    "bn": {
      "division": "ময়মনসিংহ",
      "district": "ময়মনসিংহ",
      "thana": "ভালুকা",
      "suboffice": "ভালুকা",
      "postcode": "২২৪০"
    },
    "en": {
      "division": "Mymensingh",
      "district": "Mymensingh",
      "thana": "Bhaluka",
      "suboffice": "Bhaluka",
      "postcode": 2240
    }
  },
  "2250": {
    "bn": {
      "division": "ময়মনসিংহ",
      "district": "ময়মনসিংহ",
      "thana": "ফুলপুর",
      "suboffice": "ফুলপুর",
      "postcode": "২২৫০"
    },
    "en": {
      "division": "Mymensingh",
      "district": "Mymensingh",
      "thana": "Phulpur",
      "suboffice": "Phulpur",
      "postcode": 2250
    }
  },
  "2251": {
    "bn": {
      "division": "ময়মনসিংহ",
      "district": "ময়মনসিংহ",
      "thana": "ফুলপুর",
      "suboffice": "বেলতিয়া",
      "postcode": "২২৫১"
    },
    "en": {
      "division": "Mymensingh",
      "district": "Mymensingh",
      "thana": "Phulpur",
      "suboffice": "Beltia",
      "postcode": 2251
    }
  },
  "2252": {
    "bn": {
      "division": "ময়মনসিংহ",
      "district": "ময়মনসিংহ",
      "thana": "ফুলপুর",
      "suboffice": "তারাকান্দা",
      "postcode": "২২৫২"
    },
    "en": {
      "division": "Mymensingh",
      "district": "Mymensingh",
      "thana": "Phulpur",
      "suboffice": "Tarakanda",
      "postcode": 2252
    }
  },
  "2260": {
    "bn": {
      "division": "ময়মনসিংহ",
      "district": "ময়মনসিংহ",
      "thana": "হালুয়াঘাট",
      "suboffice": "হালুয়াঘাট",
      "postcode": "২২৬০"
    },
    "en": {
      "division": "Mymensingh",
      "district": "Mymensingh",
      "thana": "Haluaghat",
      "suboffice": "Haluaghat",
      "postcode": 2260
    }
  },
  "2261": {
    "bn": {
      "division": "ময়মনসিংহ",
      "district": "ময়মনসিংহ",
      "thana": "হালুয়াঘাট",
      "suboffice": "ধারা",
      "postcode": "২২৬১"
    },
    "en": {
      "division": "Mymensingh",
      "district": "Mymensingh",
      "thana": "Haluaghat",
      "suboffice": "Dhara",
      "postcode": 2261
    }
  },
  "2262": {
    "bn": {
      "division": "ময়মনসিংহ",
      "district": "ময়মনসিংহ",
      "thana": "হালুয়াঘাট",
      "suboffice": "মুনশিরহাট",
      "postcode": "২২৬২"
    },
    "en": {
      "division": "Mymensingh",
      "district": "Mymensingh",
      "thana": "Haluaghat",
      "suboffice": "Munshirhat",
      "postcode": 2262
    }
  },
  "2270": {
    "bn": {
      "division": "ময়মনসিংহ",
      "district": "ময়মনসিংহ",
      "thana": "গৌরীপুর",
      "suboffice": "গৌরীপুর",
      "postcode": "২২৭০"
    },
    "en": {
      "division": "Mymensingh",
      "district": "Mymensingh",
      "thana": "Gouripur",
      "suboffice": "Gouripur",
      "postcode": 2270
    }
  },
  "2271": {
    "bn": {
      "division": "ময়মনসিংহ",
      "district": "ময়মনসিংহ",
      "thana": "গৌরীপুর",
      "suboffice": "রামগোপালপুর",
      "postcode": "২২৭১"
    },
    "en": {
      "division": "Mymensingh",
      "district": "Mymensingh",
      "thana": "Gouripur",
      "suboffice": "Ramgopalpur",
      "postcode": 2271
    }
  },
  "2280": {
    "bn": {
      "division": "ময়মনসিংহ",
      "district": "ময়মনসিংহ",
      "thana": "ঈশ্বরগঞ্জ",
      "suboffice": "ঈশ্বরগঞ্জ",
      "postcode": "২২৮০"
    },
    "en": {
      "division": "Mymensingh",
      "district": "Mymensingh",
      "thana": "Isshwargonj",
      "suboffice": "Isshwargonj",
      "postcode": 2280
    }
  },
  "2281": {
    "bn": {
      "division": "ময়মনসিংহ",
      "district": "ময়মনসিংহ",
      "thana": "ঈশ্বরগঞ্জ",
      "suboffice": "সোহাগি",
      "postcode": "২২৮১"
    },
    "en": {
      "division": "Mymensingh",
      "district": "Mymensingh",
      "thana": "Isshwargonj",
      "suboffice": "Sohagi",
      "postcode": 2281
    }
  },
  "2282": {
    "bn": {
      "division": "ময়মনসিংহ",
      "district": "ময়মনসিংহ",
      "thana": "ঈশ্বরগঞ্জ",
      "suboffice": "আঠারবাড়ি",
      "postcode": "২২৮২"
    },
    "en": {
      "division": "Mymensingh",
      "district": "Mymensingh",
      "thana": "Isshwargonj",
      "suboffice": "Atharabari",
      "postcode": 2282
    }
  },
  "2290": {
    "bn": {
      "division": "ময়মনসিংহ",
      "district": "ময়মনসিংহ",
      "thana": "নান্দাইল",
      "suboffice": "নান্দাইল",
      "postcode": "২২৯০"
    },
    "en": {
      "division": "Mymensingh",
      "district": "Mymensingh",
      "thana": "Nandail",
      "suboffice": "Nandail",
      "postcode": 2290
    }
  },
  "2291": {
    "bn": {
      "division": "ময়মনসিংহ",
      "district": "ময়মনসিংহ",
      "thana": "নান্দাইল",
      "suboffice": "গাংগাইল",
      "postcode": "২২৯১"
    },
    "en": {
      "division": "Mymensingh",
      "district": "Mymensingh",
      "thana": "Nandail",
      "suboffice": "Gangail",
      "postcode": 2291
    }
  },
  "2400": {
    "bn": {
      "division": "ময়মনসিংহ",
      "district": "নেত্রকোণা",
      "thana": "নেত্রকোণা সদর",
      "suboffice": "নেত্রকোণা সদর",
      "postcode": "২৪০০"
    },
    "en": {
      "division": "Mymensingh",
      "district": "Netrokona",
      "thana": "Netrakona Sadar",
      "suboffice": "Netrakona Sadar",
      "postcode": 2400
    }
  },
  "2401": {
    "bn": {
      "division": "ময়মনসিংহ",
      "district": "নেত্রকোণা",
      "thana": "নেত্রকোণা সদর",
      "suboffice": "বাইখেরহাটি",
      "postcode": "২৪০১"
    },
    "en": {
      "division": "Mymensingh",
      "district": "Netrokona",
      "thana": "Netrakona Sadar",
      "suboffice": "Baikherhati",
      "postcode": 2401
    }
  },
  "2410": {
    "bn": {
      "division": "ময়মনসিংহ",
      "district": "নেত্রকোণা",
      "thana": "পুর্বধোলা",
      "suboffice": "পুর্বধোলা",
      "postcode": "২৪১০"
    },
    "en": {
      "division": "Mymensingh",
      "district": "Netrokona",
      "thana": "Purbadhola",
      "suboffice": "Purbadhola",
      "postcode": 2410
    }
  },
  "2411": {
    "bn": {
      "division": "ময়মনসিংহ",
      "district": "নেত্রকোণা",
      "thana": "পুর্বধোলা",
      "suboffice": "শামগঞ্জ",
      "postcode": "২৪১১"
    },
    "en": {
      "division": "Mymensingh",
      "district": "Netrokona",
      "thana": "Purbadhola",
      "suboffice": "Shamganj",
      "postcode": 2411
    }
  },
  "2412": {
    "bn": {
      "division": "ময়মনসিংহ",
      "district": "নেত্রকোণা",
      "thana": "পুর্বধোলা",
      "suboffice": "জারিয়া ঝানঝাইল",
      "postcode": "২৪১২"
    },
    "en": {
      "division": "Mymensingh",
      "district": "Netrokona",
      "thana": "Purbadhola",
      "suboffice": "Jaria Jhanjhail",
      "postcode": 2412
    }
  },
  "2416": {
    "bn": {
      "division": "ময়মনসিংহ",
      "district": "নেত্রকোণা",
      "thana": "ধবাউরা",
      "suboffice": "ধবাউরা",
      "postcode": "২৪১৬"
    },
    "en": {
      "division": "Mymensingh",
      "district": "Netrokona",
      "thana": "Dhobaura",
      "suboffice": "Dhobaura",
      "postcode": 2416
    }
  },
  "2417": {
    "bn": {
      "division": "ময়মনসিংহ",
      "district": "নেত্রকোণা",
      "thana": "ধবাউরা",
      "suboffice": "সাকয়াই",
      "postcode": "২৪১৭"
    },
    "en": {
      "division": "Mymensingh",
      "district": "Netrokona",
      "thana": "Dhobaura",
      "suboffice": "Sakoai",
      "postcode": 2417
    }
  },
  "2420": {
    "bn": {
      "division": "ময়মনসিংহ",
      "district": "নেত্রকোণা",
      "thana": "সুসনঞ্জ দুর্গাপুর",
      "suboffice": "সুসনঞ্জ দুর্গাপুর",
      "postcode": "২৪২০"
    },
    "en": {
      "division": "Mymensingh",
      "district": "Netrokona",
      "thana": "Susung Durgapur",
      "suboffice": "Susnng Durgapur",
      "postcode": 2420
    }
  },
  "2430": {
    "bn": {
      "division": "ময়মনসিংহ",
      "district": "নেত্রকোণা",
      "thana": "কলমাকান্দা",
      "suboffice": "কলমাকান্দা",
      "postcode": "২৪৩০"
    },
    "en": {
      "division": "Mymensingh",
      "district": "Netrokona",
      "thana": "Kalmakanda",
      "suboffice": "Kalmakanda",
      "postcode": 2430
    }
  },
  "2440": {
    "bn": {
      "division": "ময়মনসিংহ",
      "district": "নেত্রকোণা",
      "thana": "বারহাট্টা",
      "suboffice": "বারহাট্টা",
      "postcode": "২৪৪০"
    },
    "en": {
      "division": "Mymensingh",
      "district": "Netrokona",
      "thana": "Barhatta",
      "suboffice": "Barhatta",
      "postcode": 2440
    }
  },
  "2446": {
    "bn": {
      "division": "ময়মনসিংহ",
      "district": "নেত্রকোণা",
      "thana": "মোহনগঞ্জ",
      "suboffice": "মোহনগঞ্জ",
      "postcode": "২৪৪৬"
    },
    "en": {
      "division": "Mymensingh",
      "district": "Netrokona",
      "thana": "Mohanganj",
      "suboffice": "Mohanganj",
      "postcode": 2446
    }
  },
  "2450": {
    "bn": {
      "division": "ময়মনসিংহ",
      "district": "নেত্রকোণা",
      "thana": "ধর্মপাশা",
      "suboffice": "ধর্মপাশা",
      "postcode": "২৪৫০"
    },
    "en": {
      "division": "Mymensingh",
      "district": "Netrokona",
      "thana": "Dharmapasha",
      "suboffice": "Dharampasha",
      "postcode": 2450
    }
  },
  "2456": {
    "bn": {
      "division": "ময়মনসিংহ",
      "district": "নেত্রকোণা",
      "thana": "মধ্যনগর",
      "suboffice": "মধ্যনগর",
      "postcode": "২৪৫৬"
    },
    "en": {
      "division": "Mymensingh",
      "district": "Netrokona",
      "thana": "Moddhynagar",
      "suboffice": "Moddoynagar",
      "postcode": 2456
    }
  },
  "2460": {
    "bn": {
      "division": "ময়মনসিংহ",
      "district": "নেত্রকোণা",
      "thana": "খালিয়াজুরী",
      "suboffice": "খালিয়াজুরী",
      "postcode": "২৪৬০"
    },
    "en": {
      "division": "Mymensingh",
      "district": "Netrokona",
      "thana": "Khaliajuri",
      "suboffice": "Khaliajhri",
      "postcode": 2460
    }
  },
  "2462": {
    "bn": {
      "division": "ময়মনসিংহ",
      "district": "নেত্রকোণা",
      "thana": "খালিয়াজুরী",
      "suboffice": "শালদিঘা",
      "postcode": "২৪৬২"
    },
    "en": {
      "division": "Mymensingh",
      "district": "Netrokona",
      "thana": "Khaliajuri",
      "suboffice": "Shaldigha",
      "postcode": 2462
    }
  },
  "2470": {
    "bn": {
      "division": "ময়মনসিংহ",
      "district": "নেত্রকোণা",
      "thana": "আটপাড়া",
      "suboffice": "আটপাড়া",
      "postcode": "২৪৭০"
    },
    "en": {
      "division": "Mymensingh",
      "district": "Netrokona",
      "thana": "Atpara",
      "suboffice": "Atpara",
      "postcode": 2470
    }
  },
  "2480": {
    "bn": {
      "division": "ময়মনসিংহ",
      "district": "নেত্রকোণা",
      "thana": "কেন্দুয়া",
      "suboffice": "কেন্দুয়া",
      "postcode": "২৪৮০"
    },
    "en": {
      "division": "Mymensingh",
      "district": "Netrokona",
      "thana": "Kendua",
      "suboffice": "Kendua",
      "postcode": 2480
    }
  },
  "2490": {
    "bn": {
      "division": "ময়মনসিংহ",
      "district": "নেত্রকোণা",
      "thana": "মদন",
      "suboffice": "মদন",
      "postcode": "২৪৯০"
    },
    "en": {
      "division": "Mymensingh",
      "district": "Netrokona",
      "thana": "Madan",
      "suboffice": "Madan",
      "postcode": 2490
    }
  }
}
