{
  "3100": {
    "bn": {
      "division": "সিলেট",
      "district": "সিলেট",
      "thana": "সিলেট সদর",
      "suboffice": "সিলেট সদর",
      "postcode": "৩১০০"
    },
    "en": {
      "division": "Sylhet",
      "district": "Sylhet",
      "thana": "Sylhet Sadar",
      "suboffice": "Sylhet Sadar",
      "postcode": 3100
    }
  },
  "3101": {
    "bn": {
      "division": "সিলেট",
      "district": "সিলেট",
      "thana": "সিলেট সদর",
      "suboffice": "সিলেট ক্যাডেট কলেজ",
      "postcode": "৩১০১"
    },
    "en": {
      "division": "Sylhet",
      "district": "Sylhet",
      "thana": "Sylhet Sadar",
      "suboffice": "Mangal Kandi",
      "postcode": 3101
    }
  },
  "3102": {
    "bn": {
      "division": "সিলেট",
      "district": "সিলেট",
      "thana": "সিলেট সদর",
      "suboffice": "সিলেট বিমান বন্দর",
      "postcode": "৩১০২"
    },
    "en": {
      "division": "Sylhet",
      "district": "Sylhet",
      "thana": "Sylhet Sadar",
      "suboffice": "Sylhet Biman Bondar",
      "postcode": 3102
    }
  },
  "3103": {
    "bn": {
      "division": "সিলেট",
      "district": "সিলেট",
      "thana": "সিলেট সদর",
      "suboffice": "খাদিমনগর",
      "postcode": "৩১০৩"
    },
    "en": {
      "division": "Sylhet",
      "district": "Sylhet",
      "thana": "Sylhet Sadar",
      "suboffice": "Khadimnagar",
      "postcode": 3103
    }
  },
  "3104": {
    "bn": {
      "division": "সিলেট",
      "district": "সিলেট",
      "thana": "সিলেট সদর",
      "suboffice": "জালালাবাদ সেনানিবাস",
      "postcode": "৩১০৪"
    },
    "en": {
      "division": "Sylhet",
      "district": "Sylhet",
      "thana": "Sylhet Sadar",
      "suboffice": "Jalalabad Cantoment",
      "postcode": 3104
    }
  },
  "3105": {
    "bn": {
      "division": "সিলেট",
      "district": "সিলেট",
      "thana": "সিলেট সদর",
      "suboffice": "সিলাম",
      "postcode": "৩১০৫"
    },
    "en": {
      "division": "Sylhet",
      "district": "Sylhet",
      "thana": "Sylhet Sadar",
      "suboffice": "Silam",
      "postcode": 3105
    }
  },
  "3106": {
    "bn": {
      "division": "সিলেট",
      "district": "সিলেট",
      "thana": "সিলেট সদর",
      "suboffice": "বিরাহিমপুর",
      "postcode": "৩১০৬"
    },
    "en": {
      "division": "Sylhet",
      "district": "Sylhet",
      "thana": "Sylhet Sadar",
      "suboffice": "Birahimpur",
      "postcode": 3106
    }
  },
  "3107": {
    "bn": {
      "division": "সিলেট",
      "district": "সিলেট",
      "thana": "সিলেট সদর",
      "suboffice": "জালালাবাদ",
      "postcode": "৩১০৭"
    },
    "en": {
      "division": "Sylhet",
      "district": "Sylhet",
      "thana": "Sylhet Sadar",
      "suboffice": "Jalalabad",
      "postcode": 3107
    }
  },
  "3108": {
    "bn": {
      "division": "সিলেট",
      "district": "সিলেট",
      "thana": "সিলেট সদর",
      "suboffice": "মগ্লা",
      "postcode": "৩১০৮"
    },
    "en": {
      "division": "Sylhet",
      "district": "Sylhet",
      "thana": "Sylhet Sadar",
      "suboffice": "Mogla",
      "postcode": 3108
    }
  },
  "3109": {
    "bn": {
      "division": "সিলেট",
      "district": "সিলেট",
      "thana": "সিলেট সদর",
      "suboffice": "রাঙ্গা হাজীগঞ্জ",
      "postcode": "৩১০৯"
    },
    "en": {
      "division": "Sylhet",
      "district": "Sylhet",
      "thana": "Sylhet Sadar",
      "suboffice": "Ranga Hajiganj",
      "postcode": 3109
    }
  },
  "3111": {
    "bn": {
      "division": "সিলেট",
      "district": "সিলেট",
      "thana": "সিলেট সদর",
      "suboffice": "কদমতলী",
      "postcode": "৩১১১"
    },
    "en": {
      "division": "Sylhet",
      "district": "Sylhet",
      "thana": "Sylhet Sadar",
      "suboffice": "Kadamtali",
      "postcode": 3111
    }
  },
  "3112": {
    "bn": {
      "division": "সিলেট",
      "district": "সিলেট",
      "thana": "সিলেট সদর",
      "suboffice": "কামালবাজার",
      "postcode": "৩১১২"
    },
    "en": {
      "division": "Sylhet",
      "district": "Sylhet",
      "thana": "Sylhet Sadar",
      "suboffice": "Kamalbazer",
      "postcode": 3112
    }
  },
  "3113": {
    "bn": {
      "division": "সিলেট",
      "district": "সিলেট",
      "thana": "সিলেট সদর",
      "suboffice": "লালবাজার",
      "postcode": "৩১১৩"
    },
    "en": {
      "division": "Sylhet",
      "district": "Sylhet",
      "thana": "Sylhet Sadar",
      "suboffice": "Lalbazar",
      "postcode": 3113
    }
  },
  "3114": {
    "bn": {
      "division": "সিলেট",
      "district": "সিলেট",
      "thana": "সিলেট সদর",
      "suboffice": "শাহ্‌জালাল বিজ্ঞান ও প্রযুক্তি",
      "postcode": "৩১১৪"
    },
    "en": {
      "division": "Sylhet",
      "district": "Sylhet",
      "thana": "Sylhet Sadar",
      "suboffice": "Shahajalal Science &amp;",
      "postcode": 3114
    }
  },
  "3116": {
    "bn": {
      "division": "সিলেট",
      "district": "সিলেট",
      "thana": "ফেঞ্চুগঞ্জ",
      "suboffice": "ফেঞ্চুগঞ্জ",
      "postcode": "৩১১৬"
    },
    "en": {
      "division": "Sylhet",
      "district": "Sylhet",
      "thana": "Fenchuganj",
      "suboffice": "Fenchuganj",
      "postcode": 3116
    }
  },
  "3117": {
    "bn": {
      "division": "সিলেট",
      "district": "সিলেট",
      "thana": "ফেঞ্চুগঞ্জ",
      "suboffice": "ফেঞ্চুগঞ্জ সার কারখানা",
      "postcode": "৩১১৭"
    },
    "en": {
      "division": "Sylhet",
      "district": "Sylhet",
      "thana": "Fenchuganj",
      "suboffice": "Fenchuganj SareKarkh",
      "postcode": 3117
    }
  },
  "3120": {
    "bn": {
      "division": "সিলেট",
      "district": "সিলেট",
      "thana": "বালাগঞ্জ",
      "suboffice": "বালাগঞ্জ",
      "postcode": "৩১২০"
    },
    "en": {
      "division": "Sylhet",
      "district": "Sylhet",
      "thana": "Balaganj",
      "suboffice": "Balaganj",
      "postcode": 3120
    }
  },
  "3121": {
    "bn": {
      "division": "সিলেট",
      "district": "সিলেট",
      "thana": "বালাগঞ্জ",
      "suboffice": "করুয়া",
      "postcode": "৩১২১"
    },
    "en": {
      "division": "Sylhet",
      "district": "Sylhet",
      "thana": "Balaganj",
      "suboffice": "Karua",
      "postcode": 3121
    }
  },
  "3122": {
    "bn": {
      "division": "সিলেট",
      "district": "সিলেট",
      "thana": "বালাগঞ্জ",
      "suboffice": "ব্রহ্ম শাসন",
      "postcode": "৩১২২"
    },
    "en": {
      "division": "Sylhet",
      "district": "Sylhet",
      "thana": "Balaganj",
      "suboffice": "Brahman Shashon",
      "postcode": 3122
    }
  },
  "3123": {
    "bn": {
      "division": "সিলেট",
      "district": "সিলেট",
      "thana": "বালাগঞ্জ",
      "suboffice": "তাজপুর",
      "postcode": "৩১২৩"
    },
    "en": {
      "division": "Sylhet",
      "district": "Sylhet",
      "thana": "Balaganj",
      "suboffice": "Tajpur",
      "postcode": 3123
    }
  },
  "3124": {
    "bn": {
      "division": "সিলেট",
      "district": "সিলেট",
      "thana": "বালাগঞ্জ",
      "suboffice": "গোয়ালা বাজার",
      "postcode": "৩১২৪"
    },
    "en": {
      "division": "Sylhet",
      "district": "Sylhet",
      "thana": "Balaganj",
      "suboffice": "Goala Bazar",
      "postcode": 3124
    }
  },
  "3125": {
    "bn": {
      "division": "সিলেট",
      "district": "সিলেট",
      "thana": "বালাগঞ্জ",
      "suboffice": "বেগমপুর",
      "postcode": "৩১২৫"
    },
    "en": {
      "division": "Sylhet",
      "district": "Sylhet",
      "thana": "Balaganj",
      "suboffice": "Begumpur",
      "postcode": 3125
    }
  },
  "3126": {
    "bn": {
      "division": "সিলেট",
      "district": "সিলেট",
      "thana": "বালাগঞ্জ",
      "suboffice": "ওমরপুর",
      "postcode": "৩১২৬"
    },
    "en": {
      "division": "Sylhet",
      "district": "Sylhet",
      "thana": "Balaganj",
      "suboffice": "Omarpur",
      "postcode": 3126
    }
  },
  "3127": {
    "bn": {
      "division": "সিলেট",
      "district": "সিলেট",
      "thana": "বালাগঞ্জ",
      "suboffice": "কাঁঠাল খাইর",
      "postcode": "৩১২৭"
    },
    "en": {
      "division": "Sylhet",
      "district": "Sylhet",
      "thana": "Balaganj",
      "suboffice": "Kathal Khair",
      "postcode": 3127
    }
  },
  "3128": {
    "bn": {
      "division": "সিলেট",
      "district": "সিলেট",
      "thana": "বালাগঞ্জ",
      "suboffice": "গহরপুর",
      "postcode": "৩১২৮"
    },
    "en": {
      "division": "Sylhet",
      "district": "Sylhet",
      "thana": "Balaganj",
      "suboffice": "Gaharpur",
      "postcode": 3128
    }
  },
  "3129": {
    "bn": {
      "division": "সিলেট",
      "district": "সিলেট",
      "thana": "বালাগঞ্জ",
      "suboffice": "নতুন বাজার",
      "postcode": "৩১২৯"
    },
    "en": {
      "division": "Sylhet",
      "district": "Sylhet",
      "thana": "Balaganj",
      "suboffice": "Natun Bazar",
      "postcode": 3129
    }
  },
  "3130": {
    "bn": {
      "division": "সিলেট",
      "district": "সিলেট",
      "thana": "বিশ্বনাথ",
      "suboffice": "বিশ্বনাথ",
      "postcode": "৩১৩০"
    },
    "en": {
      "division": "Sylhet",
      "district": "Sylhet",
      "thana": "Bishwanath",
      "suboffice": "Bishwanath",
      "postcode": 3130
    }
  },
  "3131": {
    "bn": {
      "division": "সিলেট",
      "district": "সিলেট",
      "thana": "বিশ্বনাথ",
      "suboffice": "দশঘর",
      "postcode": "৩১৩১"
    },
    "en": {
      "division": "Sylhet",
      "district": "Sylhet",
      "thana": "Bishwanath",
      "suboffice": "Dashghar",
      "postcode": 3131
    }
  },
  "3132": {
    "bn": {
      "division": "সিলেট",
      "district": "সিলেট",
      "thana": "বিশ্বনাথ",
      "suboffice": "দৌলতপুর",
      "postcode": "৩১৩২"
    },
    "en": {
      "division": "Sylhet",
      "district": "Sylhet",
      "thana": "Bishwanath",
      "suboffice": "Doulatpur",
      "postcode": 3132
    }
  },
  "3133": {
    "bn": {
      "division": "সিলেট",
      "district": "সিলেট",
      "thana": "বিশ্বনাথ",
      "suboffice": "দেওকলস",
      "postcode": "৩১৩৩"
    },
    "en": {
      "division": "Sylhet",
      "district": "Sylhet",
      "thana": "Bishwanath",
      "suboffice": "Deokalas",
      "postcode": 3133
    }
  },
  "3134": {
    "bn": {
      "division": "সিলেট",
      "district": "সিলেট",
      "thana": "বিশ্বনাথ",
      "suboffice": "সিঙ্গার কাঞ্চ",
      "postcode": "৩১৩৪"
    },
    "en": {
      "division": "Sylhet",
      "district": "Sylhet",
      "thana": "Bishwanath",
      "suboffice": "Singer kanch",
      "postcode": 3134
    }
  },
  "3140": {
    "bn": {
      "division": "সিলেট",
      "district": "সিলেট",
      "thana": "কোম্পানীগঞ্জ",
      "suboffice": "কোম্পানীগঞ্জ",
      "postcode": "৩১৪০"
    },
    "en": {
      "division": "Sylhet",
      "district": "Sylhet",
      "thana": "Kompanyganj",
      "suboffice": "Companyganj",
      "postcode": 3140
    }
  },
  "3150": {
    "bn": {
      "division": "সিলেট",
      "district": "সিলেট",
      "thana": "গোয়াইনহাট",
      "suboffice": "গোয়াইনহাট",
      "postcode": "৩১৫০"
    },
    "en": {
      "division": "Sylhet",
      "district": "Sylhet",
      "thana": "Goainghat",
      "suboffice": "Goainghat",
      "postcode": 3150
    }
  },
  "3151": {
    "bn": {
      "division": "সিলেট",
      "district": "সিলেট",
      "thana": "গোয়াইনহাট",
      "suboffice": "জাফলং",
      "postcode": "৩১৫১"
    },
    "en": {
      "division": "Sylhet",
      "district": "Sylhet",
      "thana": "Goainghat",
      "suboffice": "Jaflong",
      "postcode": 3151
    }
  },
  "3152": {
    "bn": {
      "division": "সিলেট",
      "district": "সিলেট",
      "thana": "গোয়াইনহাট",
      "suboffice": "চিকনাগুলি",
      "postcode": "৩১৫২"
    },
    "en": {
      "division": "Sylhet",
      "district": "Sylhet",
      "thana": "Goainghat",
      "suboffice": "Chiknagul",
      "postcode": 3152
    }
  },
  "3156": {
    "bn": {
      "division": "সিলেট",
      "district": "সিলেট",
      "thana": "জৈন্তাপুর",
      "suboffice": "জৈন্তাপুর",
      "postcode": "৩১৫৬"
    },
    "en": {
      "division": "Sylhet",
      "district": "Sylhet",
      "thana": "Jaintapur",
      "suboffice": "Jaintapur",
      "postcode": 3156
    }
  },
  "3160": {
    "bn": {
      "division": "সিলেট",
      "district": "সিলেট",
      "thana": "গোলাপগঞ্জ",
      "suboffice": "গোলাপগঞ্জ",
      "postcode": "৩১৬০"
    },
    "en": {
      "division": "Sylhet",
      "district": "Sylhet",
      "thana": "Golapganj",
      "suboffice": "Golapganj",
      "postcode": 3160
    }
  },
  "3161": {
    "bn": {
      "division": "সিলেট",
      "district": "সিলেট",
      "thana": "গোলাপগঞ্জ",
      "suboffice": "ঢাকা দক্ষিণ",
      "postcode": "৩১৬১"
    },
    "en": {
      "division": "Sylhet",
      "district": "Sylhet",
      "thana": "Golapganj",
      "suboffice": "Dhaka Dakkshin",
      "postcode": 3161
    }
  },
  "3162": {
    "bn": {
      "division": "সিলেট",
      "district": "সিলেট",
      "thana": "গোলাপগঞ্জ",
      "suboffice": "দক্ষিণ ভাদাশরে",
      "postcode": "৩১৬২"
    },
    "en": {
      "division": "Sylhet",
      "district": "Sylhet",
      "thana": "Golapganj",
      "suboffice": "Dakkhin Bhadashore",
      "postcode": 3162
    }
  },
  "3163": {
    "bn": {
      "division": "সিলেট",
      "district": "সিলেট",
      "thana": "গোলাপগঞ্জ",
      "suboffice": "রানাপিং",
      "postcode": "৩১৬৩"
    },
    "en": {
      "division": "Sylhet",
      "district": "Sylhet",
      "thana": "Golapganj",
      "suboffice": "Ranaping",
      "postcode": 3163
    }
  },
  "3164": {
    "bn": {
      "division": "সিলেট",
      "district": "সিলেট",
      "thana": "গোলাপগঞ্জ",
      "suboffice": "বাণীগ্রাম",
      "postcode": "৩১৬৪"
    },
    "en": {
      "division": "Sylhet",
      "district": "Sylhet",
      "thana": "Golapganj",
      "suboffice": "Banigram",
      "postcode": 3164
    }
  },
  "3165": {
    "bn": {
      "division": "সিলেট",
      "district": "সিলেট",
      "thana": "গোলাপগঞ্জ",
      "suboffice": "চন্দনপুর",
      "postcode": "৩১৬৫"
    },
    "en": {
      "division": "Sylhet",
      "district": "Sylhet",
      "thana": "Golapganj",
      "suboffice": "Chandanpur",
      "postcode": 3165
    }
  },
  "3170": {
    "bn": {
      "division": "সিলেট",
      "district": "সিলেট",
      "thana": "বিয়ানীবাজার",
      "suboffice": "বিয়ানীবাজার",
      "postcode": "৩১৭০"
    },
    "en": {
      "division": "Sylhet",
      "district": "Sylhet",
      "thana": "Bianibazar",
      "suboffice": "Bianibazar",
      "postcode": 3170
    }
  },
  "3171": {
    "bn": {
      "division": "সিলেট",
      "district": "সিলেট",
      "thana": "বিয়ানীবাজার",
      "suboffice": "জলঢুপ",
      "postcode": "৩১৭১"
    },
    "en": {
      "division": "Sylhet",
      "district": "Sylhet",
      "thana": "Bianibazar",
      "suboffice": "jaldup",
      "postcode": 3171
    }
  },
  "3172": {
    "bn": {
      "division": "সিলেট",
      "district": "সিলেট",
      "thana": "বিয়ানীবাজার",
      "suboffice": "মাথিউরা",
      "postcode": "৩১৭২"
    },
    "en": {
      "division": "Sylhet",
      "district": "Sylhet",
      "thana": "Bianibazar",
      "suboffice": "Mathiura",
      "postcode": 3172
    }
  },
  "3173": {
    "bn": {
      "division": "সিলেট",
      "district": "সিলেট",
      "thana": "বিয়ানীবাজার",
      "suboffice": "কুড়ার বাজার",
      "postcode": "৩১৭৩"
    },
    "en": {
      "division": "Sylhet",
      "district": "Sylhet",
      "thana": "Bianibazar",
      "suboffice": "Kurar bazar",
      "postcode": 3173
    }
  },
  "3174": {
    "bn": {
      "division": "সিলেট",
      "district": "সিলেট",
      "thana": "বিয়ানীবাজার",
      "suboffice": "সালিয়া বাজার",
      "postcode": "৩১৭৪"
    },
    "en": {
      "division": "Sylhet",
      "district": "Sylhet",
      "thana": "Bianibazar",
      "suboffice": "Salia bazar",
      "postcode": 3174
    }
  },
  "3175": {
    "bn": {
      "division": "সিলেট",
      "district": "সিলেট",
      "thana": "বিয়ানীবাজার",
      "suboffice": "চারখাই",
      "postcode": "৩১৭৫"
    },
    "en": {
      "division": "Sylhet",
      "district": "Sylhet",
      "thana": "Bianibazar",
      "suboffice": "Churkai",
      "postcode": 3175
    }
  },
  "3180": {
    "bn": {
      "division": "সিলেট",
      "district": "সিলেট",
      "thana": "কানাইঘাট",
      "suboffice": "কানাইঘাট",
      "postcode": "৩১৮০"
    },
    "en": {
      "division": "Sylhet",
      "district": "Sylhet",
      "thana": "Kanaighat",
      "suboffice": "Kanaighat",
      "postcode": 3180
    }
  },
  "3181": {
    "bn": {
      "division": "সিলেট",
      "district": "সিলেট",
      "thana": "কানাইঘাট",
      "suboffice": "চটুলবাজার",
      "postcode": "৩১৮১"
    },
    "en": {
      "division": "Sylhet",
      "district": "Sylhet",
      "thana": "Kanaighat",
      "suboffice": "Chatulbazar",
      "postcode": 3181
    }
  },
  "3182": {
    "bn": {
      "division": "সিলেট",
      "district": "সিলেট",
      "thana": "কানাইঘাট",
      "suboffice": "মানিকগঞ্জ",
      "postcode": "৩১৮২"
    },
    "en": {
      "division": "Sylhet",
      "district": "Sylhet",
      "thana": "Kanaighat",
      "suboffice": "Manikganj",
      "postcode": 3182
    }
  },
  "3183": {
    "bn": {
      "division": "সিলেট",
      "district": "সিলেট",
      "thana": "কানাইঘাট",
      "suboffice": "গাছবাড়ী",
      "postcode": "৩১৮৩"
    },
    "en": {
      "division": "Sylhet",
      "district": "Sylhet",
      "thana": "Kanaighat",
      "suboffice": "Gachbari",
      "postcode": 3183
    }
  },
  "3190": {
    "bn": {
      "division": "সিলেট",
      "district": "সিলেট",
      "thana": "জকিগঞ্জ",
      "suboffice": "জকিগঞ্জ",
      "postcode": "৩১৯০"
    },
    "en": {
      "division": "Sylhet",
      "district": "Sylhet",
      "thana": "Jakiganj",
      "suboffice": "Jakiganj",
      "postcode": 3190
    }
  },
  "3191": {
    "bn": {
      "division": "সিলেট",
      "district": "সিলেট",
      "thana": "জকিগঞ্জ",
      "suboffice": "ইছামতি",
      "postcode": "৩১৯১"
    },
    "en": {
      "division": "Sylhet",
      "district": "Sylhet",
      "thana": "Jakiganj",
      "suboffice": "Ichhamati",
      "postcode": 3191
    }
  }
}
