{
  "2000": {
    "bn": {
      "division": "ময়মনসিংহ",
      "district": "জামালপুর",
      "thana": "জামালপুর",
      "suboffice": "জামালপুর",
      "postcode": "২০০০"
    },
    "en": {
      "division": "Mymensingh",
      "district": "Jamalpur",
      "thana": "Jamalpur",
      "suboffice": "Jalalpur",
      "postcode": 2000
    }
  },
  "2001": {
    "bn": {
      "division": "ময়মনসিংহ",
      "district": "জামালপুর",
      "thana": "জামালপুর",
      "suboffice": "নানদিনা",
      "postcode": "২০০১"
    },
    "en": {
      "division": "Mymensingh",
      "district": "Jamalpur",
      "thana": "Jamalpur",
      "suboffice": "Nandina",
      "postcode": 2001
    }
  },
  "2002": {
    "bn": {
      "division": "ময়মনসিংহ",
      "district": "জামালপুর",
      "thana": "জামালপুর",
      "suboffice": "নুরুন্দী",
      "postcode": "২০০২"
    },
    "en": {
      "division": "Mymensingh",
      "district": "Jamalpur",
      "thana": "Jamalpur",
      "suboffice": "Narundi",
      "postcode": 2002
    }
  },
  "2010": {
    "bn": {
      "division": "ময়মনসিংহ",
      "district": "জামালপুর",
      "thana": "মেলান্দহ",
      "suboffice": "মেলান্দহ",
      "postcode": "২০১০"
    },
    "en": {
      "division": "Mymensingh",
      "district": "Jamalpur",
      "thana": "Melandah",
      "suboffice": "Melandah",
      "postcode": 2010
    }
  },
  "2011": {
    "bn": {
      "division": "ময়মনসিংহ",
      "district": "জামালপুর",
      "thana": "মেলান্দহ",
      "suboffice": "জামালপুর",
      "postcode": "২০১১"
    },
    "en": {
      "division": "Mymensingh",
      "district": "Jamalpur",
      "thana": "Melandah",
      "suboffice": "Jalalpur",
      "postcode": 2011
    }
  },
  "2012": {
    "bn": {
      "division": "ময়মনসিংহ",
      "district": "জামালপুর",
      "thana": "মেলান্দহ",
      "suboffice": "মালঞ্চ",
      "postcode": "২০১২"
    },
    "en": {
      "division": "Mymensingh",
      "district": "Jamalpur",
      "thana": "Melandah",
      "suboffice": "Malancha",
      "postcode": 2012
    }
  },
  "2013": {
    "bn": {
      "division": "ময়মনসিংহ",
      "district": "জামালপুর",
      "thana": "মেলান্দহ",
      "suboffice": "মাহমুদপুর",
      "postcode": "২০১৩"
    },
    "en": {
      "division": "Mymensingh",
      "district": "Jamalpur",
      "thana": "Melandah",
      "suboffice": "Mahmudpur",
      "postcode": 2013
    }
  },
  "2020": {
    "bn": {
      "division": "ময়মনসিংহ",
      "district": "জামালপুর",
      "thana": "ইসলামপুর",
      "suboffice": "ইসলামপুর",
      "postcode": "২০২০"
    },
    "en": {
      "division": "Mymensingh",
      "district": "Jamalpur",
      "thana": "Islampur",
      "suboffice": "Islampur",
      "postcode": 2020
    }
  },
  "2021": {
    "bn": {
      "division": "ময়মনসিংহ",
      "district": "জামালপুর",
      "thana": "ইসলামপুর",
      "suboffice": "ডুরমোট",
      "postcode": "২০২১"
    },
    "en": {
      "division": "Mymensingh",
      "district": "Jamalpur",
      "thana": "Islampur",
      "suboffice": "Durmoot",
      "postcode": 2021
    }
  },
  "2022": {
    "bn": {
      "division": "ময়মনসিংহ",
      "district": "জামালপুর",
      "thana": "ইসলামপুর",
      "suboffice": "গিলাবাড়ি",
      "postcode": "২০২২"
    },
    "en": {
      "division": "Mymensingh",
      "district": "Jamalpur",
      "thana": "Islampur",
      "suboffice": "Gilabari",
      "postcode": 2022
    }
  },
  "2030": {
    "bn": {
      "division": "ময়মনসিংহ",
      "district": "জামালপুর",
      "thana": "দেওয়ানগঞ্জ",
      "suboffice": "দেওয়ানগঞ্জ",
      "postcode": "২০৩০"
    },
    "en": {
      "division": "Mymensingh",
      "district": "Jamalpur",
      "thana": "Dewangonj",
      "suboffice": "Dewangonj S. Mills",
      "postcode": 2030
    }
  },
  "2031": {
    "bn": {
      "division": "ময়মনসিংহ",
      "district": "জামালপুর",
      "thana": "দেওয়ানগঞ্জ",
      "suboffice": "দেওয়ানগঞ্জ এস মিলস",
      "postcode": "২০৩১"
    },
    "en": {
      "division": "Mymensingh",
      "district": "Jamalpur",
      "thana": "Dewangonj",
      "suboffice": "Dewangonj S. Mills",
      "postcode": 2031
    }
  },
  "2040": {
    "bn": {
      "division": "ময়মনসিংহ",
      "district": "জামালপুর",
      "thana": "মাদারগঞ্জ",
      "suboffice": "মাদারগঞ্জ",
      "postcode": "২০৪০"
    },
    "en": {
      "division": "Mymensingh",
      "district": "Jamalpur",
      "thana": "Madarganj",
      "suboffice": "Madarganj",
      "postcode": 2040
    }
  },
  "2041": {
    "bn": {
      "division": "ময়মনসিংহ",
      "district": "জামালপুর",
      "thana": "মাদারগঞ্জ",
      "suboffice": "বালিঝুড়ি",
      "postcode": "২০৪১"
    },
    "en": {
      "division": "Mymensingh",
      "district": "Jamalpur",
      "thana": "Madarganj",
      "suboffice": "Balijhuri",
      "postcode": 2041
    }
  },
  "2050": {
    "bn": {
      "division": "ময়মনসিংহ",
      "district": "জামালপুর",
      "thana": "সরিষাবাড়ি",
      "suboffice": "সরিষাবাড়ি",
      "postcode": "২০৫০"
    },
    "en": {
      "division": "Mymensingh",
      "district": "Jamalpur",
      "thana": "Sharishabari",
      "suboffice": "Sharishabari",
      "postcode": 2050
    }
  },
  "2051": {
    "bn": {
      "division": "ময়মনসিংহ",
      "district": "জামালপুর",
      "thana": "সরিষাবাড়ি",
      "suboffice": "গুনেরবাড়ি",
      "postcode": "২০৫১"
    },
    "en": {
      "division": "Mymensingh",
      "district": "Jamalpur",
      "thana": "Sharishabari",
      "suboffice": "Adarvita",
      "postcode": 2051
    }
  },
  "2052": {
    "bn": {
      "division": "ময়মনসিংহ",
      "district": "জামালপুর",
      "thana": "সরিষাবাড়ি",
      "suboffice": "বাউসী",
      "postcode": "২০৫২"
    },
    "en": {
      "division": "Mymensingh",
      "district": "Jamalpur",
      "thana": "Sharishabari",
      "suboffice": "Bausee",
      "postcode": 2052
    }
  },
  "2053": {
    "bn": {
      "division": "ময়মনসিংহ",
      "district": "জামালপুর",
      "thana": "সরিষাবাড়ি",
      "suboffice": "জগন্নাথ ঘাট",
      "postcode": "২০৫৩"
    },
    "en": {
      "division": "Mymensingh",
      "district": "Jamalpur",
      "thana": "Sharishabari",
      "suboffice": "Jagannath Ghat",
      "postcode": 2053
    }
  },
  "2054": {
    "bn": {
      "division": "ময়মনসিংহ",
      "district": "জামালপুর",
      "thana": "সরিষাবাড়ি",
      "suboffice": "পিংনা",
      "postcode": "২০৫৪"
    },
    "en": {
      "division": "Mymensingh",
      "district": "Jamalpur",
      "thana": "Sharishabari",
      "suboffice": "Pingna",
      "postcode": 2054
    }
  },
  "2055": {
    "bn": {
      "division": "ময়মনসিংহ",
      "district": "জামালপুর",
      "thana": "সরিষাবাড়ি",
      "suboffice": "যমুনা সার কারখানা",
      "postcode": "২০৫৫"
    },
    "en": {
      "division": "Mymensingh",
      "district": "Jamalpur",
      "thana": "Sharishabari",
      "suboffice": "Jamuna Sar Karkhana",
      "postcode": 2055
    }
  }
}
