{
  "5800": {
    "bn": {
      "division": "রাজশাহী",
      "district": "বগুড়া",
      "thana": "বগুড়া সদর",
      "suboffice": "বগুড়া সদর",
      "postcode": "৫৮০০"
    },
    "en": {
      "division": "Rajshahi",
      "district": "Bogura",
      "thana": "Bogura Sadar",
      "suboffice": "Bogura Sadar",
      "postcode": 5800
    }
  },
  "5801": {
    "bn": {
      "division": "রাজশাহী",
      "district": "বগুড়া",
      "thana": "বগুড়া সদর",
      "suboffice": "বগুড়া সেনানিবাস",
      "postcode": "৫৮০১"
    },
    "en": {
      "division": "Rajshahi",
      "district": "Bogura",
      "thana": "Bogura Sadar",
      "suboffice": "Bogura Canttonment",
      "postcode": 5801
    }
  },
  "5810": {
    "bn": {
      "division": "রাজশাহী",
      "district": "বগুড়া",
      "thana": "শিবগঞ্জ",
      "suboffice": "শিবগঞ্জ",
      "postcode": "৫৮১০"
    },
    "en": {
      "division": "Rajshahi",
      "district": "Bogura",
      "thana": "Shibganj",
      "suboffice": "Shibganj",
      "postcode": 5810
    }
  },
  "5820": {
    "bn": {
      "division": "রাজশাহী",
      "district": "বগুড়া",
      "thana": "গাবতলী",
      "suboffice": "গাবতলী",
      "postcode": "৫৮২০"
    },
    "en": {
      "division": "Rajshahi",
      "district": "Bogura",
      "thana": "Gabtoli",
      "suboffice": "-",
      "postcode": 5820
    }
  },
  "5821": {
    "bn": {
      "division": "রাজশাহী",
      "district": "বগুড়া",
      "thana": "গাবতলী",
      "suboffice": "সুখানপুকুর",
      "postcode": "৫৮২১"
    },
    "en": {
      "division": "Rajshahi",
      "district": "Bogura",
      "thana": "Gabtoli",
      "suboffice": "Sukhanpukur",
      "postcode": 5821
    }
  },
  "5826": {
    "bn": {
      "division": "রাজশাহী",
      "district": "বগুড়া",
      "thana": "সোনাতলা",
      "suboffice": "সোনাতলা",
      "postcode": "৫৮২৬"
    },
    "en": {
      "division": "Rajshahi",
      "district": "Bogura",
      "thana": "Sonatola",
      "suboffice": "Sonatola",
      "postcode": 5826
    }
  },
  "5830": {
    "bn": {
      "division": "রাজশাহী",
      "district": "বগুড়া",
      "thana": "সারিয়াকান্দি",
      "suboffice": "সারিয়াকান্দি",
      "postcode": "৫৮৩০"
    },
    "en": {
      "division": "Rajshahi",
      "district": "Bogura",
      "thana": "Sariakandi",
      "suboffice": "Sariakandi",
      "postcode": 5830
    }
  },
  "5831": {
    "bn": {
      "division": "রাজশাহী",
      "district": "বগুড়া",
      "thana": "সারিয়াকান্দি",
      "suboffice": "চন্দন বাইশা",
      "postcode": "৫৮৩১"
    },
    "en": {
      "division": "Rajshahi",
      "district": "Bogura",
      "thana": "Sariakandi",
      "suboffice": "Chandan Baisha",
      "postcode": 5831
    }
  },
  "5840": {
    "bn": {
      "division": "রাজশাহী",
      "district": "বগুড়া",
      "thana": "শেরপুর",
      "suboffice": "শেরপুর",
      "postcode": "৫৮৪০"
    },
    "en": {
      "division": "Rajshahi",
      "district": "Bogura",
      "thana": "Sherpur",
      "suboffice": "Sherpur",
      "postcode": 5840
    }
  },
  "5841": {
    "bn": {
      "division": "রাজশাহী",
      "district": "বগুড়া",
      "thana": "শেরপুর",
      "suboffice": "চান্দাইকোনা",
      "postcode": "৫৮৪১"
    },
    "en": {
      "division": "Rajshahi",
      "district": "Bogura",
      "thana": "Sherpur",
      "suboffice": "Chandaikona",
      "postcode": 5841
    }
  },
  "5842": {
    "bn": {
      "division": "রাজশাহী",
      "district": "বগুড়া",
      "thana": "শেরপুর",
      "suboffice": "পল্লী উন্নয়ন একাডেমী",
      "postcode": "৫৮৪২"
    },
    "en": {
      "division": "Rajshahi",
      "district": "Bogura",
      "thana": "Sherpur",
      "suboffice": "Palli Unnyan Accadem",
      "postcode": 5842
    }
  },
  "5850": {
    "bn": {
      "division": "রাজশাহী",
      "district": "বগুড়া",
      "thana": "ধুনট",
      "suboffice": "ধুনট",
      "postcode": "৫৮৫০"
    },
    "en": {
      "division": "Rajshahi",
      "district": "Bogura",
      "thana": "Dhunat",
      "suboffice": "Dhunat",
      "postcode": 5850
    }
  },
  "5851": {
    "bn": {
      "division": "রাজশাহী",
      "district": "বগুড়া",
      "thana": "ধুনট",
      "suboffice": "গোসাইবাড়ি",
      "postcode": "৫৮৫১"
    },
    "en": {
      "division": "Rajshahi",
      "district": "Bogura",
      "thana": "Dhunat",
      "suboffice": "Gosaibari",
      "postcode": 5851
    }
  },
  "5860": {
    "bn": {
      "division": "রাজশাহী",
      "district": "বগুড়া",
      "thana": "নন্দীগ্রাম",
      "suboffice": "নন্দীগ্রাম",
      "postcode": "৫৮৬০"
    },
    "en": {
      "division": "Rajshahi",
      "district": "Bogura",
      "thana": "Nandigram",
      "suboffice": "Nandigram",
      "postcode": 5860
    }
  },
  "5870": {
    "bn": {
      "division": "রাজশাহী",
      "district": "বগুড়া",
      "thana": "কাহালু",
      "suboffice": "কাহালু",
      "postcode": "৫৮৭০"
    },
    "en": {
      "division": "Rajshahi",
      "district": "Bogura",
      "thana": "Kahalu",
      "suboffice": "Kahalu",
      "postcode": 5870
    }
  },
  "5880": {
    "bn": {
      "division": "রাজশাহী",
      "district": "বগুড়া",
      "thana": "দুপচাঁচিয়া",
      "suboffice": "দুপচাঁচিয়া",
      "postcode": "৫৮৮০"
    },
    "en": {
      "division": "Rajshahi",
      "district": "Bogura",
      "thana": "Dupchachia",
      "suboffice": "Dupchanchia",
      "postcode": 5880
    }
  },
  "5881": {
    "bn": {
      "division": "রাজশাহী",
      "district": "বগুড়া",
      "thana": "দুপচাঁচিয়া",
      "suboffice": "তালোড়া",
      "postcode": "৫৮৮১"
    },
    "en": {
      "division": "Rajshahi",
      "district": "Bogura",
      "thana": "Dupchachia",
      "suboffice": "Talora",
      "postcode": 5881
    }
  },
  "5890": {
    "bn": {
      "division": "রাজশাহী",
      "district": "বগুড়া",
      "thana": "আদমদীঘি",
      "suboffice": "আদমদীঘি",
      "postcode": "৫৮৯০"
    },
    "en": {
      "division": "Rajshahi",
      "district": "Bogura",
      "thana": "Adamdighi",
      "suboffice": "Adamdighi",
      "postcode": 5890
    }
  },
  "5891": {
    "bn": {
      "division": "রাজশাহী",
      "district": "বগুড়া",
      "thana": "আদমদীঘি",
      "suboffice": "সান্তাহার",
      "postcode": "৫৮৯১"
    },
    "en": {
      "division": "Rajshahi",
      "district": "Bogura",
      "thana": "Adamdighi",
      "suboffice": "Santahar",
      "postcode": 5891
    }
  },
  "5892": {
    "bn": {
      "division": "রাজশাহী",
      "district": "বগুড়া",
      "thana": "আদমদীঘি",
      "suboffice": "নশরতপুর",
      "postcode": "৫৮৯২"
    },
    "en": {
      "division": "Rajshahi",
      "district": "Bogura",
      "thana": "Adamdighi",
      "suboffice": "Nasharatpur",
      "postcode": 5892
    }
  },
  "5900": {
    "bn": {
      "division": "রাজশাহী",
      "district": "জয়পুরহাট",
      "thana": "জয়পুরহাট সদর",
      "suboffice": "জয়পুরহাট সদর",
      "postcode": "৫৯০০"
    },
    "en": {
      "division": "Rajshahi",
      "district": "Joypurhat",
      "thana": "Joypurhat Sadar",
      "suboffice": "Joypurhat Sadar",
      "postcode": 5900
    }
  },
  "5910": {
    "bn": {
      "division": "রাজশাহী",
      "district": "জয়পুরহাট",
      "thana": "পাঁচবিবি",
      "suboffice": "পাঁচবিবি",
      "postcode": "৫৯১০"
    },
    "en": {
      "division": "Rajshahi",
      "district": "Joypurhat",
      "thana": "panchbibi",
      "suboffice": "Panchbibi",
      "postcode": 5910
    }
  },
  "5920": {
    "bn": {
      "division": "রাজশাহী",
      "district": "জয়পুরহাট",
      "thana": "ক্ষেতলাল",
      "suboffice": "ক্ষেতলাল",
      "postcode": "৫৯২০"
    },
    "en": {
      "division": "Rajshahi",
      "district": "Joypurhat",
      "thana": "Khetlal",
      "suboffice": "Khetlal",
      "postcode": 5920
    }
  },
  "5930": {
    "bn": {
      "division": "রাজশাহী",
      "district": "জয়পুরহাট",
      "thana": "কালাই",
      "suboffice": "কালাই",
      "postcode": "৫৯৩০"
    },
    "en": {
      "division": "Rajshahi",
      "district": "Joypurhat",
      "thana": "kalai",
      "suboffice": "kalai",
      "postcode": 5930
    }
  },
  "5940": {
    "bn": {
      "division": "রাজশাহী",
      "district": "জয়পুরহাট",
      "thana": "আক্কেলপুর",
      "suboffice": "আক্কেলপুর",
      "postcode": "৫৯৪০"
    },
    "en": {
      "division": "Rajshahi",
      "district": "Joypurhat",
      "thana": "Akkelpur",
      "suboffice": "Akklepur",
      "postcode": 5940
    }
  },
  "5941": {
    "bn": {
      "division": "রাজশাহী",
      "district": "জয়পুরহাট",
      "thana": "আক্কেলপুর",
      "suboffice": "জামালগঞ্জ",
      "postcode": "৫৯৪১"
    },
    "en": {
      "division": "Rajshahi",
      "district": "Joypurhat",
      "thana": "Akkelpur",
      "suboffice": "jamalganj",
      "postcode": 5941
    }
  },
  "5942": {
    "bn": {
      "division": "রাজশাহী",
      "district": "জয়পুরহাট",
      "thana": "আক্কেলপুর",
      "suboffice": "তিলকপুর",
      "postcode": "৫৯৪২"
    },
    "en": {
      "division": "Rajshahi",
      "district": "Joypurhat",
      "thana": "Akkelpur",
      "suboffice": "Tilakpur",
      "postcode": 5942
    }
  },
  "6000": {
    "bn": {
      "division": "রাজশাহী",
      "district": "রাজশাহী",
      "thana": "রাজশাহী সদর",
      "suboffice": "রাজশাহী সদর",
      "postcode": "৬০০০"
    },
    "en": {
      "division": "Rajshahi",
      "district": "Rajshahi",
      "thana": "Rajshahi Sadar",
      "suboffice": "Rajshahi Sadar",
      "postcode": 6000
    }
  },
  "6100": {
    "bn": {
      "division": "রাজশাহী",
      "district": "রাজশাহী",
      "thana": "রাজশাহী সদর",
      "suboffice": "ঘোড়ামারা",
      "postcode": "৬১০০"
    },
    "en": {
      "division": "Rajshahi",
      "district": "Rajshahi",
      "thana": "Rajshahi Sadar",
      "suboffice": "Ghuramara",
      "postcode": 6100
    }
  },
  "6201": {
    "bn": {
      "division": "রাজশাহী",
      "district": "রাজশাহী",
      "thana": "রাজশাহী সদর",
      "suboffice": "রাজশাহী কোর্ট",
      "postcode": "৬২০১"
    },
    "en": {
      "division": "Rajshahi",
      "district": "Rajshahi",
      "thana": "Rajshahi Sadar",
      "suboffice": "Rajshahi Court",
      "postcode": 6201
    }
  },
  "6202": {
    "bn": {
      "division": "রাজশাহী",
      "district": "রাজশাহী",
      "thana": "রাজশাহী সদর",
      "suboffice": "রাজশাহী সেনানিবাস",
      "postcode": "৬২০২"
    },
    "en": {
      "division": "Rajshahi",
      "district": "Rajshahi",
      "thana": "Rajshahi Sadar",
      "suboffice": "Rajshahi Canttonment",
      "postcode": 6202
    }
  },
  "6203": {
    "bn": {
      "division": "রাজশাহী",
      "district": "রাজশাহী",
      "thana": "রাজশাহী সদর",
      "suboffice": "সপুরা",
      "postcode": "৬২০৩"
    },
    "en": {
      "division": "Rajshahi",
      "district": "Rajshahi",
      "thana": "Rajshahi Sadar",
      "suboffice": "Sapura",
      "postcode": 6203
    }
  },
  "6204": {
    "bn": {
      "division": "রাজশাহী",
      "district": "রাজশাহী",
      "thana": "রাজশাহী সদর",
      "suboffice": "কাজলা",
      "postcode": "৬২০৪"
    },
    "en": {
      "division": "Rajshahi",
      "district": "Rajshahi",
      "thana": "Rajshahi Sadar",
      "suboffice": "Kazla",
      "postcode": 6204
    }
  },
  "6205": {
    "bn": {
      "division": "রাজশাহী",
      "district": "রাজশাহী",
      "thana": "রাজশাহী সদর",
      "suboffice": "রাজশাহী বিশ্ববিদ্যালয়",
      "postcode": "৬২০৫"
    },
    "en": {
      "division": "Rajshahi",
      "district": "Rajshahi",
      "thana": "Rajshahi Sadar",
      "suboffice": "Rajshahi University",
      "postcode": 6205
    }
  },
  "6206": {
    "bn": {
      "division": "রাজশাহী",
      "district": "রাজশাহী",
      "thana": "রাজশাহী সদর",
      "suboffice": "বিনোদপুর বাজার",
      "postcode": "৬২০৬"
    },
    "en": {
      "division": "Rajshahi",
      "district": "Rajshahi",
      "thana": "Rajshahi Sadar",
      "suboffice": "Binodpur Bazar",
      "postcode": 6206
    }
  },
  "6210": {
    "bn": {
      "division": "রাজশাহী",
      "district": "রাজশাহী",
      "thana": "দর্শনপাড়া",
      "suboffice": "দর্শনপাড়া",
      "postcode": "৬২১০"
    },
    "en": {
      "division": "Rajshahi",
      "district": "Rajshahi",
      "thana": "Lalitganj",
      "suboffice": "Lalitganj",
      "postcode": 6210
    }
  },
  "6211": {
    "bn": {
      "division": "রাজশাহী",
      "district": "রাজশাহী",
      "thana": "ললিতগঞ্জ",
      "suboffice": "রাজশাহী চিনিকল",
      "postcode": "৬২১১"
    },
    "en": {
      "division": "Rajshahi",
      "district": "Rajshahi",
      "thana": "Lalitganj",
      "suboffice": "Rajshahi Sugar Mills",
      "postcode": 6211
    }
  },
  "6212": {
    "bn": {
      "division": "রাজশাহী",
      "district": "রাজশাহী",
      "thana": "ললিতগঞ্জ",
      "suboffice": "শ্যামপুর",
      "postcode": "৬২১২"
    },
    "en": {
      "division": "Rajshahi",
      "district": "Rajshahi",
      "thana": "Lalitganj",
      "suboffice": "Shyampur",
      "postcode": 6212
    }
  },
  "6220": {
    "bn": {
      "division": "রাজশাহী",
      "district": "রাজশাহী",
      "thana": "খোদমোহনপুর",
      "suboffice": "খোদমোহনপুর",
      "postcode": "৬২২০"
    },
    "en": {
      "division": "Rajshahi",
      "district": "Rajshahi",
      "thana": "Khod Mohanpur",
      "suboffice": "Khodmohanpur",
      "postcode": 6220
    }
  },
  "6230": {
    "bn": {
      "division": "রাজশাহী",
      "district": "রাজশাহী",
      "thana": "তানোর",
      "suboffice": "তানোর",
      "postcode": "৬২৩০"
    },
    "en": {
      "division": "Rajshahi",
      "district": "Rajshahi",
      "thana": "Tanor",
      "suboffice": "Tanor",
      "postcode": 6230
    }
  },
  "6240": {
    "bn": {
      "division": "রাজশাহী",
      "district": "রাজশাহী",
      "thana": "দুর্গাপুর",
      "suboffice": "দুর্গাপুর",
      "postcode": "৬২৪০"
    },
    "en": {
      "division": "Rajshahi",
      "district": "Rajshahi",
      "thana": "Durgapur",
      "suboffice": "Durgapur",
      "postcode": 6240
    }
  },
  "6250": {
    "bn": {
      "division": "রাজশাহী",
      "district": "রাজশাহী",
      "thana": "ভবানীগঞ্জ",
      "suboffice": "ভবানীগঞ্জ",
      "postcode": "৬২৫০"
    },
    "en": {
      "division": "Rajshahi",
      "district": "Rajshahi",
      "thana": "Bagmara",
      "suboffice": "Bhabaniganj",
      "postcode": 6250
    }
  },
  "6251": {
    "bn": {
      "division": "রাজশাহী",
      "district": "রাজশাহী",
      "thana": "ভবানীগঞ্জ",
      "suboffice": "তাহেরপুর",
      "postcode": "৬২৫১"
    },
    "en": {
      "division": "Rajshahi",
      "district": "Rajshahi",
      "thana": "Bagmara",
      "suboffice": "Taharpur",
      "postcode": 6251
    }
  },
  "6260": {
    "bn": {
      "division": "রাজশাহী",
      "district": "রাজশাহী",
      "thana": "পুঠিয়া",
      "suboffice": "পুঠিয়া",
      "postcode": "৬২৬০"
    },
    "en": {
      "division": "Rajshahi",
      "district": "Rajshahi",
      "thana": "Putia",
      "suboffice": "Putia",
      "postcode": 6260
    }
  },
  "6270": {
    "bn": {
      "division": "রাজশাহী",
      "district": "রাজশাহী",
      "thana": "চারঘাট",
      "suboffice": "চারঘাট",
      "postcode": "৬২৭০"
    },
    "en": {
      "division": "Rajshahi",
      "district": "Rajshahi",
      "thana": "Charghat",
      "suboffice": "Charghat",
      "postcode": 6270
    }
  },
  "6271": {
    "bn": {
      "division": "রাজশাহী",
      "district": "রাজশাহী",
      "thana": "চারঘাট",
      "suboffice": "সারদা",
      "postcode": "৬২৭১"
    },
    "en": {
      "division": "Rajshahi",
      "district": "Rajshahi",
      "thana": "Charghat",
      "suboffice": "Sarda",
      "postcode": 6271
    }
  },
  "6280": {
    "bn": {
      "division": "রাজশাহী",
      "district": "রাজশাহী",
      "thana": "বাঘা",
      "suboffice": "বাঘা",
      "postcode": "৬২৮০"
    },
    "en": {
      "division": "Rajshahi",
      "district": "Rajshahi",
      "thana": "Bagha",
      "suboffice": "Bagha",
      "postcode": 6280
    }
  },
  "6281": {
    "bn": {
      "division": "রাজশাহী",
      "district": "রাজশাহী",
      "thana": "বাঘা",
      "suboffice": "আড়ানী",
      "postcode": "৬২৮১"
    },
    "en": {
      "division": "Rajshahi",
      "district": "Rajshahi",
      "thana": "Bagha",
      "suboffice": "Arani",
      "postcode": 6281
    }
  },
  "6290": {
    "bn": {
      "division": "রাজশাহী",
      "district": "রাজশাহী",
      "thana": "গোদাগাড়ী",
      "suboffice": "গোদাগাড়ী",
      "postcode": "৬২৯০"
    },
    "en": {
      "division": "Rajshahi",
      "district": "Rajshahi",
      "thana": "Godagari",
      "suboffice": "Godagari",
      "postcode": 6290
    }
  },
  "6291": {
    "bn": {
      "division": "রাজশাহী",
      "district": "রাজশাহী",
      "thana": "গোদাগাড়ী",
      "suboffice": "প্রেমতলী",
      "postcode": "৬২৯১"
    },
    "en": {
      "division": "Rajshahi",
      "district": "Rajshahi",
      "thana": "Godagari",
      "suboffice": "Premtoli",
      "postcode": 6291
    }
  },
  "6300": {
    "bn": {
      "division": "রাজশাহী",
      "district": "চাঁপাইনবাবগঞ্জ",
      "thana": "চাঁপাইনবাবগঞ্জ সদর",
      "suboffice": "চাঁপাইনবাবগঞ্জ সদর",
      "postcode": "৬৩০০"
    },
    "en": {
      "division": "Rajshahi",
      "district": "Chapai Nawabganj",
      "thana": "Chapai Nawabganj Sadar",
      "suboffice": "Chapai Nawabganj Sadar",
      "postcode": 6300
    }
  },
  "6301": {
    "bn": {
      "division": "রাজশাহী",
      "district": "চাঁপাইনবাবগঞ্জ",
      "thana": "চাঁপাইনবাবগঞ্জ সদর",
      "suboffice": "রাজারামপুর",
      "postcode": "৬৩০১"
    },
    "en": {
      "division": "Rajshahi",
      "district": "Chapai Nawabganj",
      "thana": "Chapai Nawabganj Sadar",
      "suboffice": "Rajarampur",
      "postcode": 6301
    }
  },
  "6302": {
    "bn": {
      "division": "রাজশাহী",
      "district": "চাঁপাইনবাবগঞ্জ",
      "thana": "চাঁপাইনবাবগঞ্জ সদর",
      "suboffice": "রামচন্দ্রপুর",
      "postcode": "৬৩০২"
    },
    "en": {
      "division": "Rajshahi",
      "district": "Chapai Nawabganj",
      "thana": "Chapai Nawabganj Sadar",
      "suboffice": "Ramchandarpur",
      "postcode": 6302
    }
  },
  "6303": {
    "bn": {
      "division": "রাজশাহী",
      "district": "চাঁপাইনবাবগঞ্জ",
      "thana": "চাঁপাইনবাবগঞ্জ সদর",
      "suboffice": "আমনুরা",
      "postcode": "৬৩০৩"
    },
    "en": {
      "division": "Rajshahi",
      "district": "Chapai Nawabganj",
      "thana": "Chapai Nawabganj Sadar",
      "suboffice": "Amnura",
      "postcode": 6303
    }
  },
  "6310": {
    "bn": {
      "division": "রাজশাহী",
      "district": "চাঁপাইনবাবগঞ্জ",
      "thana": "নাচোল",
      "suboffice": "নাচোল",
      "postcode": "৬৩১০"
    },
    "en": {
      "division": "Rajshahi",
      "district": "Chapai Nawabganj",
      "thana": "Nachol",
      "suboffice": "Nachol",
      "postcode": 6310
    }
  },
  "6311": {
    "bn": {
      "division": "রাজশাহী",
      "district": "চাঁপাইনবাবগঞ্জ",
      "thana": "নাচোল",
      "suboffice": "মন্ডুমালা",
      "postcode": "৬৩১১"
    },
    "en": {
      "division": "Rajshahi",
      "district": "Chapai Nawabganj",
      "thana": "Nachol",
      "suboffice": "Mandumala",
      "postcode": 6311
    }
  },
  "6320": {
    "bn": {
      "division": "রাজশাহী",
      "district": "চাঁপাইনবাবগঞ্জ",
      "thana": "রোহনপুর",
      "suboffice": "রোহনপুর",
      "postcode": "৬৩২০"
    },
    "en": {
      "division": "Rajshahi",
      "district": "Chapai Nawabganj",
      "thana": "Rohanpur",
      "suboffice": "Rohanpur",
      "postcode": 6320
    }
  },
  "6321": {
    "bn": {
      "division": "রাজশাহী",
      "district": "চাঁপাইনবাবগঞ্জ",
      "thana": "রোহনপুর",
      "suboffice": "গোমস্তাপুর",
      "postcode": "৬৩২১"
    },
    "en": {
      "division": "Rajshahi",
      "district": "Chapai Nawabganj",
      "thana": "Rohanpur",
      "suboffice": "Gomashtapur",
      "postcode": 6321
    }
  },
  "6330": {
    "bn": {
      "division": "রাজশাহী",
      "district": "চাঁপাইনবাবগঞ্জ",
      "thana": "ভোলাহাট",
      "suboffice": "ভোলাহাট",
      "postcode": "৬৩৩০"
    },
    "en": {
      "division": "Rajshahi",
      "district": "Chapai Nawabganj",
      "thana": "Bholahat",
      "suboffice": "Bholahat",
      "postcode": 6330
    }
  },
  "6340": {
    "bn": {
      "division": "রাজশাহী",
      "district": "চাঁপাইনবাবগঞ্জ",
      "thana": "শিবগঞ্জ U.P.O",
      "suboffice": "শিবগঞ্জ U.P.O",
      "postcode": "৬৩৪০"
    },
    "en": {
      "division": "Rajshahi",
      "district": "Chapai Nawabganj",
      "thana": "Shibganj U.P.O",
      "suboffice": "Shibganj U.P.O",
      "postcode": 6340
    }
  },
  "6341": {
    "bn": {
      "division": "রাজশাহী",
      "district": "চাঁপাইনবাবগঞ্জ",
      "thana": "শিবগঞ্জ U.P.O",
      "suboffice": "কনসার্ট",
      "postcode": "৬৩৪১"
    },
    "en": {
      "division": "Rajshahi",
      "district": "Chapai Nawabganj",
      "thana": "Shibganj U.P.O",
      "suboffice": "Kansart",
      "postcode": 6341
    }
  },
  "6342": {
    "bn": {
      "division": "রাজশাহী",
      "district": "চাঁপাইনবাবগঞ্জ",
      "thana": "শিবগঞ্জ U.P.O",
      "suboffice": "মনাকষা",
      "postcode": "৬৩৪২"
    },
    "en": {
      "division": "Rajshahi",
      "district": "Chapai Nawabganj",
      "thana": "Shibganj U.P.O",
      "suboffice": "Manaksha",
      "postcode": 6342
    }
  },
  "6400": {
    "bn": {
      "division": "রাজশাহী",
      "district": "নাটোর",
      "thana": "নাটোর সদর",
      "suboffice": "নাটোর সদর",
      "postcode": "৬৪০০"
    },
    "en": {
      "division": "Rajshahi",
      "district": "Natore",
      "thana": "Natore Sadar",
      "suboffice": "Natore Sadar",
      "postcode": 6400
    }
  },
  "6401": {
    "bn": {
      "division": "রাজশাহী",
      "district": "নাটোর",
      "thana": "নাটোর সদর",
      "suboffice": "দিঘাপাতিয়া",
      "postcode": "৬৪০১"
    },
    "en": {
      "division": "Rajshahi",
      "district": "Natore",
      "thana": "Natore Sadar",
      "suboffice": "Digapatia",
      "postcode": 6401
    }
  },
  "6402": {
    "bn": {
      "division": "রাজশাহী",
      "district": "নাটোর",
      "thana": "নাটোর সদর",
      "suboffice": "বাইদ্দ্যাবল ঘরিয়া",
      "postcode": "৬৪০২"
    },
    "en": {
      "division": "Rajshahi",
      "district": "Natore",
      "thana": "Natore Sadar",
      "suboffice": "Baiddyabal Gharia",
      "postcode": 6402
    }
  },
  "6403": {
    "bn": {
      "division": "রাজশাহী",
      "district": "নাটোর",
      "thana": "নাটোর সদর",
      "suboffice": "মাধনগর",
      "postcode": "৬৪০৩"
    },
    "en": {
      "division": "Rajshahi",
      "district": "Natore",
      "thana": "Natore Sadar",
      "suboffice": "Madhnagar",
      "postcode": 6403
    }
  },
  "6410": {
    "bn": {
      "division": "রাজশাহী",
      "district": "নাটোর",
      "thana": "লক্ষ্মণ",
      "suboffice": "লক্ষ্মণ",
      "postcode": "৬৪১০"
    },
    "en": {
      "division": "Rajshahi",
      "district": "Natore",
      "thana": "Laxman",
      "suboffice": "Laxman",
      "postcode": 6410
    }
  },
  "6420": {
    "bn": {
      "division": "রাজশাহী",
      "district": "নাটোর",
      "thana": "গোপালপুর Upo",
      "suboffice": "গোপালপুর U.P.O",
      "postcode": "৬৪২০"
    },
    "en": {
      "division": "Rajshahi",
      "district": "Natore",
      "thana": "Gopalpur UPO",
      "suboffice": "Gopalpur U.P.O",
      "postcode": 6420
    }
  },
  "6421": {
    "bn": {
      "division": "রাজশাহী",
      "district": "নাটোর",
      "thana": "গোপালপুর Upo",
      "suboffice": "লালপুর S.O",
      "postcode": "৬৪২১"
    },
    "en": {
      "division": "Rajshahi",
      "district": "Natore",
      "thana": "Gopalpur UPO",
      "suboffice": "Lalpur S.O",
      "postcode": 6421
    }
  },
  "6422": {
    "bn": {
      "division": "রাজশাহী",
      "district": "নাটোর",
      "thana": "গোপালপুর Upo",
      "suboffice": "আব্দুলপুর",
      "postcode": "৬৪২২"
    },
    "en": {
      "division": "Rajshahi",
      "district": "Natore",
      "thana": "Gopalpur UPO",
      "suboffice": "Abdulpur",
      "postcode": 6422
    }
  },
  "6430": {
    "bn": {
      "division": "রাজশাহী",
      "district": "নাটোর",
      "thana": "হারুয়া",
      "suboffice": "হারুয়া",
      "postcode": "৬৪৩০"
    },
    "en": {
      "division": "Rajshahi",
      "district": "Natore",
      "thana": "Harua",
      "suboffice": "Harua",
      "postcode": 6430
    }
  },
  "6431": {
    "bn": {
      "division": "রাজশাহী",
      "district": "নাটোর",
      "thana": "হারুয়া",
      "suboffice": "দয়ারামপুর",
      "postcode": "৬৪৩১"
    },
    "en": {
      "division": "Rajshahi",
      "district": "Natore",
      "thana": "Harua",
      "suboffice": "Dayarampur",
      "postcode": 6431
    }
  },
  "6432": {
    "bn": {
      "division": "রাজশাহী",
      "district": "নাটোর",
      "thana": "হারুয়া",
      "suboffice": "বড়াইগ্রাম",
      "postcode": "৬৪৩২"
    },
    "en": {
      "division": "Rajshahi",
      "district": "Natore",
      "thana": "Harua",
      "suboffice": "Baraigram",
      "postcode": 6432
    }
  },
  "6440": {
    "bn": {
      "division": "রাজশাহী",
      "district": "নাটোর",
      "thana": "হাতগুরুদাসপুর",
      "suboffice": "হাতগুরুদাসপুর",
      "postcode": "৬৪৪০"
    },
    "en": {
      "division": "Rajshahi",
      "district": "Natore",
      "thana": "Hatgurudaspur",
      "suboffice": "Hatgurudaspur",
      "postcode": 6440
    }
  },
  "6450": {
    "bn": {
      "division": "রাজশাহী",
      "district": "নাটোর",
      "thana": "সিংড়া",
      "suboffice": "সিংড়া",
      "postcode": "৬৪৫০"
    },
    "en": {
      "division": "Rajshahi",
      "district": "Natore",
      "thana": "Singra",
      "suboffice": "Singra",
      "postcode": 6450
    }
  },
  "6500": {
    "bn": {
      "division": "রাজশাহী",
      "district": "নওগাঁ",
      "thana": "নওগাঁ সদর",
      "suboffice": "নওগাঁ সদর",
      "postcode": "৬৫০০"
    },
    "en": {
      "division": "Rajshahi",
      "district": "Naogaon",
      "thana": "Naogaon Sadar",
      "suboffice": "Naogaon Sadar",
      "postcode": 6500
    }
  },
  "6510": {
    "bn": {
      "division": "রাজশাহী",
      "district": "নওগাঁ",
      "thana": "প্রসাদপুর",
      "suboffice": "প্রসাদপুর",
      "postcode": "৬৫১০"
    },
    "en": {
      "division": "Rajshahi",
      "district": "Naogaon",
      "thana": "Prasadpur",
      "suboffice": "Prasadpur",
      "postcode": 6510
    }
  },
  "6511": {
    "bn": {
      "division": "রাজশাহী",
      "district": "নওগাঁ",
      "thana": "প্রসাদপুর",
      "suboffice": "মান্দা",
      "postcode": "৬৫১১"
    },
    "en": {
      "division": "Rajshahi",
      "district": "Naogaon",
      "thana": "Prasadpur",
      "suboffice": "Manda",
      "postcode": 6511
    }
  },
  "6512": {
    "bn": {
      "division": "রাজশাহী",
      "district": "নওগাঁ",
      "thana": "প্রসাদপুর",
      "suboffice": "বলিহার",
      "postcode": "৬৫১২"
    },
    "en": {
      "division": "Rajshahi",
      "district": "Naogaon",
      "thana": "Prasadpur",
      "suboffice": "Balihar",
      "postcode": 6512
    }
  },
  "6520": {
    "bn": {
      "division": "রাজশাহী",
      "district": "নওগাঁ",
      "thana": "নিয়ামতপুর",
      "suboffice": "নিয়ামতপুর",
      "postcode": "৬৫২০"
    },
    "en": {
      "division": "Rajshahi",
      "district": "Naogaon",
      "thana": "Niamatpur",
      "suboffice": "Niamatpur",
      "postcode": 6520
    }
  },
  "6530": {
    "bn": {
      "division": "রাজশাহী",
      "district": "নওগাঁ",
      "thana": "মহাদেবপুর",
      "suboffice": "মহাদেবপুর",
      "postcode": "৬৫৩০"
    },
    "en": {
      "division": "Rajshahi",
      "district": "Naogaon",
      "thana": "Mahadebpur",
      "suboffice": "Mahadebpur",
      "postcode": 6530
    }
  },
  "6540": {
    "bn": {
      "division": "রাজশাহী",
      "district": "নওগাঁ",
      "thana": "পত্নীতলা",
      "suboffice": "পত্নীতলা",
      "postcode": "৬৫৪০"
    },
    "en": {
      "division": "Rajshahi",
      "district": "Naogaon",
      "thana": "Sapahar",
      "suboffice": "Patnitala",
      "postcode": 6540
    }
  },
  "6550": {
    "bn": {
      "division": "রাজশাহী",
      "district": "নওগাঁ",
      "thana": "নিতপুর",
      "suboffice": "নিতপুর",
      "postcode": "৬৫৫০"
    },
    "en": {
      "division": "Rajshahi",
      "district": "Naogaon",
      "thana": "Nitpur",
      "suboffice": "Nitpur",
      "postcode": 6550
    }
  },
  "6551": {
    "bn": {
      "division": "রাজশাহী",
      "district": "নওগাঁ",
      "thana": "নিতপুর",
      "suboffice": "পোরশা",
      "postcode": "৬৫৫১"
    },
    "en": {
      "division": "Rajshahi",
      "district": "Naogaon",
      "thana": "Nitpur",
      "suboffice": "Porsa",
      "postcode": 6551
    }
  },
  "6552": {
    "bn": {
      "division": "রাজশাহী",
      "district": "নওগাঁ",
      "thana": "নিতপুর",
      "suboffice": "গাঙ্গুরিয়া",
      "postcode": "৬৫৫২"
    },
    "en": {
      "division": "Rajshahi",
      "district": "Naogaon",
      "thana": "Nitpur",
      "suboffice": "Panguria",
      "postcode": 6552
    }
  },
  "6560": {
    "bn": {
      "division": "রাজশাহী",
      "district": "নওগাঁ",
      "thana": "সাপাহার",
      "suboffice": "সাপাহার",
      "postcode": "৬৫৬০"
    },
    "en": {
      "division": "Rajshahi",
      "district": "Naogaon",
      "thana": "Sapahar",
      "suboffice": "Sapahar",
      "postcode": 6560
    }
  },
  "6561": {
    "bn": {
      "division": "রাজশাহী",
      "district": "নওগাঁ",
      "thana": "পত্নীতলা",
      "suboffice": "মধুইল",
      "postcode": "৬৫৬১"
    },
    "en": {
      "division": "Rajshahi",
      "district": "Naogaon",
      "thana": "Sapahar",
      "suboffice": "Moduhil",
      "postcode": 6561
    }
  },
  "6570": {
    "bn": {
      "division": "রাজশাহী",
      "district": "নওগাঁ",
      "thana": "বদলগাছী",
      "suboffice": "বদলগাছী",
      "postcode": "৬৫৭০"
    },
    "en": {
      "division": "Rajshahi",
      "district": "Naogaon",
      "thana": "Badalgachhi",
      "suboffice": "Badalgachhi",
      "postcode": 6570
    }
  },
  "6580": {
    "bn": {
      "division": "রাজশাহী",
      "district": "নওগাঁ",
      "thana": "ধামুইরহাট",
      "suboffice": "ধামুইরহাট",
      "postcode": "৬৫৮০"
    },
    "en": {
      "division": "Rajshahi",
      "district": "Naogaon",
      "thana": "Dhamuirhat",
      "suboffice": "Dhamuirhat",
      "postcode": 6580
    }
  },
  "6590": {
    "bn": {
      "division": "রাজশাহী",
      "district": "নওগাঁ",
      "thana": "রানীনগর",
      "suboffice": "রানীনগর",
      "postcode": "৬৫৯০"
    },
    "en": {
      "division": "Rajshahi",
      "district": "Naogaon",
      "thana": "Raninagar",
      "suboffice": "Raninagar",
      "postcode": 6590
    }
  },
  "6591": {
    "bn": {
      "division": "রাজশাহী",
      "district": "নওগাঁ",
      "thana": "রানীনগর",
      "suboffice": "কাশিমপুর",
      "postcode": "৬৫৯১"
    },
    "en": {
      "division": "Rajshahi",
      "district": "Naogaon",
      "thana": "Raninagar",
      "suboffice": "Kashimpur",
      "postcode": 6591
    }
  },
  "6596": {
    "bn": {
      "division": "রাজশাহী",
      "district": "নওগাঁ",
      "thana": "আহসানগঞ্জ",
      "suboffice": "আহসানগঞ্জ",
      "postcode": "৬৫৯৬"
    },
    "en": {
      "division": "Rajshahi",
      "district": "Naogaon",
      "thana": "Ahsanganj",
      "suboffice": "Ahsanganj",
      "postcode": 6596
    }
  },
  "6597": {
    "bn": {
      "division": "রাজশাহী",
      "district": "নওগাঁ",
      "thana": "আহসানগঞ্জ",
      "suboffice": "বান্দাই",
      "postcode": "৬৫৯৭"
    },
    "en": {
      "division": "Rajshahi",
      "district": "Naogaon",
      "thana": "Ahsanganj",
      "suboffice": "Bandai",
      "postcode": 6597
    }
  },
  "6600": {
    "bn": {
      "division": "রাজশাহী",
      "district": "পাবনা",
      "thana": "পাবনা সদর",
      "suboffice": "পাবনা সদর",
      "postcode": "৬৬০০"
    },
    "en": {
      "division": "Rajshahi",
      "district": "Pabna",
      "thana": "Pabna Sadar",
      "suboffice": "Pabna Sadar",
      "postcode": 6600
    }
  },
  "6601": {
    "bn": {
      "division": "রাজশাহী",
      "district": "পাবনা",
      "thana": "পাবনা সদর",
      "suboffice": "কালিকো কটন মিলস",
      "postcode": "৬৬০১"
    },
    "en": {
      "division": "Rajshahi",
      "district": "Pabna",
      "thana": "Pabna Sadar",
      "suboffice": "Kaliko Cotton Mills",
      "postcode": 6601
    }
  },
  "6602": {
    "bn": {
      "division": "রাজশাহী",
      "district": "পাবনা",
      "thana": "পাবনা সদর",
      "suboffice": "হেমায়েতপুর",
      "postcode": "৬৬০২"
    },
    "en": {
      "division": "Rajshahi",
      "district": "Pabna",
      "thana": "Pabna Sadar",
      "suboffice": "Hamayetpur",
      "postcode": 6602
    }
  },
  "6610": {
    "bn": {
      "division": "রাজশাহী",
      "district": "পাবনা",
      "thana": "আটঘরিয়া",
      "suboffice": "আটঘরিয়া",
      "postcode": "৬৬১০"
    },
    "en": {
      "division": "Rajshahi",
      "district": "Pabna",
      "thana": "Atghoria",
      "suboffice": "Atghoria",
      "postcode": 6610
    }
  },
  "6620": {
    "bn": {
      "division": "রাজশাহী",
      "district": "পাবনা",
      "thana": "ঈশ্বরদী",
      "suboffice": "ঈশ্বরদী",
      "postcode": "৬৬২০"
    },
    "en": {
      "division": "Rajshahi",
      "district": "Pabna",
      "thana": "Ishwardi",
      "suboffice": "Ishwardi",
      "postcode": 6620
    }
  },
  "6621": {
    "bn": {
      "division": "রাজশাহী",
      "district": "পাবনা",
      "thana": "ঈশ্বরদী",
      "suboffice": "ধাপারী",
      "postcode": "৬৬২১"
    },
    "en": {
      "division": "Rajshahi",
      "district": "Pabna",
      "thana": "Ishwardi",
      "suboffice": "Dhapari",
      "postcode": 6621
    }
  },
  "6622": {
    "bn": {
      "division": "রাজশাহী",
      "district": "পাবনা",
      "thana": "ঈশ্বরদী",
      "suboffice": "পাকশী",
      "postcode": "৬৬২২"
    },
    "en": {
      "division": "Rajshahi",
      "district": "Pabna",
      "thana": "Ishwardi",
      "suboffice": "Pakshi",
      "postcode": 6622
    }
  },
  "6623": {
    "bn": {
      "division": "রাজশাহী",
      "district": "পাবনা",
      "thana": "ঈশ্বরদী",
      "suboffice": "রাজাপুর",
      "postcode": "৬৬২৩"
    },
    "en": {
      "division": "Rajshahi",
      "district": "Pabna",
      "thana": "Ishwardi",
      "suboffice": "Rajapur",
      "postcode": 6623
    }
  },
  "6630": {
    "bn": {
      "division": "রাজশাহী",
      "district": "পাবনা",
      "thana": "চাটমোহর",
      "suboffice": "চাটমোহর",
      "postcode": "৬৬৩০"
    },
    "en": {
      "division": "Rajshahi",
      "district": "Pabna",
      "thana": "Chatmohar",
      "suboffice": "Chatmohar",
      "postcode": 6630
    }
  },
  "6640": {
    "bn": {
      "division": "রাজশাহী",
      "district": "পাবনা",
      "thana": "ভাঙ্গুরা",
      "suboffice": "ভাঙ্গুরা",
      "postcode": "৬৬৪০"
    },
    "en": {
      "division": "Rajshahi",
      "district": "Pabna",
      "thana": "Bhangura",
      "suboffice": "Bhangura",
      "postcode": 6640
    }
  },
  "6650": {
    "bn": {
      "division": "রাজশাহী",
      "district": "পাবনা",
      "thana": "ফরিদপুর",
      "suboffice": "ফরিদপুর",
      "postcode": "৬৬৫০"
    },
    "en": {
      "division": "Rajshahi",
      "district": "Pabna",
      "thana": "Banwarinagar",
      "suboffice": "Banwarinagar",
      "postcode": 6650
    }
  },
  "6660": {
    "bn": {
      "division": "রাজশাহী",
      "district": "পাবনা",
      "thana": "সুজানগর",
      "suboffice": "সুজানগর",
      "postcode": "৬৬৬০"
    },
    "en": {
      "division": "Rajshahi",
      "district": "Pabna",
      "thana": "Sujanagar",
      "suboffice": "Sujanagar",
      "postcode": 6660
    }
  },
  "6661": {
    "bn": {
      "division": "রাজশাহী",
      "district": "পাবনা",
      "thana": "সুজানগর",
      "suboffice": "সাগরকান্দি",
      "postcode": "৬৬৬১"
    },
    "en": {
      "division": "Rajshahi",
      "district": "Pabna",
      "thana": "Sujanagar",
      "suboffice": "Sagarkandi",
      "postcode": 6661
    }
  },
  "6670": {
    "bn": {
      "division": "রাজশাহী",
      "district": "পাবনা",
      "thana": "সাঁথিয়া",
      "suboffice": "সাঁথিয়া",
      "postcode": "৬৬৭০"
    },
    "en": {
      "division": "Rajshahi",
      "district": "Pabna",
      "thana": "Sathia",
      "suboffice": "Sathia",
      "postcode": 6670
    }
  },
  "6680": {
    "bn": {
      "division": "রাজশাহী",
      "district": "পাবনা",
      "thana": "বেড়া",
      "suboffice": "বেড়া",
      "postcode": "৬৬৮০"
    },
    "en": {
      "division": "Rajshahi",
      "district": "Pabna",
      "thana": "Bera",
      "suboffice": "Bera",
      "postcode": 6680
    }
  },
  "6681": {
    "bn": {
      "division": "রাজশাহী",
      "district": "পাবনা",
      "thana": "বেড়া",
      "suboffice": "নাকালিয়া",
      "postcode": "৬৬৮১"
    },
    "en": {
      "division": "Rajshahi",
      "district": "Pabna",
      "thana": "Bera",
      "suboffice": "Nakalia",
      "postcode": 6681
    }
  },
  "6682": {
    "bn": {
      "division": "রাজশাহী",
      "district": "পাবনা",
      "thana": "বেড়া",
      "suboffice": "কাশিনাথপুর",
      "postcode": "৬৬৮২"
    },
    "en": {
      "division": "Rajshahi",
      "district": "Pabna",
      "thana": "Bera",
      "suboffice": "Kashinathpur",
      "postcode": 6682
    }
  },
  "6683": {
    "bn": {
      "division": "রাজশাহী",
      "district": "পাবনা",
      "thana": "বেড়া",
      "suboffice": "পুরান ভারেঙ্গা",
      "postcode": "৬৬৮৩"
    },
    "en": {
      "division": "Rajshahi",
      "district": "Pabna",
      "thana": "Bera",
      "suboffice": "Puran Bharenga",
      "postcode": 6683
    }
  },
  "6700": {
    "bn": {
      "division": "রাজশাহী",
      "district": "সিরাজগঞ্জ",
      "thana": "সিরাজগঞ্জ সদর",
      "suboffice": "সিরাজগঞ্জ সদর",
      "postcode": "৬৭০০"
    },
    "en": {
      "division": "Rajshahi",
      "district": "Sirajganj",
      "thana": "Sirajganj Sadar",
      "suboffice": "Sirajganj Sadar",
      "postcode": 6700
    }
  },
  "6701": {
    "bn": {
      "division": "রাজশাহী",
      "district": "সিরাজগঞ্জ",
      "thana": "সিরাজগঞ্জ সদর",
      "suboffice": "রায়পুর",
      "postcode": "৬৭০১"
    },
    "en": {
      "division": "Rajshahi",
      "district": "Sirajganj",
      "thana": "Sirajganj Sadar",
      "suboffice": "Raipur",
      "postcode": 6701
    }
  },
  "6702": {
    "bn": {
      "division": "রাজশাহী",
      "district": "সিরাজগঞ্জ",
      "thana": "সিরাজগঞ্জ সদর",
      "suboffice": "রাশিদাবাদ",
      "postcode": "৬৭০২"
    },
    "en": {
      "division": "Rajshahi",
      "district": "Sirajganj",
      "thana": "Sirajganj Sadar",
      "suboffice": "Rashidabad",
      "postcode": 6702
    }
  },
  "6710": {
    "bn": {
      "division": "রাজশাহী",
      "district": "সিরাজগঞ্জ",
      "thana": "কাজীপুর",
      "suboffice": "কাজীপুর",
      "postcode": "৬৭১০"
    },
    "en": {
      "division": "Rajshahi",
      "district": "Sirajganj",
      "thana": "Kazipur",
      "suboffice": "Kazipur",
      "postcode": 6710
    }
  },
  "6711": {
    "bn": {
      "division": "রাজশাহী",
      "district": "সিরাজগঞ্জ",
      "thana": "কাজীপুর",
      "suboffice": "শুভগাছা",
      "postcode": "৬৭১১"
    },
    "en": {
      "division": "Rajshahi",
      "district": "Sirajganj",
      "thana": "Kazipur",
      "suboffice": "Shuvgachha",
      "postcode": 6711
    }
  },
  "6712": {
    "bn": {
      "division": "রাজশাহী",
      "district": "সিরাজগঞ্জ",
      "thana": "কাজীপুর",
      "suboffice": "গান্ধাইল",
      "postcode": "৬৭১২"
    },
    "en": {
      "division": "Rajshahi",
      "district": "Sirajganj",
      "thana": "Kazipur",
      "suboffice": "Gandail",
      "postcode": 6712
    }
  },
  "6720": {
    "bn": {
      "division": "রাজশাহী",
      "district": "সিরাজগঞ্জ",
      "thana": "ধানগড়া",
      "suboffice": "ধানগড়া",
      "postcode": "৬৭২০"
    },
    "en": {
      "division": "Rajshahi",
      "district": "Sirajganj",
      "thana": "Dhangora",
      "suboffice": "Dhangora",
      "postcode": 6720
    }
  },
  "6721": {
    "bn": {
      "division": "রাজশাহী",
      "district": "সিরাজগঞ্জ",
      "thana": "ধানগড়া",
      "suboffice": "মালঙ্গা",
      "postcode": "৬৭২১"
    },
    "en": {
      "division": "Rajshahi",
      "district": "Sirajganj",
      "thana": "Dhangora",
      "suboffice": "Malonga",
      "postcode": 6721
    }
  },
  "6730": {
    "bn": {
      "division": "রাজশাহী",
      "district": "সিরাজগঞ্জ",
      "thana": "বাইদ্দ্যা জামতৈল",
      "suboffice": "বাইদ্দ্যা জামতৈল",
      "postcode": "৬৭৩০"
    },
    "en": {
      "division": "Rajshahi",
      "district": "Sirajganj",
      "thana": "Baiddya Jam Toil",
      "suboffice": "Baiddya Jam Toil",
      "postcode": 6730
    }
  },
  "6740": {
    "bn": {
      "division": "রাজশাহী",
      "district": "সিরাজগঞ্জ",
      "thana": "বেলকুচি",
      "suboffice": "বেলকুচি",
      "postcode": "৬৭৪০"
    },
    "en": {
      "division": "Rajshahi",
      "district": "Sirajganj",
      "thana": "Belkuchi",
      "suboffice": "Belkuchi",
      "postcode": 6740
    }
  },
  "6741": {
    "bn": {
      "division": "রাজশাহী",
      "district": "সিরাজগঞ্জ",
      "thana": "বেলকুচি",
      "suboffice": "সোহাগপুর",
      "postcode": "৬৭৪১"
    },
    "en": {
      "division": "Rajshahi",
      "district": "Sirajganj",
      "thana": "Belkuchi",
      "suboffice": "Sohagpur",
      "postcode": 6741
    }
  },
  "6742": {
    "bn": {
      "division": "রাজশাহী",
      "district": "সিরাজগঞ্জ",
      "thana": "বেলকুচি",
      "suboffice": "রাজাপুর",
      "postcode": "৬৭৪২"
    },
    "en": {
      "division": "Rajshahi",
      "district": "Sirajganj",
      "thana": "Belkuchi",
      "suboffice": "Rajapur",
      "postcode": 6742
    }
  },
  "6751": {
    "bn": {
      "division": "রাজশাহী",
      "district": "সিরাজগঞ্জ",
      "thana": "বেলকুচি",
      "suboffice": "এনায়েতপুর",
      "postcode": "৬৭৫১"
    },
    "en": {
      "division": "Rajshahi",
      "district": "Sirajganj",
      "thana": "Belkuchi",
      "suboffice": "Enayetpur",
      "postcode": 6751
    }
  },
  "6752": {
    "bn": {
      "division": "রাজশাহী",
      "district": "সিরাজগঞ্জ",
      "thana": "বেলকুচি",
      "suboffice": "স্থল",
      "postcode": "৬৭৫২"
    },
    "en": {
      "division": "Rajshahi",
      "district": "Sirajganj",
      "thana": "Belkuchi",
      "suboffice": "Sthal",
      "postcode": 6752
    }
  },
  "6760": {
    "bn": {
      "division": "রাজশাহী",
      "district": "সিরাজগঞ্জ",
      "thana": "উল্লাপাড়া",
      "suboffice": "উল্লাপাড়া",
      "postcode": "৬৭৬০"
    },
    "en": {
      "division": "Rajshahi",
      "district": "Sirajganj",
      "thana": "Ullapara",
      "suboffice": "Ullapara",
      "postcode": 6760
    }
  },
  "6761": {
    "bn": {
      "division": "রাজশাহী",
      "district": "সিরাজগঞ্জ",
      "thana": "উল্লাপাড়া",
      "suboffice": "উল্লাপাড়া R.S",
      "postcode": "৬৭৬১"
    },
    "en": {
      "division": "Rajshahi",
      "district": "Sirajganj",
      "thana": "Ullapara",
      "suboffice": "Ullapara R.S",
      "postcode": 6761
    }
  },
  "6762": {
    "bn": {
      "division": "রাজশাহী",
      "district": "সিরাজগঞ্জ",
      "thana": "উল্লাপাড়া",
      "suboffice": "লাহিড়ী মোহনপুর",
      "postcode": "৬৭৬২"
    },
    "en": {
      "division": "Rajshahi",
      "district": "Sirajganj",
      "thana": "Ullapara",
      "suboffice": "Lahiri Mohanpur",
      "postcode": 6762
    }
  },
  "6763": {
    "bn": {
      "division": "রাজশাহী",
      "district": "সিরাজগঞ্জ",
      "thana": "উল্লাপাড়া",
      "suboffice": "সালাপ",
      "postcode": "৬৭৬৩"
    },
    "en": {
      "division": "Rajshahi",
      "district": "Sirajganj",
      "thana": "Ullapara",
      "suboffice": "Salap",
      "postcode": 6763
    }
  },
  "6770": {
    "bn": {
      "division": "রাজশাহী",
      "district": "সিরাজগঞ্জ",
      "thana": "শাহজাদপুর",
      "suboffice": "শাহজাদপুর",
      "postcode": "৬৭৭০"
    },
    "en": {
      "division": "Rajshahi",
      "district": "Sirajganj",
      "thana": "Shahjadpur",
      "suboffice": "Shahjadpur",
      "postcode": 6770
    }
  },
  "6771": {
    "bn": {
      "division": "রাজশাহী",
      "district": "সিরাজগঞ্জ",
      "thana": "শাহজাদপুর",
      "suboffice": "পরজানা",
      "postcode": "৬৭৭১"
    },
    "en": {
      "division": "Rajshahi",
      "district": "Sirajganj",
      "thana": "Shahjadpur",
      "suboffice": "Porjana",
      "postcode": 6771
    }
  },
  "6772": {
    "bn": {
      "division": "রাজশাহী",
      "district": "সিরাজগঞ্জ",
      "thana": "শাহজাদপুর",
      "suboffice": "জামিরটা",
      "postcode": "৬৭৭২"
    },
    "en": {
      "division": "Rajshahi",
      "district": "Sirajganj",
      "thana": "Shahjadpur",
      "suboffice": "Jamirta",
      "postcode": 6772
    }
  },
  "6773": {
    "bn": {
      "division": "রাজশাহী",
      "district": "সিরাজগঞ্জ",
      "thana": "শাহজাদপুর",
      "suboffice": "কৈজুরী",
      "postcode": "৬৭৭৩"
    },
    "en": {
      "division": "Rajshahi",
      "district": "Sirajganj",
      "thana": "Shahjadpur",
      "suboffice": "Kaijuri",
      "postcode": 6773
    }
  },
  "6780": {
    "bn": {
      "division": "রাজশাহী",
      "district": "সিরাজগঞ্জ",
      "thana": "তাড়াশ",
      "suboffice": "তাড়াশ",
      "postcode": "৬৭৮০"
    },
    "en": {
      "division": "Rajshahi",
      "district": "Sirajganj",
      "thana": "Tarash",
      "suboffice": "Tarash",
      "postcode": 6780
    }
  }
}
